name,city,brewery_type,url,address,address_2,postal_code,state_province,phone,website_url,social_media,country
101 Brewhouse + Distillery,Gibsons,"['Beer Service', 'Brewpub', 'Cider', 'Distilling', 'Family Friendly', 'Food Service', 'Growler Fills', 'Live Music', 'Merchandise', 'Shopping', 'Take-Out', 'Wine']",https://bcaletrail.ca/breweries/101-brewhouse-distillery/,1009 Gibsons Way,N/A,V0N 1V7,BC,7784622011,https://the101.ca/,"['https://twitter.com/The101Gibsons', 'https://www.facebook.com/pg/The101Gibsons', 'https://www.instagram.com/the101gibsons/', 'https://untappd.com/w/101-brewhouse-distillery/357883']",Canada
3 Dogs Brewing,White Rock,"['Beer Service', 'Board Games', 'Comedy Events', 'Family Friendly', 'Growler Fills', 'Live Music', 'Merchandise', 'Snacks']",https://bcaletrail.ca/breweries/3-dogs-brewing/,107 - 15181 Thrift Avenue,N/A,V4B 0C1,BC,6043851364,http://www.3dogsbrewing.com,"['https://twitter.com/3Dogs_Brewing', 'https://www.facebook.com/3dogsbrewingofficial/', 'https://www.instagram.com/3dogsbrewing/', 'https://untappd.com/3_Dogs_Brewing']",Canada
33 Acres Brewing Company,Vancouver,"['Barrels', 'Cider Production', 'Events', 'Family Friendly', 'Food Truck(s)', 'Growler Fills', 'Has Tours', 'Keg Sales/Rentals', 'Merchandise', 'Patio', 'Shopping', 'Tasting Room Kitchen']",https://bcaletrail.ca/breweries/33-acres-brewing-co/,15 W 8th Ave,N/A,V5Y 1M8,BC,6046204589,https://33acresbrewing.com/,"['https://www.facebook.com/33acresbrewing/', 'https://www.instagram.com/33acresbrewing/', 'https://untappd.com/w/33-acres-brewing-co/71017']",Canada
33 Brewing Experiment,Vancouver,"['Barrels', 'Beer Service', 'Cider', 'Events', 'Family Friendly', 'Food Truck(s)', 'Growler Fills', 'Has Tours', 'Keg Sales/Rentals', 'Merchandise', 'Shopping', 'Snacks']",https://bcaletrail.ca/breweries/33-brewing-experiment/,25 W 8th Ave,N/A,V5Y 1M8,BC,6046204589,https://33brewingexp.com/,"['https://www.facebook.com/33brewingexp/', 'https://www.instagram.com/33brewingexp/', 'https://untappd.com/w/33-brewing-experiment/405524']",Canada
4 Mile Brewing,Victoria,"['Brewpub', 'Family Friendly', 'Growler Fills', 'Merchandise', 'Wine']",https://bcaletrail.ca/breweries/4-mile-brewing-co/,199 Island Hwy,N/A,V9B 1G2,BC,2504792514,http://4milebrewingco.com,"['https://www.facebook.com/4milebrewingco/', 'https://untappd.com/4MileBrewing']",Canada
A-FRAME Brewing,Squamish,"['Beer Service', 'Cider', 'Cocktails', 'Craft Sodas', 'Delivery from Local Restaurants Available', 'Events', 'Experience', 'Family Friendly', 'Food Service', 'Food Truck(s)', 'Gender Neutral Washrooms', 'GF Food Options', 'Growler Fills', 'Keg Sales/Rentals', 'Kombucha', 'Live Music', 'Merchandise', 'Shopping', 'Snacks', 'What Else?', 'Wheelchair Accessible', 'Wine']",https://bcaletrail.ca/breweries/a-frame-brewing-co/,1 - 38927 Queens Way,N/A,N/A,BC,6048920777,http://aframebrewing.com,"['https://twitter.com/aframebrewing', 'https://www.facebook.com/aframebrewing', 'https://www.instagram.com/aframebrewing', 'https://untappd.com/AFrameBrewingCompany']",Canada
Abandoned Rail Brewing Co,Penticton,"['All Weather Patio', 'Baby Change Table (gender neutral washroom)', 'Barrels', 'Bike Racks', 'Board Games', 'Brewpub', 'Cider', 'Cocktails', ""Code of Conduct on Brewery's Website"", 'Crowlers', 'Dog Friendly Patio', 'Educational events', 'Family Friendly', 'Farm', 'Gender Neutral Washrooms', 'GF Food Options', 'Growler Fills', 'Guest Taps', 'Hotel', 'Keg Sales/Rentals', 'Kombucha', 'Merchandise', 'Non Alc Beer Available', 'Patio', 'Picnic Area Outside', 'Safe Space Signage', 'Snacks', 'Spirits', 'Wheelchair Accessible', 'Wine']",https://bcaletrail.ca/breweries/abandoned-rail-brewing/,1220 Davenport Ave,N/A,V2A 8V1,BC,7784767704,https://www.arbrewco.com/,"['https://www.facebook.com/profile.php?id=61557457193019', 'https://www.instagram.com/abandonedrailbrewco/', 'https://untappd.com/AbandonedRailBrewing']",Canada
Ace Brewing,Courtenay,"['Beer Service', 'Growler Fills', 'Keg Sales/Rentals', 'Live Music', 'Online Shopping - Merch', 'Shopping', 'Snacks', 'Take-Out', 'Tasting Room Kitchen']",https://bcaletrail.ca/breweries/ace-brewing/,150 Mansfield Drive,N/A,V9N 6C5,BC,2503381182,https://acebrewing.ca/,"['https://twitter.com/AceBrewery', 'https://www.facebook.com/pg/acebrewingcompany', 'https://www.instagram.com/acebrewingcompany/', 'https://untappd.com/AceBrewingCompany']",Canada
Alberni Brewing Co.,Port Alberni,"['Brewpub', 'Call in or Order Online', 'Cider', 'Family Friendly', 'Growler Fills', 'Keg Sales/Rentals', 'Merchandise', 'Patio', 'Wine']",https://bcaletrail.ca/breweries/alberni-brewing-co/,4630 Adelaide Street,N/A,V9Y 6N4,BC,7787448010,https://albernibrewingcompany.ca/,"['https://www.facebook.com/AlberniBrewingCompany', 'https://www.instagram.com/albernibrewing/', 'https://untappd.com/AlberniBrewing']",Canada
Angry Hen Brewing,Kaslo,"['Beer Service', 'Family Friendly', 'Growler Fills', 'Has Tours', 'Merchandise', 'Patio', 'Shopping', 'Snacks', 'Take-Out']",https://bcaletrail.ca/breweries/angry-hen-brewing/,343 Front Street,N/A,V0G 1M0,BC,2503537446,http://angryhenbrewing.com,"['https://www.facebook.com/angryhenbrewing/', 'https://www.instagram.com/angryhenbrewing/', 'https://untappd.com/AngryHenBrewing']",Canada
Another Beer Co,New Westminster,"['Family Friendly', 'Has Tours', 'Shopping', 'Snacks']",https://bcaletrail.ca/breweries/another-beer-co/,Capilano Way,#11 - 30,V3L 5M3,BC,7782329112,http://www.anotherbeerco.com/store,"['https://twitter.com/anotherbeerco', 'https://www.facebook.com/anotherbeerco/', 'https://www.instagram.com/anotherbeerco/', 'https://untappd.com/w/another-beer-company/396668']",Canada
Arrowhead Brewing Company,Invermere,"['Board Games', 'Cider', 'Delivery from Local Restaurants Available', 'Dog Friendly Patio', 'Family Friendly', 'Food Truck(s)', 'Gender Neutral Washrooms', 'Growler Fills', 'Keg Sales/Rentals', 'Live Music', 'Merchandise', 'Non Alc Beer Available', 'Patio', 'Snacks', 'Wheelchair Accessible', 'Wine']",https://bcaletrail.ca/breweries/arrowhead-brewing-company/,481 Arrow Road,N/A,V0A 1K2,BC,7785262739,http://arrowheadbrewingcompany.ca,"['https://www.facebook.com/arrowheadbrew', 'https://www.instagram.com/arrowheadbrew/']",Canada
Backcountry Brewing,Squamish,"['Barrels', 'Beer Service', 'Brewpub', 'Cider', 'Experience', 'Family Friendly', 'Food Service', 'Growler Fills', 'Has Tours', 'Live Music', 'Merchandise', 'Take-Out', 'What Else?', 'Wine']",https://bcaletrail.ca/breweries/backcountry-brewing/,405-1201 Commercial Place,N/A,N/A,BC,6045672739,http://www.backcountrybrewing.com,"['https://twitter.com/Backcountry604', 'https://www.facebook.com/backcountrybrewing/', 'https://www.instagram.com/backcountrybrewing/', 'https://untappd.com/w/backcountry-brewing/332875']",Canada
Backroads Brewing Company,Nelson,"['Family Friendly', 'Growler Fills', 'Merchandise', 'Shopping', 'Snacks', 'Take-Out']",https://bcaletrail.ca/breweries/backroads-brewing-company/,460 Baker St,N/A,V1L 4H7,BC,7784633361,http://backroadsbrewing.com,"['https://twitter.com/backroadsbrews', 'https://www.facebook.com/backroadsbrews/', 'https://www.instagram.com/backroadsbrewing/', 'https://untappd.com/BackroadsBrewingCo']",Canada
Backroads Brewing – Osoyoos,Osoyoos,"['Accessibility & Inclusion', 'Beer Service', 'Bike Racks', 'Canada Post delivery across BC', 'Cider', 'Cocktails', 'Craft Sodas', 'Delivery from Local Restaurants Available', 'Dog Friendly Zone', 'Experience', 'Food Service', 'Gender Neutral Washrooms', 'Hotel', 'Keg Sales/Rentals', 'Kombucha', 'Non Alc Beer Available', 'Patio', 'Shopping', 'Videogames', 'Wheelchair Accessible', 'Wine']",https://bcaletrail.ca/breweries/backroads-brewing-co-osoyoss/,15 Park Place,N/A,V0H 1V0,BC,N/A,https://backroadsbrewing.com/,"['https://twitter.com/backroadsbrews', 'https://www.facebook.com/backroadsbrews', 'https://www.instagram.com/backroadsbrewing/', 'https://untappd.com/BackroadsBrewingCo']",Canada
Bad Dog Brewing,Sooke,"['Gender Neutral Washrooms', 'Growler Fills', 'Has Tours', 'Merchandise', 'Picnics', 'Shopping', 'Snacks', 'Take-Out', 'Wheelchair Accessible']",https://bcaletrail.ca/breweries/bad-dog-brewing/,7861 Tugwell Rd,N/A,V9Z 0J7,BC,2506423621,http://www.baddogbrewing.ca,"['https://www.facebook.com/sookebaddogbrewing/', 'https://www.instagram.com/baddogbrewingco/']",Canada
Barkerville Brewing,Quesnel,"['Family Friendly', 'Growler Fills', 'Merchandise', 'Online Shopping - Merch', 'Shopping', 'Snacks', 'Take-Out']",https://bcaletrail.ca/breweries/barkerville-brewing-co/,185 Davie St,N/A,V2J 2S8,BC,7784142739,https://barkervillebeer.com,"['https://twitter.com/BarkervilleBeer', 'https://www.facebook.com/BarkervilleBeer/', 'https://www.instagram.com/barkervillebeer/', 'https://untappd.com/BarkervilleBrewingCo']",Canada
Barley Mill Brew Pub,Penticton,"['All Weather Patio', ""Baby Change Table (women's washroom)"", 'Bike Racks', 'Board Games', 'Brewpub', 'Cider', 'Cocktails', 'Dog Friendly Patio', 'Family Friendly', 'GF Food Options', 'Growler Fills', 'Keg Sales/Rentals', 'Live Music', 'Merchandise', 'Non Alc Beer Available', 'Patio', 'Snacks', 'Spirits', 'Wine']",https://bcaletrail.ca/breweries/barley-mill-brew-pub-bistro/,2460 Skaha Lake Rd,N/A,V2A 6E9,BC,2504938000,http://barleymillpub.com,"['https://twitter.com/barleymillbrew', 'https://www.facebook.com/Barley.Mill.Pub.Penticton/', 'https://www.instagram.com/barleymillpubpenticton/', 'https://untappd.com/w/barley-mill-brew-pub-british-columbia/34072']",Canada
Barley Station Brew Pub,Salmon Arm,"['Brewpub', 'GF Food Options', 'Growler Fills', 'Live Music', 'Merchandise']",https://bcaletrail.ca/breweries/barley-station-brew-pub/,20 Shuswap St S,N/A,V1E 1G1,BC,2508320999,http://barleystation.com,"['https://www.facebook.com/BarleyStationBrewPub/', 'https://www.instagram.com/barleystation/', 'https://untappd.com/w/barley-station-brew-pub-shuswap-lake-brewing-company/3035']",Canada
Barn Owl Brewing,Kelowna,"['Cider', 'Crowlers', 'Growler Fills', 'Take-Out', 'Wine']",https://bcaletrail.ca/breweries/barn-owl-brewing/,Lakeshore Rd,#102 - 4629,V1W 1X3,BC,7787609349,https://www.barnowlbrewing.ca/,"['https://www.facebook.com/pages/category/Brewery/Barn-Owl-Brewing-Company-1198749453615387/', 'https://www.instagram.com/barnowlbrew/', 'https://untappd.com/Barn_Owl_Brewing']",Canada
Barnside Brewing,Delta,"['Barrels', 'Beer Service', 'Brewpub', 'Cider', 'Craft Sodas', 'Crowlers', 'Dog Friendly Zone', 'Family Friendly', 'Farm', 'Food Service', 'Gender Neutral Washrooms', 'GF Food Options', 'Growler Fills', 'Keg Sales/Rentals', 'Patio', 'Tasting Room Kitchen', 'What Else?', 'Wheelchair Accessible', 'Wine']",https://bcaletrail.ca/breweries/barnside-brewing-co/,6655 60th Ave,N/A,V4K4E2,BC,7784342264,http://www.barnsidebrewing.ca,"['https://www.facebook.com/barnsidebrewing', 'http://www.instagram.com/barnsidebrewing', 'https://untappd.com/BarnsideBrewingCo']",Canada
Batch 44 Brewery & Kitchen,Sechelt,"['Beer Service', 'Brewpub', 'Experience', 'Family Friendly', 'Food Service', 'GF Food Options', 'Growler Fills', 'Take-Out', 'Wine']",https://bcaletrail.ca/breweries/batch-44-brewery-kitchen/,5559 Wharf Ave,N/A,V0N 3A0,BC,6047403805,https://www.batch44brewery.com/,"['https://www.facebook.com/pages/Batch-44-Brewery/102447004669676', 'https://www.instagram.com/batch44brewery/', 'https://untappd.com/w/batch-44-brewery/458038']",Canada
Bayview Brewing Company,Ladysmith,"['All Weather Patio', 'Baby Change Table (gender neutral washroom)', 'Bike Racks', 'Brewpub', 'Cider', 'Craft Sodas', 'Dog Friendly Patio', 'Family Friendly', 'Gender Neutral Washrooms', 'GF Food Options', 'Gluten-Free Beer', 'Growler Fills', 'Guest Taps', 'Has Tours', 'Kombucha', 'Merchandise', 'Non Alc Beer Available', 'Safe Space Signage', 'Wheelchair Accessible', 'Wine']",https://bcaletrail.ca/breweries/bayview-brewing-co/,204 Dogwood Drive,N/A,V9G 1S8,BC,2509120166,N/A,"['https://www.facebook.com/bayviewbrewingcompany/', 'https://www.instagram.com/bayviewbrewing/', 'http://www.untappd.com/bayviewbrewing']",Canada
Beach Fire Brewing,Campbell River,"['Beer Service', 'Brewpub', 'Cask Beer', 'Cider', 'Coffee', 'Craft Sodas', 'Family Friendly', 'Growler Fills', 'Has Tours', 'Keg Sales/Rentals', 'Kombucha', 'Live Music', 'Merchandise', 'Online Shopping - Gift Cards', 'Online Shopping - Merch', 'Shopping', 'Take-Out', 'Wine']",https://bcaletrail.ca/breweries/beach-fire-brewing/,594 11 Ave,N/A,V9W 4G4,BC,2509143473,http://www.beachfirebrewing.ca/,"['https://twitter.com/beachfirebrew', 'https://www.facebook.com/beachfirebrewing/', 'https://www.instagram.com/beachfirebrewing/', 'https://untappd.com/BeachFireBrewingCo']",Canada
Beacon Brewing,Sidney,"['Beer Service', 'Cider', 'Cocktails', 'Craft Sodas', 'Crowlers', 'Experience', 'Family Friendly', 'Gender Neutral Washrooms', 'Growler Fills', 'Keg Sales/Rentals', 'Live Music', 'Merchandise', 'Non Alc Beer Available', 'Snacks', 'Videogames', 'What Else?', 'Wine']",https://bcaletrail.ca/breweries/beacon-brewing/,9829 Third Street,N/A,V8L 3A7,BC,N/A,http://www.beaconbrewing.ca/,"['https://www.facebook.com/BeaconBrewing.Sidney', 'https://www.instagram.com/beacon.brewing/']",Canada
Beard’s Brewing,Fort St. John,"['Family Friendly', 'Food Truck(s)', 'Growler Fills', 'Merchandise', 'Take-Out']",https://bcaletrail.ca/breweries/beards-brewing/,10408 Alaska Rd North,N/A,N/A,BC,2502624104,https://www.beardsbrewing.ca/,"['https://twitter.com/beards_brewing', 'https://www.facebook.com/beardsbrewing/', 'https://www.instagram.com/beards.brewing/', 'https://untappd.com/w/beard-s-brewing-company/370489']",Canada
The Beer Farmers,Pemberton,"['Beer Service', 'Dog Friendly Zone', 'Family Friendly', 'Farm', 'Food Truck(s)', 'Growler Fills', 'Has Tours', 'Merchandise']",https://bcaletrail.ca/breweries/the-beer-farmers/,8324 Meadows Rd,N/A,V0N 2L2,BC,7788794033,https://www.thebeerfarmers.com/,"['https://www.facebook.com/thebeerfarmers/', 'https://www.instagram.com/thebeerfarmers/', 'https://untappd.com/w/the-beer-farmers/397530']",Canada
Beere Brewing,North Vancouver,"['Beer Service', 'Family Friendly', 'Growler Fills', 'Merchandise', 'Shopping', 'Snacks', 'Take-Out']",https://bcaletrail.ca/breweries/beere-brewing/,312 Esplanade E,N/A,N/A,BC,6049832163,https://www.beerebrewing.com/beerestore/,"['https://twitter.com/BeereBrewingCo', 'https://www.facebook.com/beerebrewing/', 'https://www.instagram.com/beerebrewingco/']",Canada
Beva Brewing & Blending,North Vancouver,"['Beer Service', 'Bike Racks', 'Brewpub', 'Cider', 'Cocktails', 'Dog Friendly Patio', 'Experience', 'Family Friendly', 'Food Service', 'Gender Neutral Washrooms', 'Guest Taps', 'Has Tours', 'Keg Sales/Rentals', 'Kombucha', 'Non Alc Beer Available', 'Patio', 'Snacks', 'What Else?', 'Wheelchair Accessible', 'Wine']",https://bcaletrail.ca/breweries/beva-brewing-blending/,1405 Pemberton Ave,N/A,V7P2R8,BC,N/A,https://www.bevabrewing.ca/,"['https://www.facebook.com/profile.php?id=100093881980814', 'https://www.instagram.com/bevabrewing/', 'https://untappd.com/BevaBrewingBlending']",Canada
Black Kettle Brewing,North Vancouver,"['Family Friendly', 'Growler Fills', 'Has Tours', 'Merchandise', 'Online Shopping - Gift Cards', 'Shopping', 'Snacks', 'Take-Out']",https://bcaletrail.ca/breweries/black-kettle-brewing/,6,720 Copping St #10,V7M 3G3,BC,6049879989,http://blackkettlebrewing.com,"['https://twitter.com/BlackKettleBeer', 'https://www.facebook.com/BlackKettleBrewing/', 'https://www.instagram.com/blackkettlebeer/', 'https://untappd.com/BlackKettleBrewingCompany']",Canada
BNA Brewing Co.,Kelowna,"['Baby Change Table (gender neutral washroom)', 'Barrels', 'Bike Racks', 'Board Games', 'Bowling', 'Brewpub', 'Cider', 'Cocktails', 'Dog Friendly Patio', 'Family Friendly', 'Gender Neutral Washrooms', 'GF Food Options', 'Growler Fills', 'Has Tours', 'Keg Sales/Rentals', 'Kombucha', 'Merchandise', 'Non Alc Beer Available', 'Online Ordering - Local Delivery', 'Online Shopping - Gift Cards', 'Online Shopping - Merch', 'Patio', 'Safe Space Signage', 'Spirits', 'Videogames', 'Wheelchair Accessible', 'Wine']",https://bcaletrail.ca/breweries/bna-brewing-co/,1250 Ellis St,N/A,V1Y 1Z4,BC,2364200025,http://bnabrewing.com,"['https://twitter.com/BNABrewing', 'https://www.facebook.com/BNAbrewing/', 'https://www.instagram.com/bnabrewing/', 'https://untappd.com/BNABrewingCo']",Canada
Bomber Brewing,Vancouver,"['Barrels', 'Family Friendly', 'Food Truck(s)', 'Growler Fills', 'Has Tours', 'Merchandise', 'Shopping', 'Snacks', 'Take-Out']",https://bcaletrail.ca/breweries/bomber-brewing/,1488 Adanac St,N/A,V5L 2C3,BC,6044287457,https://bomberbrewing.com,"['https://twitter.com/bomberbrewing', 'https://www.facebook.com/bomberbrewing/', 'https://www.instagram.com/bomberbrewing/', 'https://untappd.com/BomberBrewingVan']",Canada
Braggot Brewing,North Vancouver,[''],https://bcaletrail.ca/breweries/braggot-brewing/,102 - 370 Esplanade East,N/A,V7L 1A4,BC,N/A,https://braggottery.com/,['https://www.instagram.com/braggotbrewing/'],Canada
Brassneck Brewery,Vancouver,"['Barrels', 'Canada Post delivery across BC', 'Crowlers', 'Food Truck(s)', 'Growler Fills', 'Online Shopping - Gift Cards', 'Online Shopping - Merch', 'Shopping', 'Snacks', 'Take-Out']",https://bcaletrail.ca/breweries/brassneck-brewery/,2148 Main St,N/A,V5T 3C5,BC,6042597686,http://brassneck.ca,"['https://www.facebook.com/pages/Brassneck-Brewery/661469417210968', 'https://www.instagram.com/brassneckbrew/', 'https://untappd.com/w/brassneck-brewery/83539']",Canada
BREWHALL,Vancouver,"['Beer Service', 'Brewpub', 'Cider', 'Delivery through Skip the Dishes and Uber Eats', 'Experience', 'Family Friendly', 'Food Service', 'GF Food Options', 'Gluten-Free Beer', 'Merchandise', 'Take-Out', 'Videogames', 'What Else?', 'Wine']",https://bcaletrail.ca/breweries/brewhall-beer-co/,97 East 2nd Ave,N/A,V5T 1B3,BC,6047098623,http://brewhall.com/,"['https://www.facebook.com/Brewhall/', 'https://www.instagram.com/brewhall/', 'https://untappd.com/BREWHALLBeerCo']",Canada
The BrewHouse (High Mountain Brewing),Whistler,"['Barrels', 'Brewpub', 'Family Friendly', 'Growler Fills', 'Has Tours']",https://bcaletrail.ca/breweries/brewhouse-at-whistler/,4355 Blackcomb Way,N/A,V0N 1B4,BC,6049052739,https://mjg.ca/brewhouse/,"['https://twitter.com/BREWHOUSEatWHIS', 'https://www.facebook.com/HMBC.Brewhouse', 'https://untappd.com/w/brewhouse-high-mountain-brewing-co/5023']",Canada
Brewing August,Vancouver,"['Canada Post delivery across BC', 'Food Truck(s)', 'Keg Sales/Rentals', 'Merchandise', 'Online Ordering - Local Delivery']",https://bcaletrail.ca/breweries/brewing-august/,1614 W. 3rd Ave,N/A,V6J 1K2,BC,N/A,https://www.brewingaugust.com/,"['https://www.facebook.com/photo.php?fbid=531170842344601&set=pb.100063550707101.-2207520000..&type=3', 'https://www.instagram.com/brewingaugust/']",Canada
Bridge Brewing Company,North Vancouver,"['Barrels', 'Beer Service', 'Craft Sodas', 'Family Friendly', 'Food Service', 'Growler Fills', 'Keg Sales/Rentals', 'Merchandise', 'Shopping', 'Snacks', 'Take-Out', 'Wheelchair Accessible', 'Wine']",https://bcaletrail.ca/breweries/bridge-brewing-company/,1448 Charlotte Rd,N/A,V7J 1H2,BC,6047702739,https://www.bridgebrewingstore.com/,"['https://twitter.com/bridgebrewcrew', 'https://www.facebook.com/BridgeBrewCrew/', 'https://www.instagram.com/bridgebrewcrew/', 'https://untappd.com/BridgeBrewingCompany']",Canada
Bright Eye Brewing,Kamloops,"['Brewpub', 'Family Friendly', 'Growler Fills', 'Merchandise']",https://bcaletrail.ca/breweries/bright-eye-brewing/,292 Tranquille Rd,N/A,V2B 3G3,BC,2503121702,https://www.brighteyebrewing.com,"['https://www.facebook.com/pg/brighteyebrewing', 'https://www.instagram.com/brighteyebrewing', 'https://untappd.com/BrightEyeBrewing']",Canada
Brookswood Brewing Co,Langley,['Tasting Room Kitchen'],https://bcaletrail.ca/breweries/brookswood-brewing-co/,Street,#102 - 4061 200,V3A 1K8,BC,N/A,https://www.brookswoodbrewing.com/,"['https://twitter.com/Brookswoodbrew', 'https://www.facebook.com/brookswoodbrewing', 'https://www.instagram.com/brookswoodbrewingco/', 'https://untappd.com/Brookswood_Brewing_Co']",Canada
Buffalo Rouge Brewing,Kelowna,"['Beer Service', 'Bike Racks', 'Cider', 'Craft Sodas', 'Dog Friendly Zone', 'Experience', 'Food Service', 'Gender Neutral Washrooms', 'Guest Taps', 'Kombucha', 'Patio', 'Snacks', 'Tasting Room Kitchen', 'Vegan Options', 'Wheelchair Accessible', 'Wine']",https://bcaletrail.ca/breweries/buffalo-rouge-brewing-company/,5,1111 Gordon Drive #10,V1Y 3E3,BC,7789400170,https://buffalorougebrewing.com/,"['https://www.facebook.com/profile.php?id=100087725526765', 'https://www.instagram.com/buffalo.rouge.brewing/']",Canada
Bulkley Valley Brewery,Smithers,"['Family Friendly', 'Growler Fills', 'Live Music', 'Merchandise', 'Shopping', 'Take-Out']",https://bcaletrail.ca/breweries/bulkley-valley-brewery/,3860 1st Ave,N/A,V0J 2N0,BC,2508470699,http://www.bulkleyvalleybrewery.com,"['http://fb.me/BulkleyValleyBrewery', 'https://www.instagram.com/bulkleyvalleybrewery/', 'https://untappd.com/BulkleyValleyBrewery']",Canada
Camp Beer Co.,Langley,"['All Weather Patio', 'Baby Change Table (gender neutral washroom)', 'Barrels', 'Bike Racks', 'Board Games', 'Cask Beer', 'Cider', 'Craft Sodas', 'Dog Friendly Patio', 'Family Friendly', 'Gender Neutral Washrooms', 'GF Food Options', 'Growler Fills', 'Keg Sales/Rentals', 'Kombucha', 'Live Music', 'Merchandise', 'Non Alc Beer Available', 'Snacks', 'Tasting Room Kitchen', 'Wheelchair Accessible', 'Wine']",https://bcaletrail.ca/breweries/camp-beer-co/,110 - 19664 64 Avenue,N/A,V2Y 1H3,BC,6044274287,http://www.campbeer.ca,"['https://twitter.com/campbeerco', 'https://faceboook.com/campbeerco', 'https://www.instagram.com/campbeerco/', 'https://untappd.com/campbeerco']",Canada
Cannery Brewing,Penticton,"['Canada Post delivery across BC', 'Cider', 'Experience', 'Family Friendly', 'GF Food Options', 'Growler Fills', 'Has Tours', 'Keg Sales/Rentals', 'Live Music', 'Merchandise', 'Take-Out', 'Tasting Room Kitchen', 'Wine']",https://bcaletrail.ca/breweries/cannery-brewing/,198 Ellis Street,N/A,V2A 4L5,BC,2504932723,http://cannerybrewing.com,"['https://twitter.com/cannerybrewing', 'https://www.facebook.com/CanneryBrewing/', 'https://www.instagram.com/cannerybrewing/', 'https://untappd.com/cannerybrewing']",Canada
Canuck Empire Brewing Co,Abbotsford,"['Cider', 'Gender Neutral Washrooms', 'GF Food Options', 'Growler Fills', 'Keg Sales/Rentals', 'Snacks', 'Tasting Room Kitchen', 'Wheelchair Accessible', 'Wine']",https://bcaletrail.ca/breweries/canuck-empire-brewing-co/,C - 33797 King Road,Unit,V2S 7P2,BC,6047463616,https://canuckempirebrewing.com/,"['https://twitter.com/canuckempire', 'https://www.facebook.com/CanuckEmpire/', 'https://www.instagram.com/canuckempire/', 'https://untappd.com/CanuckEmpireBrewing']",Canada
Cask and Cleaver Brewing,100 Mile House,"['Beer Service', 'Bike Racks', 'Brewpub', 'Cider', 'Craft Sodas', 'Dog Friendly Zone', 'Experience', 'Family Friendly', 'Food Service', 'Gender Neutral Washrooms', 'GF Food Options', 'Growler Fills', 'Guest Taps', 'Kombucha', 'Non Alc Beer Available', 'Patio', 'What Else?', 'Wheelchair Accessible', 'Wine']",https://bcaletrail.ca/breweries/cask-and-cleaver-brewing/,175 Cariboo Hwy,N/A,V0K 2E0,BC,7784825180,https://www.caskandcleaver.com/,"['https://www.facebook.com/caskandcleaverbrewing/', 'https://www.instagram.com/caskandcleaver/', 'https://untappd.com/Cask_And_Cleaver']",Canada
Category 12 Brewing,Victoria,"['Barrels', 'Family Friendly', 'Growler Fills', 'Has Tours', 'Keg Sales/Rentals', 'Merchandise', 'Online Shopping - Gift Cards', 'Online Shopping - Merch', 'Shopping', 'Take-Out', 'Tasting Room Kitchen', 'Vegan-Friendly Beer']",https://bcaletrail.ca/breweries/category-12-brewing/,C Keating Cross Rd,2200 Unit,V8M 2A6,BC,2506529668,https://www.category12beer.com/,"['https://twitter.com/c12beer', 'https://www.facebook.com/C12beer/', 'https://www.instagram.com/c12beer/', 'https://untappd.com/Category12']",Canada
Central City Brewers & Distillers,Surrey,"['Barrels', 'Cider Production', 'Cocktails', 'Distilling', 'Dog Friendly Patio', 'Family Friendly', 'Food Truck(s)', 'Keg Sales/Rentals', 'Merchandise', 'Non Alc Beer Producer', 'Patio', 'Spirits', 'Wheelchair Accessible']",https://bcaletrail.ca/breweries/central-city-brewers-distillers/,11411 Bridgeview Dr,N/A,V3R 2N1,BC,6045882337,http://centralcitybrewing.com,"['https://twitter.com/centralcitybrew', 'https://www.facebook.com/CentralCityBrewing/', 'https://www.instagram.com/centralcitybrew/', 'https://untappd.com/RedRacerBrew']",Canada
Coast Mountain Brewing,Whistler,"['Barrels', 'Bike Racks', 'Canada Post delivery across BC', 'Cider', 'Craft Sodas', 'Dog Friendly Zone', 'Events', 'Experience', 'Family Friendly', 'Food Service', 'Gender Neutral Washrooms', 'GF Food Options', 'Gluten-Free Beer', 'Growler Fills', 'Guest Taps', 'Keg Sales/Rentals', 'Kombucha', 'Live Music', 'Merchandise', 'Non Alc Beer Available', 'Online Ordering - Local Delivery', 'Online Shopping - Gift Cards', 'Online Shopping - Merch', 'Outside food permitted', 'Patio', 'Shopping', 'Snacks', 'Videogames', 'What Else?', 'Wheelchair Accessible', 'Wine']",https://bcaletrail.ca/breweries/coast-mountain-brewing/,2 - 1212 Alpha Lake,N/A,V8E 0R5,BC,6049623230,https://www.coastmountainbrewing.com/,"['https://twitter.com/coastmtnbrewing', 'https://www.facebook.com/CoastMountainBrewing/', 'https://www.instagram.com/coastmountainbeer/', 'https://untappd.com/w/coast-mountain-brewing/294125']",Canada
Connector Brewing,West Kelowna,"['Baby Change Table (gender neutral washroom)', 'Board Games', 'Brewpub', 'Cider', ""Code of Conduct on Brewery's Website"", 'Craft Sodas', 'Family Friendly', 'Gender Neutral Washrooms', 'GF Food Options', 'Gluten-Free Beer', 'Growler Fills', 'Guest Taps', 'Live Music', 'Merchandise', 'Non Alc Beer Available', 'Wheelchair Accessible', 'Wine']",https://bcaletrail.ca/breweries/connector-brewing/,101 - 3310 Carrington Rd,N/A,V4T 3C1,BC,N/A,https://connectorbrewing.com/,"['https://www.facebook.com/connectorbrewing', 'https://www.instagram.com/connectorbrewing/', 'https://untappd.com/ConnectorBrewing']",Canada
Container Brewing,Vancouver,"['Beer Service', 'Canada Post delivery across BC', 'Coffee', 'Craft Sodas', 'Dog Friendly Zone', 'Family Friendly', 'Food Service', 'Food Truck(s)', 'Gender Neutral Washrooms', 'Has Tours', 'Live Music', 'Merchandise', 'Online Ordering - Local Delivery', 'Patio', 'Shopping', 'Snacks', 'Tasting Room Kitchen', 'Wheelchair Accessible']",https://bcaletrail.ca/breweries/container-brewing/,1216 Franklin St,N/A,V6A 1K1,BC,7784040657,https://containerbrewing.ca/,"['https://twitter.com/containerbeer', 'https://www.facebook.com/containerbrewing', 'https://www.instagram.com/containerbrewing/', 'https://untappd.com/ContainerBrewing']",Canada
Copper Brewing,Kelowna,"['Barrels', 'Beer Service', 'Cider', 'Cocktails', 'Delivery from Local Restaurants Available', 'Family Friendly', 'Growler Fills', 'Has Tours', 'Keg Sales/Rentals', 'Merchandise', 'Restaurant Connected', 'Snacks', 'Videogames', 'Wine']",https://bcaletrail.ca/breweries/copper-brewing/,2,1851 Kirschner Rd #10,V1Y 4N7,BC,2507628850,https://copperbrewingco.com/,"['https://www.facebook.com/Copperbrewing/', 'https://www.instagram.com/copperbrewing/', 'https://untappd.com/w/copper-brewing-co/442327']",Canada
CowDog Brew Co,Vancouver,"['Bike Racks', 'Board Games', 'Cask Beer', 'Cocktails', 'Craft Sodas', 'Delivery from Local Restaurants Available', 'Dog Friendly Zone', 'Family Friendly', 'Gender Neutral Washrooms', 'Growler Fills', 'Guest Taps', 'Keg Sales/Rentals', 'Merchandise', 'Patio', 'Snacks', 'Spirits', 'Wheelchair Accessible']",https://bcaletrail.ca/breweries/cowdog-brew-co/,1338 Franklin St,N/A,V5L 1N9,BC,N/A,https://cowdogbrewcompany.ca/,"['https://www.facebook.com/profile.php?id=61560883811004', 'https://www.instagram.com/cowdogbrewcompany/', 'https://untappd.com/Cowdog_Brew_Company_']",Canada
Craig Street Brewing,Duncan,"['Brewpub', 'Growler Fills', 'Restaurant Connected']",https://bcaletrail.ca/breweries/craig-street-brew-pub/,25 Craig St,N/A,V9L 1V7,BC,2507372337,http://www.csbrewery.ca/craigstreetbrewpub,"['https://twitter.com/csbrewpub', 'https://www.facebook.com/craigstbrewpub', 'https://www.instagram.com/csbrewpub', 'https://untappd.com/w/craig-street-brewpub/5223']",Canada
Crannóg Ales,Sorrento,"['Farm', 'Growler Fills', 'Has Tours', 'Merchandise', 'Organic Beer', 'Take-Out']",https://bcaletrail.ca/breweries/crannog-ales/,706 Elson Rd,N/A,V0E 2W1,BC,2506756847,http://crannogales.com,"['https://www.facebook.com/pages/Crannog-Ales/147130382004277/', 'https://www.instagram.com/crannogales/', 'https://untappd.com/w/crann-g-ales/4651']",Canada
CrossRoads Brewing & Distillery,Prince George,"['Baby Change Table (gender neutral washroom)', ""Baby Change Table (women's washroom)"", 'Bike Racks', 'Board Games', 'Brewpub', 'Cask Beer', 'Cider', 'Cocktails', 'Distilling', 'Dog Friendly Zone', 'Family Friendly', 'Gender Neutral Washrooms', 'GF Food Options', 'Growler Fills', 'Guest Taps', 'Has Tours', 'Keg Sales/Rentals', 'Merchandise', 'Non Alc Beer Available', 'Online Ordering - Local Delivery', 'Patio', 'Spirits', 'Wheelchair Accessible', 'Wine']",https://bcaletrail.ca/breweries/crossroads-brewing/,508 George St,N/A,V2L 1R7,BC,2506142337,http://crossroadscraft.com,"['https://twitter.com/crossroadscraft', 'https://www.facebook.com/crossroadscraft/', 'https://www.instagram.com/crossroadscraft/', 'https://untappd.com/crossroads']",Canada
Cumberland Brewing Company,Cumberland,"['All Weather Patio', 'Baby Change Table (gender neutral washroom)', 'Bike Racks', 'Brewpub', 'Canada Post delivery across BC', 'Cider', 'Cocktails', 'Craft Sodas', 'Dog Friendly Patio', 'Family Friendly', 'Gender Neutral Washrooms', 'GF Food Options', 'Growler Fills', 'Has Tours', 'Keg Sales/Rentals', 'Kombucha', 'Non Alc Beer Available', 'Online Shopping - Gift Cards', 'Online Shopping - Merch', 'Patio', 'Safe Space Signage', 'Snacks', 'Wheelchair Accessible', 'Wine']",https://bcaletrail.ca/breweries/cumberland-brewing-co/,2732 Dunsmuir Ave,N/A,N/A,BC,2504002739,http://cumberlandbrewing.com,"['https://twitter.com/cumberlandbeer', 'https://www.facebook.com/cumberlandbrewingco/', 'https://www.instagram.com/cumberlandbrewingcompany/', 'https://untappd.com/w/cumberland-brewing-company/176608']",Canada
Dageraad Brewing,Burnaby,"['Barrels', 'Bike Racks', 'Call in or Order Online', 'Canada Post delivery across BC', 'Cider', 'Craft Sodas', 'Experience', 'Family Friendly', 'Food Truck(s)', 'Gender Neutral Washrooms', 'Growler Fills', 'Keg Sales/Rentals', 'Merchandise', 'Non Alc Beer Available', 'Online Ordering - Local Delivery', 'Online Shopping - Gift Cards', 'Online Shopping - Merch', 'Patio', 'Shopping', 'Snacks', 'Take-Out', 'What Else?', 'Wheelchair Accessible', 'Wine']",https://bcaletrail.ca/breweries/dageraad-brewing/,4,3191 Thunderbird Crescent #11,V5A 3G1,BC,6044202050,https://dageraadbrewing.com/,"['https://twitter.com/DageraadBeer', 'https://www.facebook.com/DageraadBrewing/', 'https://www.instagram.com/dageraadbeer/', 'https://untappd.com/Dageraad']",Canada
Dead Frog Brewery,Langley,"['Brewpub', 'Canada Post delivery across BC', 'Cider', 'Dog Friendly Zone', 'Family Friendly', 'Food Service', 'GF Food Options', 'Growler Fills', 'Has Tours', 'Keg Sales/Rentals', 'Kombucha', 'Live Music', 'Merchandise', 'Online Ordering - Local Delivery', 'Patio', 'Shopping', 'Snacks', 'Take-Out', 'Tasting Room Kitchen', 'Wheelchair Accessible', 'Wine']",https://bcaletrail.ca/breweries/dead-frog-brewery/,Street,#105  8860 201,V2Y 0C8,BC,6048561055,https://deadfrog.ca/,"['https://twitter.com/deadfrogbrewery', 'https://www.facebook.com/deadfrogbrewery/', 'https://www.instagram.com/deadfrogbrewery/', 'https://untappd.com/deadfrog']",Canada
Deadfall Brewing Company,Prince George,"['Baby Change Table (gender neutral washroom)', 'Bike Racks', 'Board Games', 'Cider', ""Code of Conduct on Brewery's Website"", 'Craft Sodas', 'Delivery from Local Restaurants Available', 'Educational events', 'Family Friendly', 'Gender Neutral Washrooms', 'GF Food Options', 'Growler Fills', 'Has Tours', 'Keg Sales/Rentals', 'Kombucha', 'Live Music', 'Merchandise', 'NA Beer Alternative (eg. hopped sparkling water)', 'Non Alc Beer Available', 'Safe Space Signage', 'Snacks', 'Wheelchair Accessible']",https://bcaletrail.ca/breweries/deadfall-brewing-company/,1733 Nicholson St South,N/A,V2N 1V7,BC,N/A,https://www.deadfallbrewing.com,"['https://twitter.com/deadfallbrewco/', 'https://www.facebook.com/DeadfallBrewCo', 'https://www.instagram.com/deadfallbrewco/', 'https://untappd.com/DeadfallBrewCo']",Canada
Deadhead Brew Co,Duncan,"['Accessibility & Inclusion', 'Beer Service', 'Board Games', 'Cider', 'Cocktails', 'Dog Friendly Patio', 'Experience', 'Family Friendly', 'Food Service', 'Gluten-Free Beer', 'Keg Sales/Rentals', 'Non Alc Beer Available', 'Patio', 'Snacks', 'Tasting Room Kitchen', 'What Else?', 'Wheelchair Accessible']",https://bcaletrail.ca/breweries/deadhead-brew-co-duncan/,203-5301 Chaster Rd,N/A,V9L 6W4,BC,2505970045,http://deadheadbrew.co/,"['https://www.facebook.com/profile.php?id=61559554907637', 'https://www.instagram.com/deadheadbrewco/']",Canada
Detonate Brewing Company,Summerland,"['All Weather Patio', 'Baby Change Table (gender neutral washroom)', 'Barrels', 'Bike Racks', 'Brewpub', 'Cider', 'Cocktails', 'Craft Sodas', 'Dog Friendly Patio', 'Dog Friendly Zone', 'Family Friendly', 'Gender Neutral Washrooms', 'Growler Fills', 'Guest Taps', 'Keg Sales/Rentals', 'Live Music', 'Merchandise', 'Non Alc Beer Producer', 'Patio', 'Spirits', 'Wheelchair Accessible', 'Wine']",https://bcaletrail.ca/breweries/detonate-brewing-company/,103 - 9503 Cedar Ave,N/A,N/A,BC,2503285294,https://www.detonatebrew.com/,"['https://twitter.com/DetonateBrewing', 'https://www.facebook.com/DetonateBrewing', 'https://www.instagram.com/detonatebrewing/', 'https://untappd.com/DetonateBrewingCompany']",Canada
Devils’ Bath Brewing,Port McNeill,"['Brewpub', 'Cider', 'Craft Sodas', 'Experience', 'Family Friendly', 'Growler Fills', 'Has Tours', 'Kombucha', 'Patio', 'Pizza', 'Snacks', 'Wine']",https://bcaletrail.ca/breweries/devils-bath-brewing/,1616 McNeill Rd,N/A,V0N 2R0,BC,2509561616,http://devilsbathbrewing.ca/,"['https://www.facebook.com/DevilsBathBrewingCo', 'https://www.instagram.com/devilsbathbrewingco/', 'https://untappd.com/w/devils-bath-brewing-co/500668']",Canada
Dog Mountain Brewing,Port Alberni,"['Family Friendly', 'Growler Fills', 'Has Tours', 'Merchandise', 'Online Ordering - Local Delivery', 'Patio', 'Shopping', 'Snacks', 'Take-Out', 'Tasting Room Kitchen']",https://bcaletrail.ca/breweries/dog-mountain-brewing/,3141 3rd Ave,N/A,V9Y 4C4,BC,2507318810,https://dogmountainbrew.com/,"['https://www.facebook.com/dogmountainbrewing', 'https://www.instagram.com/dogmountainbrewing/', 'https://untappd.com/w/dog-mountain-brewing/403394']",Canada
Driftwood Brewery,Victoria,"['Barrels', 'Bike Racks', 'Cider', 'Cocktails', 'Craft Sodas', 'Distilling', 'Gender Neutral Washrooms', 'Growler Fills', 'Keg Sales/Rentals', 'Merchandise', 'Patio', 'Shopping', 'Spirits', 'Take-Out', 'Tasting Room Kitchen', 'Vegan-Friendly Beer', 'What Else?', 'Wheelchair Accessible', 'Wine']",https://bcaletrail.ca/breweries/driftwood-brewery/,836 Viewfield Rd,N/A,V9A 4V1,BC,2505903555,https://driftwoodbeer.ca/,"['https://twitter.com/driftwoodbeer', 'https://www.facebook.com/driftwoodbeer/', 'https://www.instagram.com/driftwoodbrewery/', 'https://untappd.com/DriftwoodBrewery']",Canada
East Vancouver Brewing Company,Vancouver,"['Beer Service', 'Cider', 'Cocktails', 'Family Friendly', 'Food Service', 'Growler Fills', 'Has Tours', 'Merchandise', 'Shopping', 'Snacks', 'Take-Out']",https://bcaletrail.ca/breweries/east-van-brewing/,1675 Venables St,N/A,V5L 2H1,BC,6045583822,http://www.eastvanbrewing.com/,"['https://twitter.com/EastVanBrewing', 'https://www.facebook.com/EastVanBrewing/', 'https://instagram.com/EastVanBrewing', 'https://untappd.com/EastVanBrewingCo']",Canada
Electric Bicycle Brewing,Vancouver,"['Beer Service', 'Brewpub', 'Cider', 'Family Friendly', 'Growler Fills', 'Has Tours', 'Keg Sales/Rentals', 'Kombucha', 'Patio', 'Shopping']",https://bcaletrail.ca/breweries/electric-bicycle-brewing/,20 East 4th Ave,N/A,V5T1E8,BC,2508963774,https://electricbicyclebrewing.com/,"['https://www.facebook.com/Electricbicyclebrewing/', 'https://www.instagram.com/electricbicyclebrewing/', 'https://untappd.com/ElectricBicycleBrewing_']",Canada
Empty Keg Brew House,Merritt,"['Barrels', 'Beer Service', 'Cider', 'Delivery from Local Restaurants Available', 'Family Friendly', 'Food Service', 'GF Food Options', 'Growler Fills', 'Merchandise', 'Non Alc Beer Available', 'Online Shopping - Gift Cards', 'Online Shopping - Merch', 'Shopping', 'Snacks', 'Take-Out', 'Tasting Room Kitchen']",https://bcaletrail.ca/breweries/empty-keg-brew-house/,2190 Voght Street,N/A,V1K 1C8,BC,2503152337,http://www.emptykegbrewhouse.ca/,"['https://www.facebook.com/EmptyKegBrewHouse', 'https://www.instagram.com/emptykegbrewhouse']",Canada
Encore Brewing Company,Cranbrook,"['Beer Service', 'Bowling', 'Cider', 'Cocktails', 'Craft Sodas', 'Crowlers', 'Experience', 'Food Service', 'Gender Neutral Washrooms', 'Kombucha', 'Restaurant Connected', 'Videogames', 'Wheelchair Accessible', 'Wine']",https://bcaletrail.ca/breweries/encore-brewing-company/,1400 4 St N,N/A,N/A,BC,7787440460,https://www.encorebrewing.ca/,"['https://www.facebook.com/EncoreBeerCBK', 'https://www.instagram.com/encorebeer/']",Canada
Erie Creek Brewing,Salmo,"['Cider', 'Delivery from Local Restaurants Available', 'Family Friendly', 'Growler Fills', 'Has Tours', 'Keg Sales/Rentals', 'Live Music', 'Merchandise', 'Snacks', 'Take-Out', 'Videogames', 'Wine']",https://bcaletrail.ca/breweries/erie-creek-brewing/,117 4th St,N/A,V0G 1Z0,BC,2503572479,https://www.eriecreekbrewingco.com/,"['https://www.facebook.com/Erie-Creek-Brewing-Company-2119648468326918/', 'https://www.instagram.com/erie_creek_brewing/', 'https://untappd.com/w/erie-creek-brewing-company/464086']",Canada
Faculty Brewing Co.,Vancouver,"['Barrels', 'Beer Service', 'Delivery through BeerVan', 'Family Friendly', 'Growler Fills', 'Has Tours', 'Kombucha', 'Merchandise', 'Shopping', 'Snacks', 'Take-Out']",https://bcaletrail.ca/breweries/faculty-brewing-co/,1830 Ontario St,N/A,V5T 2W6,BC,7788196794,http://facultybrewing.com,"['https://www.facebook.com/facultybrewing/', 'https://www.instagram.com/facultybrewing/', 'https://untappd.com/w/faculty-brewing/231919']",Canada
Farm Country Brewing,Langley,"['Beer Service', 'Cider', 'Experience', 'Family Friendly', 'Gender Neutral Washrooms', 'Growler Fills', 'Has Tours', 'Keg Sales/Rentals', 'Live Music', 'Merchandise', 'Online Ordering - Local Delivery', 'Shopping', 'Snacks', 'Tasting Room Kitchen', 'Wheelchair Accessible', 'Wine']",https://bcaletrail.ca/breweries/farm-country-brewing/,5 - 20555 56th Avenue,N/A,V3A 3Y9,BC,7788192288,https://farmcountrybrewing.com/,"['http://www.twitter.com/farmcountrybrew', 'https://www.facebook.com/farmcountrybrew/', 'http://www.instagram.com/farmcountrybrewco', 'https://untappd.com/FarmCountryBrewing']",Canada
Farmhouse Brewing Co.,Chilliwack,"['All Weather Patio', 'Baby Change Table (gender neutral washroom)', 'Beer Service', 'Bike Racks', 'Board Games', 'Brewpub', 'Cider', 'Craft Sodas', 'Dog Friendly Patio', 'Family Friendly', 'Farm', 'Food Service', 'Gender Neutral Washrooms', 'GF Food Options', 'Growler Fills', 'Kombucha', 'Live Music', 'Merchandise', 'Non Alc Beer Available', 'Online Shopping - Gift Cards', 'Picnic Area Outside', 'Wheelchair Accessible', 'Wine']",https://bcaletrail.ca/breweries/farmhouse-brewing/,6385 Lickman Rd,N/A,V2R 4A9,BC,6048249007,http://www.farmhousebrewing.co,"['https://www.facebook.com/farmhousebrewingco', 'https://www.instagram.com/farmhousebrewingco/', 'https://untappd.com/w/farmhouse-brewing-co/478489']",Canada
Fern + Cedar Brewing,Qualicum Beach,"['Brewpub', 'Cider', 'Cocktails', 'Craft Sodas', 'Distilling', 'Family Friendly', 'Gender Neutral Washrooms', 'GF Food Options', 'Growler Fills', 'Has Tours', 'Keg Sales/Rentals', 'Kombucha', 'Live Music', 'Merchandise', 'Wheelchair Accessible', 'Wine']",https://bcaletrail.ca/breweries/fern-cedar-brewing/,680 Berwick Road South,N/A,V9K 1R2,BC,2505940052,https://fernandcedar.ca/,"['https://www.facebook.com/fernandcedarbrewing/', 'https://www.instagram.com/fernandcedarbrewing/', 'https://untappd.com/w/fern-cedar-brewing/512791']",Canada
Fernie Brewing Co.,Fernie,"['Barrels', 'Family Friendly', 'Growler Fills', 'Merchandise', 'Non Alc Beer Producer', 'Shopping', 'Snacks', 'Take-Out']",https://bcaletrail.ca/breweries/fernie-brewing-co/,26 Manitou Rd,N/A,V0B 1M5,BC,2504237797,https://www.ferniebrewing.com/,"['https://twitter.com/FernieBrewingCo', 'https://www.facebook.com/Fernie-Brewing-Company-170347052983672/', 'https://www.instagram.com/ferniebrewingco/', 'https://untappd.com/FernieBrewingCompany']",Canada
Field House Brewing CHWK,Chilliwack,"['Beer Service', 'Experience', 'Family Friendly', 'Food Service', 'GF Food Options', 'Growler Fills', 'Live Music', 'Merchandise', 'Take-Out']",https://bcaletrail.ca/breweries/field-house-chwk/,Woolly Dog Alley,#102-9251,N/A,BC,6047762739,http://www.fieldhousebrewing.com,N/A,Canada
Field House Brewing Co ABBY,Abbotsford,"['All Weather Patio', 'Barrels', 'Bike Racks', 'Brewpub', 'Cider', 'Cocktails', ""Code of Conduct on Brewery's Website"", 'Craft Sodas', 'Crowlers', 'Dog Friendly Patio', 'Family Friendly', 'Gender Neutral Washrooms', 'GF Food Options', 'Growler Fills', 'Guest Taps', 'Kombucha', 'Live Music', 'Merchandise', 'Patio', 'Picnic Area Outside', 'Safe Space Signage', 'Snacks', 'Wheelchair Accessible', 'Wine']",https://bcaletrail.ca/breweries/field-house-brewing-co/,2281 W Railway St,N/A,V2S 2E3,BC,6047762739,https://fieldhousebrewing.com/,"['https://www.facebook.com/fieldhousebrewing/', 'https://www.instagram.com/fieldhousebrewing/', 'https://untappd.com/FieldHouseBrewingCo']",Canada
Firehall Brewery,Oliver,"['Barrels', 'Canada Post delivery across BC', 'Cask Beer', 'Cider', 'Cocktails', 'Craft Sodas', 'Family Friendly', 'Growler Fills', 'Has Tours', 'Keg Sales/Rentals', 'Live Music', 'Merchandise', 'Patio', 'Restaurant Connected', 'Shopping', 'Wheelchair Accessible']",https://bcaletrail.ca/breweries/firehall-brewery/,6077 Main St,N/A,V0H 1T0,BC,7784392337,https://www.firehallbrewery.com/shop,"['https://twitter.com/firehallbrewery', 'https://www.facebook.com/thefirehallbrewery/', 'https://www.instagram.com/firehallbrewery/', 'https://untappd.com/FirehallBrewery']",Canada
Fisher Peak Brewing,Cranbrook,"['Brewpub', 'Family Friendly', 'Growler Fills', 'Merchandise', 'Shopping', 'Take-Out']",https://bcaletrail.ca/breweries/fisher-peak-brewing-company/,821 Baker St,N/A,V1C 1A2,BC,2504267922,http://theheidout.ca,"['https://twitter.com/FPBCoHeidout', 'https://www.facebook.com/TheHeidOutRestaurantandBrewhouse/', 'https://www.instagram.com/theheidout/', 'https://untappd.com/FisherPeakBrewingCo']",Canada
Five Roads Brewing,Langley,"['Bike Racks', 'Board Games', 'Cider', 'Cocktails', 'Coffee', 'Craft Sodas', 'Crowlers', 'Dog Friendly Zone', 'Family Friendly', 'Gender Neutral Washrooms', 'GF Food Options', 'Growler Fills', 'Keg Sales/Rentals', 'Kombucha', 'Live Music', 'Merchandise', 'Online Shopping - Merch', 'Patio', 'Snacks', 'Take-Out', 'Tasting Room Kitchen', 'What Else?', 'Wheelchair Accessible', 'Wine']",https://bcaletrail.ca/breweries/five-roads-brewing-co/,St,#1 - 6263 202,V2Y 1N1,BC,6045396754,https://www.fiveroadsbrewing.com/,"['https://twitter.com/fiveroadsbrew', 'https://www.facebook.com/fiveroadsbrewingco/', 'https://www.instagram.com/fiveroadsbrewingco/', 'https://untappd.com/w/five-roads-brewing/429083']",Canada
Foamers’ Folly Brewing,Pitt Meadows,"['Barrels', 'Cider', 'Cocktails', 'Delivery from Local Restaurants Available', 'Dog Friendly Zone', 'Experience', 'Family Friendly', 'Food Service', 'Gender Neutral Washrooms', 'Growler Fills', 'Kombucha', 'Live Music', 'Merchandise', 'Patio', 'Shopping', 'Snacks', 'Take-Out', 'What Else?', 'Wheelchair Accessible', 'Wine']",https://bcaletrail.ca/breweries/foamers-folly-brewing-co/,19221 122a Ave,N/A,V3Y 2E9,BC,6044597837,https://www.foamersfolly.ca/,"['https://twitter.com/foamersfolly', 'https://www.facebook.com/foamersfolly/', 'https://www.instagram.com/foamersfolly/', 'https://untappd.com/FoamersFolly']",Canada
Four Winds Beach House & Brewery,Delta,"['Accessibility & Inclusion', 'Baby Change Table (gender neutral washroom)', 'Beer Service', 'Bike Racks', 'Brewpub', 'Cider', 'Cocktails', 'Craft Sodas', 'Experience', 'Family Friendly', 'Food Service', 'Gender Neutral Washrooms', 'GF Food Options', 'Merchandise', 'NA Beer Alternative (eg. hopped sparkling water)', 'Non Alc Beer Available', 'Spirits', 'What Else?', 'Wheelchair Accessible', 'Wine']",https://bcaletrail.ca/breweries/four-winds-beach-house-brewery/,6350 Market Avenue,N/A,V4L 0B1,BC,6049402985,https://fourwindsbrewing.ca/pages/new-southlands,"['https://twitter.com/FourWindsBrewCo', 'https://www.facebook.com/profile.php?id=61560202815822', 'https://www.instagram.com/fourwindsbeachhouseandbrewery']",Canada
Four Winds Brewing Co.,Delta,"['Baby Change Table (gender neutral washroom)', 'Barrels', 'Bike Racks', 'Brewpub', 'Canada Post delivery across BC', 'Cider', 'Cocktails', 'Craft Sodas', 'Dog Friendly Patio', 'Family Friendly', 'Gender Neutral Washrooms', 'GF Food Options', 'Keg Sales/Rentals', 'Merchandise', 'Non Alc Beer Available', 'Online Ordering - Local Delivery', 'Online Shopping - Gift Cards', 'Online Shopping - Merch', 'Patio', 'Safe Space Signage', 'Snacks', 'Wheelchair Accessible', 'Wine']",https://bcaletrail.ca/breweries/four-winds-brewing/,4 - 7355 72 St,N/A,V4G 1L5,BC,6049409949,https://fourwindsbrewing.ca/,"['https://twitter.com/fourwindsbrewco', 'https://www.facebook.com/fourwindsbrewingco/', 'https://www.instagram.com/fourwindsbrewco/', 'https://untappd.com/FourWindsBrewing']",Canada
Fox Mountain Brewing Co,Williams Lake,"['Growler Fills', 'Merchandise', 'Take-Out', 'Tasting Room Kitchen']",https://bcaletrail.ca/breweries/fox-mountain-brewing/,215 Donald Road,N/A,V2G 4K4,BC,2503923622,https://www.foxmountainbeer.com/,"['https://www.facebook.com/FoxMtnBrewCo', 'https://www.instagram.com/fox.mountain.brewing/', 'https://untappd.com/FoxMountainBrewingCo']",Canada
Freddy’s Brewpub,Kelowna,"['Beer Service', 'Bowling', 'Brewpub', 'Comedy Events', 'Experience', 'Family Friendly', 'Growler Fills', 'Has Tours', 'Merchandise', 'Restaurant Connected', 'Snacks']",https://bcaletrail.ca/breweries/freddys-brewpub/,124-948 McCurdy Rd,N/A,N/A,BC,2507658956,https://www.mccurdybowl.com/kelownabrewery,"['https://twitter.com/Bowl_N_Brew', 'https://www.facebook.com/bowlandbrewkelowna/', 'https://www.instagram.com/Bowl_N_Brew/', 'https://untappd.com/FreddysBrewpub']",Canada
Fuggles Beer,Richmond,"['Cocktails', 'Dog Friendly Zone', 'Events', 'Family Friendly', 'Growler Fills', 'Has Tours', 'Merchandise', 'Restaurant Connected', 'Shopping', 'Take-Out', 'Videogames', 'Wheelchair Accessible', 'Wine']",https://bcaletrail.ca/breweries/fuggles-warlock-craftworks/,11220 Horseshoe Way,N/A,N/A,BC,60428577451,https://www.fugglesbeer.com,"['https://twitter.com/fugglesbeer', 'https://www.facebook.com/FugglesBeer', 'https://www.instagram.com/fugglesbeer/', 'https://untappd.com/FugglesandWarlockCraftworks']",Canada
Giant’s Head Brewing,Summerland,"['Baby Change Table (gender neutral washroom)', 'Brewpub', 'Cider', 'Cocktails', 'Dog Friendly Patio', 'Family Friendly', 'Gender Neutral Washrooms', 'GF Food Options', 'Growler Fills', 'Has Tours', 'Keg Sales/Rentals', 'Merchandise', 'Non Alc Beer Available', 'Patio', 'Spirits', 'Wheelchair Accessible', 'Wine']",https://bcaletrail.ca/breweries/giants-head-brewing/,13224 Victoria Rd N,N/A,V0H 1Z0,BC,2504041123,https://www.giantsheadbrewing.ca/,"['https://www.facebook.com/giantsheadbrewing', 'https://www.instagram.com/giantshead_brewing/', 'https://untappd.com/w/giant-s-head-brewing/509624']",Canada
Gladstone Brewing,Courtenay,"['Barrels', 'Beer Service', 'Cider', 'Family Friendly', 'GF Food Options', 'Growler Fills', 'Keg Sales/Rentals', 'Merchandise', 'Restaurant Connected', 'Shopping', 'Snacks', 'Take-Out', 'Wine']",https://bcaletrail.ca/breweries/gladstone-brewing-co/,244 4th St,N/A,V9N 1G6,BC,2508711111,https://www.gladstonebrewing.ca/,"['https://twitter.com/Gladstone_Beer', 'https://www.facebook.com/gladstonebrewingco/', 'https://www.instagram.com/gladstonebrewingco/', 'https://untappd.com/GladstoneBrewingCompany']",Canada
Grey Fox Brewing,Kelowna,"['Canada Post delivery across BC', 'Gender Neutral Washrooms', 'Gluten-Free Beer', 'Growler Fills', 'Keg Sales/Rentals', 'Merchandise', 'Online Ordering - Local Delivery', 'Online Shopping - Gift Cards', 'Online Shopping - Merch', 'Wheelchair Accessible']",https://bcaletrail.ca/breweries/grey-fox-brewing/,105 - 310 Hiram Walker Ct,N/A,V4V 0B2,BC,2508595518,http://www.greyfoxbrewing.com,"['https://www.facebook.com/greyfoxbrewing', 'https://www.instagram.com/greyfoxbrewing', 'https://untappd.com/GreyFoxBrewing']",Canada
Grist & Mash Brewery,Kimberley,"['Cider', 'Cocktails', 'Crowlers', 'Family Friendly', 'Growler Fills', 'Has Tours', 'Kombucha', 'Live Music', 'Merchandise', 'Patio', 'Snacks', 'Videogames', 'Wine']",https://bcaletrail.ca/breweries/grist-mash-brewery/,345 Wallinger Ave,N/A,V1A 1Z3,BC,2504270148,https://gristandmash.com/,"['https://www.facebook.com/gristandmashbrewery/', 'https://www.instagram.com/gristandmash/', 'https://untappd.com/GristAndMashBrewery']",Canada
The Hatching Post,West Kelowna,"['Brewpub', 'Call in or Order Online', 'Cider', 'Cocktails', 'Dog Friendly Zone', 'Family Friendly', 'Gender Neutral Washrooms', 'GF Food Options', 'Growler Fills', 'Merchandise', 'Non Alc Beer Available', 'Online Ordering - Local Delivery', 'Patio', 'Snacks', 'Wheelchair Accessible', 'Wine']",https://bcaletrail.ca/breweries/the-hatching-post/,2850 Boucherie Rd,N/A,V1Z 2G5,BC,7787558166,https://hatchingpostbeer.com/,"['https://www.facebook.com/thehatchingpost', 'https://www.instagram.com/thehatchingpost/']",Canada
Herald Street Brew Works,Victoria,"['Cider', 'Family Friendly', 'GF Food Options', 'Snacks', 'Wine']",https://bcaletrail.ca/breweries/herald-street-brew-works/,506 Herald Street,N/A,V8W 3N8,BC,2505909592,https://www.heraldstreet.com/,"['https://www.facebook.com/heraldstbw', 'https://www.instagram.com/heraldstbw/', 'https://untappd.com/HeraldStreetBrewWorks']",Canada
Highway 97 Brewery,Penticton,"['Bike Racks', 'Brewpub', 'Cider', 'Comedy Events', 'Dog Friendly Zone', 'Experience', 'Family Friendly', 'Food Service', 'Gender Neutral Washrooms', 'GF Food Options', 'Growler Fills', 'Keg Sales/Rentals', 'Live Music', 'Merchandise', 'Non Alc Beer Available', 'Patio', 'Snacks', 'Tasting Room Kitchen', 'Wine']",https://bcaletrail.ca/breweries/highway-97-brewing/,200 Ellis St,N/A,V2A 4L6,BC,2504930323,http://hwy97brewery.com,"['https://twitter.com/hwy97beer', 'https://www.facebook.com/hwy97beer/', 'https://www.instagram.com/hwy97beer/', 'https://untappd.com/w/highway-97-brewery/262791']",Canada
Hornby Island Brewing,Hornby Island,"['Growler Fills', 'Merchandise', 'Non Alc Beer Available', 'Non Alc Beer Producer', 'Online Shopping - Gift Cards', 'Online Shopping - Merch', 'Shopping']",https://bcaletrail.ca/breweries/hornby-island-brewing/,6985 St Johns Pt Road,N/A,V0R 1Z0,BC,2503359179,http://hornbyislandbrewing.ca/,"['https://twitter.com/hornbybrewco', 'https://www.facebook.com/hornbyislandbrewingco', 'https://www.instagram.com/hornbyislandbrewingco/', 'https://untappd.com/HornbyIslandBrewingCompany']",Canada
House of Funk Brewing,North Vancouver,"['Barrels', 'Canada Post delivery across BC', 'Coffee', 'Dog Friendly Zone', 'Experience', 'Gender Neutral Washrooms', 'Growler Fills', 'Live Music', 'Non Alc Beer Available', 'Online Shopping - Gift Cards', 'Online Shopping - Merch', 'Patio', 'Shopping', 'Snacks', 'Take-Out']",https://bcaletrail.ca/breweries/house-of-funk-brewing/,350 E Esplanade,N/A,V7L 1A4,BC,N/A,https://www.houseoffunkbrewing.com/,"['https://www.facebook.com/houseoffunkbrewing', 'https://www.instagram.com/houseoffunkbrewing/', 'https://untappd.com/House_Of_Funk']",Canada
Howe Sound Brewing,Squamish,"[""Baby Change Table (women's washroom)"", 'Barrels', 'Bike Racks', 'Brewpub', 'Canada Post delivery across BC', 'Cider', 'Cocktails', 'Craft Sodas', 'Dog Friendly Patio', 'Family Friendly', 'GF Food Options', 'Gluten-Free Beer', 'Growler Fills', 'Guest Taps', 'Hotel', 'Keg Sales/Rentals', 'Kombucha', 'Merchandise', 'Non Alc Beer Available', 'Online Ordering - Local Delivery', 'Online Shopping - Gift Cards', 'Online Shopping - Merch', 'Patio', 'Snacks', 'Spirits', 'Wheelchair Accessible', 'Wine']",https://bcaletrail.ca/breweries/howe-sound-brewing/,37801 Cleveland Ave,N/A,V8B 0S8,BC,6048922603,http://howesound.com,"['https://twitter.com/howesoundbeer', 'https://www.facebook.com/HoweSoundBrewing', 'https://www.instagram.com/Howesoundbrewing/', 'https://untappd.com/HoweSoundBrewingCo']",Canada
Hoyne Brewing,Victoria,"['Growler Fills', 'Has Tours', 'Keg Sales/Rentals', 'Merchandise']",https://bcaletrail.ca/breweries/hoyne-brewing-co/,2740 Bridge St,N/A,V8T 5C5,BC,2505905758,http://hoynebrewing.ca,"['https://twitter.com/HoyneBeer', 'https://www.facebook.com/HoyneBrewing/', 'https://www.instagram.com/hoynebrewing/', 'https://untappd.com/hoynebrewing']",Canada
île Sauvage Brewing,Victoria,"['Barrels', 'Beer Service', 'Cider', 'Crowlers', 'Events', 'Food Truck(s)', 'Kombucha', 'Snacks']",https://bcaletrail.ca/breweries/ile-sauvage-brewing/,2960 Bridge Street,N/A,V8T 4T3,BC,2505089386,http://www.ilesauvage.com,"['https://twitter.com/ilesauvagebeer', 'https://www.facebook.com/ilesauvagebrewing/', 'https://www.instagram.com/ilesauvagebrewing/', 'https://untappd.com/IleSauvage']",Canada
Iron Road Brewing,Kamloops,"['Barrels', 'Beer Service', 'Brewpub', 'Family Friendly', 'Food Service', 'Growler Fills', 'Live Music']",https://bcaletrail.ca/breweries/iron-road-brewing/,980 Camosun Cres,N/A,V2C 6G2,BC,7787658160,http://www.ironroadbrewing.ca,"['https://twitter.com/@ironroadbrewing', 'https://www.facebook.com/Iron-Road-Brewing-1264130683634590/', 'https://www.instagram.com/ironroadbrewing', 'https://untappd.com/Iron_Road_Brewing']",Canada
Jackknife Brewing,Kelowna,"['Barrels', 'Cider', ""Code of Conduct on Brewery's Website"", 'Family Friendly', 'Gender Neutral Washrooms', 'NA Beer Alternative (eg. hopped sparkling water)', 'Patio', 'Pizza', 'Shopping', 'Take-Out', 'Tasting Room Kitchen', 'Wheelchair Accessible']",https://bcaletrail.ca/breweries/jackknife-brewing/,727 Baillie Ave,N/A,N/A,BC,N/A,https://www.jackknife.beer/,"['https://www.facebook.com/jackknifebrewing/', 'https://www.instagram.com/jackknifebrewing', 'https://untappd.com/JackknifeBrewing']",Canada
Kelowna Beer Institute,Kelowna,"['All Weather Patio', ""Baby Change Table (women's washroom)"", 'Bike Racks', 'Board Games', 'Brewpub', 'Cask Beer', 'Cider', 'Cocktails', 'Craft Sodas', 'Dog Friendly Patio', 'Family Friendly', 'GF Food Options', 'Growler Fills', 'Hotel', 'Keg Sales/Rentals', 'Kombucha', 'Live Music', 'Merchandise', 'Non Alc Beer Available', 'Patio', 'Safe Space Signage', 'Snacks', 'Spirits', 'Wheelchair Accessible', 'Wine']",https://bcaletrail.ca/breweries/kelowna-beer-institute/,1346 Water St,N/A,V1Y 1J1,BC,7784840306,http://kelownabeerinstitute.com/,"['https://www.facebook.com/KelownaBeerInstitute', 'https://www.instagram.com/kelownabeerinstitute/', 'https://untappd.com/treebeer']",Canada
Kettle River Brewing Co.,Kelowna,"['All Weather Patio', 'Baby Change Table (gender neutral washroom)', 'Barrels', 'Bike Racks', 'Board Games', 'Brewpub', 'Cider', 'Cocktails', ""Code of Conduct on Brewery's Website"", 'Craft Sodas', 'Dog Friendly Patio', 'Family Friendly', 'Gender Neutral Washrooms', 'Growler Fills', 'Guest Taps', 'Keg Sales/Rentals', 'Live Music', 'Merchandise', 'Non Alc Beer Available', 'Online Shopping - Gift Cards', 'Online Shopping - Merch', 'Patio', 'Snacks', 'Wheelchair Accessible', 'Wine']",https://bcaletrail.ca/breweries/kettle-river-brewing-co/,731 Baillie Ave,N/A,V1Y 7E9,BC,2508625115,http://kettleriverbrewing.ca,"['https://twitter.com/kettleriverbrew', 'http://www.facebook.com/kettleriverbrew', 'https://www.instagram.com/kettleriverbrew/', 'https://untappd.com/w/kettle-river-brewing/270361']",Canada
KPU Brew Lab | Kwantlen Polytechnic University,Langley,"['Beer Service', 'Experience', 'Family Friendly', 'Gender Neutral Washrooms', 'Growler Fills', 'Has Tours', 'Keg Sales/Rentals', 'Merchandise', 'Wheelchair Accessible']",https://bcaletrail.ca/breweries/kwantlen-polytechnic-university-brewing/,20901 Langley Bypass,N/A,V3A 8G9,BC,N/A,http://www.kpu.ca/brew,"['https://twitter.com/kpubrew', 'https://www.facebook.com/kpubrew/', 'https://www.instagram.com/kpubrew', 'https://untappd.com/KPUBrewingLab']",Canada
La Cerveceria Astilleros,North Vancouver,"['Beer Service', 'Brewpub', 'Call in or Order Online', 'Cocktails', 'Dog Friendly Zone', 'Experience', 'Family Friendly', 'Food Service', 'Gender Neutral Washrooms', 'GF Food Options', 'Growler Fills', 'Keg Sales/Rentals', 'Kombucha', 'Live Music', 'Margaritas', 'Merchandise', 'Online Ordering - Local Delivery', 'Patio', 'Snacks', 'Tasting Room Kitchen', 'Wheelchair Accessible', 'Wine']",https://bcaletrail.ca/breweries/la-cerveceria-astilleros/,226 Esplanade East,N/A,V7L 1A3,BC,N/A,http://www.cerveceria-astilleros.com,"['https://www.facebook.com/cerveceriaastilleros/', 'https://www.instagram.com/lacerveceriaastilleros/', 'https://untappd.com/w/la-cerveceria-astilleros/473297']",Canada
Lakesider Brewing Co.,West Kelowna,"['All Weather Patio', 'Baby Change Table (gender neutral washroom)', 'Barrels', 'Bike Racks', 'Board Games', 'Brewpub', 'Cider', 'Cocktails', 'Craft Sodas', 'Delivery from Local Restaurants Available', 'Dog Friendly Patio', 'Family Friendly', 'Gender Neutral Washrooms', 'GF Food Options', 'Gluten-Free Beer', 'Growler Fills', 'Guest Taps', 'Has Tours', 'Keg Sales/Rentals', 'Kombucha', 'Live Music', 'Merchandise', 'Non Alc Beer Available', 'Online Shopping - Gift Cards', 'Patio', 'Snacks', 'Spirits', 'Wheelchair Accessible', 'Wine']",https://bcaletrail.ca/breweries/lakesider-brewing/,835 Anders Rd W.,N/A,N/A,BC,2367661144,https://lakesiderbrewing.com/,"['https://www.facebook.com/lakesiderbeer/', 'https://www.instagram.com/lakesiderbeer/', 'https://untappd.com/w/lakesider-brewing/494371']",Canada
Land & Sea Brewing,Comox,"['Beer Service', 'Bike Racks', 'Cider', ""Code of Conduct on Brewery's Website"", 'Family Friendly', 'Food Service', 'GF Food Options', 'Gluten-Free Beer', 'Growler Fills', 'Kombucha', 'Live Music', 'Snacks', 'Tasting Room Kitchen', 'Wine']",https://bcaletrail.ca/breweries/land-and-sea-brewing/,2040 Guthrie Rd,N/A,V9M 3P6,BC,2509415577,https://www.landandseabrewing.ca/,"['https://www.facebook.com/landandseabeer/', 'https://www.instagram.com/landandseabeer/', 'https://untappd.com/LandandSeaBrewing']",Canada
Lighthouse Brewing,Victoria,"['Barrels', 'Bike Racks', 'Events', 'Family Friendly', 'Growler Fills', 'Has Tours', 'Keg Sales/Rentals', 'Merchandise', 'Patio', 'Shopping', 'Snacks', 'Take-Out', 'Tasting Room Kitchen', 'Vegan Options']",https://bcaletrail.ca/breweries/lighthouse-brewing-company/,836 Devonshire Rd,N/A,V9A 4T4,BC,2503836500,http://lighthousebrewing.com,"['https://twitter.com/LIGHTHOUSEBEER', 'https://www.facebook.com/LIGHTHOUSEBEER/', 'https://www.instagram.com/LIGHTHOUSEBEER/', 'https://untappd.com/lighthousebrewing']",Canada
Lillooet Brewing Company,Lillooet,"['Baby Change Table (gender neutral washroom)', ""Baby Change Table (women's washroom)"", 'Bike Racks', 'Board Games', 'Cider', 'Dog Friendly Patio', 'Family Friendly', 'Food Truck(s)', 'Gender Neutral Washrooms', 'Growler Fills', 'Guest Taps', 'Has Tours', 'Keg Sales/Rentals', 'Kombucha', 'Merchandise', 'Patio', 'Picnic Area Outside', 'Snacks', 'Tasting Room Kitchen', 'Wheelchair Accessible', 'Wine']",https://bcaletrail.ca/breweries/lillooet-brewing-co/,104 Main St,N/A,V0K 1V0,BC,2364171133,https://lillooetbrewing.com/,"['https://www.facebook.com/LillooetBrewing', 'https://www.instagram.com/lillooetbeer/']",Canada
Locality Brewing,Langley,"['Dog Friendly Zone', 'Events', 'Family Friendly', 'Farm', 'Has Tours', 'Keg Sales/Rentals', 'Picnics']",https://bcaletrail.ca/breweries/locality-brewing/,7111 252 Street,N/A,V4W 1H6,BC,7788551376,https://localitybrewing.ca/,"['https://twitter.com/LocalityBrewing', 'https://www.facebook.com/localitybrewing/', 'https://www.instagram.com/localitybrewing']",Canada
Longwood Brew Pub & Restaurant,Nanaimo,"['All Weather Patio', 'Baby Change Table (gender neutral washroom)', 'Bike Racks', 'Brewpub', 'Cask Beer', 'Cider', 'Cocktails', 'Family Friendly', 'Gender Neutral Washrooms', 'GF Food Options', 'Growler Fills', 'Has Tours', 'Keg Sales/Rentals', 'Merchandise', 'Non Alc Beer Available', 'Patio', 'Spirits', 'Wheelchair Accessible', 'Wine']",https://bcaletrail.ca/breweries/longwood-brewpub/,5775 Turner Rd,N/A,V9T 6L8,BC,2507298225,http://www.longwoodbrewpub.com/,"['https://www.facebook.com/longwoodbrewpub', 'http://www.instagram.com/longwoodbrewpub/']",Canada
Longwood Brewery on Boxwood Road,Nanaimo,"['Barrels', 'Delivery from Local Restaurants Available', 'Dog Friendly Patio', 'Family Friendly', 'Gender Neutral Washrooms', 'Growler Fills', 'Merchandise', 'Non Alc Beer Available', 'Non Alc Beer Producer', 'Patio', 'Picnic Area Outside', 'Wheelchair Accessible']",https://bcaletrail.ca/breweries/longwood-brewery/,101A - 2046 Boxwood Rd,N/A,V9S 5W7,BC,2505912739,http://longwoodbeer.com,"['https://twitter.com/longwoodbrewery', 'https://www.facebook.com/profile.php?id=100086750047819', 'https://www.instagram.com/longwoodbrewery/', 'https://untappd.com/LongwoodBreweryNanaimo']",Canada
LoveShack Libations,Qualicum Beach,"['Delivery from Local Restaurants Available', 'Dog Friendly Zone', 'Family Friendly', 'Food Truck(s)', 'Gender Neutral Washrooms', 'Merchandise', 'Outside food permitted', 'Safe Space Signage', 'Wheelchair Accessible']",https://bcaletrail.ca/breweries/loveshack-libations/,1,4134 Island Hwy W #,V9K 2B2,BC,6043192484,http://loveshacklibations.com,"['https://twitter.com/LoveShackBeer', 'https://www.facebook.com/loveshacklibations/', 'https://www.instagram.com/loveshacklibations/', 'https://untappd.com/w/loveshack-libations/325191']",Canada
Luppolo Brewing Company,Vancouver,"['Baby Change Table (gender neutral washroom)', 'Barrels', 'Bike Racks', 'Brewpub', 'Cider', 'Cocktails', ""Code of Conduct on Brewery's Website"", 'Craft Sodas', 'Family Friendly', 'Gender Neutral Washrooms', 'Keg Sales/Rentals', 'Merchandise', 'Non Alc Beer Available', 'Patio', 'Safe Space Signage', 'Snacks', 'Spirits', 'Wheelchair Accessible', 'Wine']",https://bcaletrail.ca/breweries/luppolo-brewing-company/,1123 Venables St,N/A,V6A 2C6,BC,6042554997,http://luppolobrewing.ca,"['https://twitter.com/luppolo_brewing', 'https://www.facebook.com/luppolobrewingco/', 'https://www.instagram.com/luppolo_brewing/', 'https://untappd.com/w/luppolo-brewing-company/281667']",Canada
Main Street Brewing,Vancouver,"['Barrels', 'Cask Beer', 'Family Friendly', 'Growler Fills', 'Has Tours', 'Merchandise', 'Shopping', 'Take-Out', 'Tasting Room Kitchen']",https://bcaletrail.ca/breweries/main-street-brewing/,261 E 7th Ave,N/A,V5T 0B4,BC,6043367711,http://mainstreetbeer.ca,"['https://www.facebook.com/MainStreetBeer/', 'https://www.instagram.com/mainstreetbeer/', 'https://untappd.com/MainStreetBrewingCompany']",Canada
Mariner Brewing,Coquitlam,"['Baby Change Table (gender neutral washroom)', 'Board Games', 'Cider', 'Cocktails', 'Craft Sodas', 'Dog Friendly Patio', 'Family Friendly', 'Food Truck(s)', 'Gender Neutral Washrooms', 'Growler Fills', 'Guest Taps', 'Keg Sales/Rentals', 'Kombucha', 'Merchandise', 'Non Alc Beer Available', 'Patio', 'Snacks', 'Spirits', 'Tasting Room Kitchen', 'Wheelchair Accessible', 'Wine']",https://bcaletrail.ca/breweries/mariner-brewing/,H-1100 Lansdowne Drive,N/A,V3B 5E2,BC,6044674160,https://www.marinerbrewing.ca/,"['https://twitter.com/MarinerBeer', 'https://www.facebook.com/pg/marinerbeer', 'https://www.instagram.com/marinerbeer/']",Canada
Mayne Island Brewing Company,Mayne Island,"['Barrels', 'Beer Service', 'Experience', 'Family Friendly', 'Gender Neutral Washrooms', 'Has Tours', 'Keg Sales/Rentals', 'Merchandise', 'Picnics', 'Wheelchair Accessible']",https://bcaletrail.ca/breweries/mayne-island-brewing-company/,490 Fernhill Road,N/A,V0N 2J2,BC,2505260711,https://mayneislandbrewing.com/,"['https://www.facebook.com/MayneIslandBrewing/', 'https://www.instagram.com/mayneislandbrewingco/', 'https://untappd.com/w/mayne-island-brewing-company/316870']",Canada
Mighty Peace Brewing,Fort St. John,"['Beer Service', 'Cider', 'Cocktails', 'Dog Friendly Zone', 'Experience', 'Family Friendly', 'Growler Fills', 'Guest Taps', 'Has Tours', 'Keg Sales/Rentals', 'Live Music', 'Merchandise', 'Non Alc Beer Available', 'Patio', 'Shopping', 'Snacks', 'Tasting Room Kitchen', 'What Else?', 'Wheelchair Accessible', 'Wine']",https://bcaletrail.ca/breweries/mighty-peace/,10128 95 Ave,N/A,V1J 1J1,BC,2507855553,http://www.Mightypeacebrewing.ca,"['https://twitter.com/MightyPeaceBeer', 'https://www.facebook.com/MightyPeaceBrewing/', 'https://www.instagram.com/mightypeacebrewing/', 'https://untappd.com/Mighty_Peace_Brewing_Co']",Canada
Mile Zero Brewing,Metchosin,"['Events', 'Family Friendly', 'Growler Fills', 'Patio', 'Pizza', 'Tasting Room Kitchen']",https://bcaletrail.ca/breweries/mile-zero-brewing/,4495 Happy Valley Road,N/A,V9C 3Z3,BC,N/A,https://www.milezerobrewing.ca/,"['https://www.facebook.com/milezerobrewing', 'https://www.instagram.com/milezerobrewingca/', 'https://untappd.com/MileZeroBrewing']",Canada
Moody Ales & Co.,Port Moody,"['Baby Change Table (gender neutral washroom)', 'Bike Racks', 'Board Games', 'Cask Beer', 'Cocktails', ""Code of Conduct on Brewery's Website"", 'Craft Sodas', 'Family Friendly', 'Gender Neutral Washrooms', 'Growler Fills', 'Keg Sales/Rentals', 'Kombucha', 'Merchandise', 'Non Alc Beer Producer', 'Patio', 'Picnic Area Outside', 'Safe Space Signage', 'Wheelchair Accessible', 'Wine']",https://bcaletrail.ca/breweries/moody-ales/,2601 Murray St,N/A,V3H 3R5,BC,6044923911,http://www.Moodyales.com,"['https://www.facebook.com/MoodyAles/', 'https://www.instagram.com/MoodyAles/', 'https://untappd.com/MoodyAles']",Canada
Mount Arrowsmith Brewing,Parksville,"['Beer Service', 'Experience', 'Growler Fills', 'Has Tours', 'Merchandise', 'Shopping', 'Take-Out', 'Tasting Room Kitchen', 'What Else?']",https://bcaletrail.ca/breweries/mount-arrowsmith-brewing-co/,425 Stanford Avenue East,N/A,N/A,BC,2509510125,https://arrowsmithbrewing.com/shop/,"['https://www.facebook.com/MABrewing', 'https://www.instagram.com/MABrewing/', 'https://untappd.com/MountArrowsmith']",Canada
Mountainview Brewing,Hope,"['Board Games', 'Call in or Order Online', 'Canada Post delivery across BC', 'Cider', 'Cocktails', 'Coffee', 'Craft Sodas', 'Family Friendly', 'Food Truck(s)', 'Gender Neutral Washrooms', 'GF Food Options', 'Growler Fills', 'Has Tours', 'Keg Sales/Rentals', 'Kombucha', 'Live Music', 'Merchandise', 'Online Ordering - Local Delivery', 'Patio', 'Snacks', 'Tasting Room Kitchen', 'Videogames', 'Wheelchair Accessible', 'Wine']",https://bcaletrail.ca/breweries/mountainview-brewing/,390 Old Hope Princeton Way,N/A,V0X 1L0,BC,2363551333,https://mountainviewbrewing.ca/,"['https://twitter.com/mtnviewbrewing', 'https://www.facebook.com/mtnviewbrewing/', 'https://www.instagram.com/mtnviewbrewing/', 'https://untappd.com/Mountainview_Brewing_Co']",Canada
Mt. Begbie Brewing,Revelstoke,"['Brewpub', 'Family Friendly', 'Has Tours', 'Merchandise', 'Shopping', 'Snacks']",https://bcaletrail.ca/breweries/mt-begbie-brewing-company/,2155 Oak Drive,N/A,V0E 2S1,BC,2508372756,http://mt-begbie.com,"['https://twitter.com/MtBegbiebeer', 'https://www.facebook.com/mtbegbiebeer/', 'https://www.instagram.com/mtbegbiebeer/', 'https://untappd.com/MtBegbieBrewingCo']",Canada
Neighbourhood Brewing,Penticton,"['All Weather Patio', 'Baby Change Table (gender neutral washroom)', ""Baby Change Table (women's washroom)"", 'Barrels', 'Bike Racks', 'Board Games', 'Brewpub', 'Cider', 'Dog Friendly Patio', 'Family Friendly', 'Gender Neutral Washrooms', 'GF Food Options', 'Growler Fills', 'Guest Taps', 'Has Tours', 'Keg Sales/Rentals', 'Merchandise', 'Non Alc Beer Available', 'Patio', 'Spirits', 'Wheelchair Accessible', 'Wine']",https://bcaletrail.ca/breweries/neighbourhood-brewing/,187 Westminster Ave.,N/A,V2A 1J7,BC,7783800841,https://neighbourhoodbrewing.com/,"['https://www.facebook.com/NBHDBeer', 'https://www.instagram.com/nbhdbeer/', 'https://untappd.com/NeighbourhoodBrewing']",Canada
Nelson Brewing Company,Nelson,"['Beer Service', 'Bike Racks', 'Dog Friendly Zone', 'Family Friendly', 'Gender Neutral Washrooms', 'Growler Fills', 'Has Tours', 'Keg Sales/Rentals', 'Merchandise', 'Patio', 'Snacks']",https://bcaletrail.ca/breweries/nelson-brewing-company/,512 Latimer St,N/A,V1L 4V1,BC,2503523582,http://nelsonbrewing.com,"['https://www.facebook.com/Nelson-Brewing-Company-192612907436095/', 'https://www.instagram.com/nelsonbrewingcompany/', 'https://untappd.com/w/nelson-brewing-company/902']",Canada
Noble Pig Brewhouse,Kamloops,"['Brewpub', 'Cider', 'Family Friendly', 'Growler Fills', 'Wine']",https://bcaletrail.ca/breweries/the-noble-pig-brewhouse/,650 Victoria St,N/A,V2C 2B4,BC,7784715999,http://thenoblepig.ca,"['https://twitter.com/thenoblepigbrew', 'https://www.facebook.com/The-Noble-Pig-Brewhouse-101556243242933/', 'https://www.instagram.com/thenoblepigbrew/', 'https://untappd.com/w/noble-pig-brewhouse/8623']",Canada
North Point Brewing,North Vancouver,"['Family Friendly', 'Growler Fills', 'Has Tours', 'Merchandise', 'Tasting Room Kitchen']",https://bcaletrail.ca/breweries/north-point-brewing/,266 1st Street East,N/A,V7L 1B3,BC,6042500234,https://www.northpointbrewing.com,"['https://www.facebook.com/northpointbrewing', 'https://www.instagram.com/northpointbrewing/', 'https://untappd.com/NorthPoint']",Canada
Northpaw Brew Co.,Port Coquitlam,"['Barrels', 'Beer Service', 'Call in or Order Online', 'Experience', 'Family Friendly', 'Growler Fills', 'Has Tours', 'Merchandise', 'Shopping', 'Snacks', 'Take-Out']",https://bcaletrail.ca/breweries/northpaw-brew-co/,2150-570 Sherling Pl,N/A,V3E 3G7,BC,6046445439,https://www.northpawbrewco.com/,"['https://twitter.com/northpawbrewco', 'https://www.facebook.com/northpawbrewco/', 'https://www.instagram.com/northpawbrewco/', 'https://untappd.com/NorthpawBrewCo']",Canada
Off The Rail Brewing Co,Vancouver,"['Family Friendly', 'Growler Fills', 'Has Tours', 'Merchandise', 'Shopping', 'Snacks', 'Take-Out']",https://bcaletrail.ca/breweries/off-the-rail-brewing-co/,1351 Adanac St,N/A,V5L 2C4,BC,6045635767,http://offtherailbrewing.com,"['https://twitter.com/offtherailbeer', 'https://www.facebook.com/Off-The-Rail-Brewing-Co-286997414805699/', 'https://www.instagram.com/offtherailbeer/', 'https://untappd.com/w/off-the-rail-brewing/186988']",Canada
The Office Brewery,Kelowna,"['Bike Racks', 'Board Games', 'Brewpub', 'Cider', 'Cocktails', 'Craft Sodas', 'Dog Friendly Zone', 'Family Friendly', 'Gender Neutral Washrooms', 'Growler Fills', 'Guest Taps', 'Kombucha', 'Merchandise', 'Non Alc Beer Available', 'Online Ordering - Local Delivery', 'Patio', 'Wheelchair Accessible', 'Wine']",https://bcaletrail.ca/breweries/the-office-brewery/,301 - 890 Clement Ave,N/A,V1Y 7E4,BC,N/A,https://officebrewery.ca/,"['https://www.facebook.com/theofficebrewery', 'https://www.instagram.com/theofficebrewery/']",Canada
Old Abbey Ales,Abbotsford,"['Board Games', 'Cider', 'Craft Sodas', 'Delivery from Local Restaurants Available', 'Dog Friendly Patio', 'Family Friendly', 'Gender Neutral Washrooms', 'Growler Fills', 'Guest Taps', 'Keg Sales/Rentals', 'Merchandise', 'Online Ordering - Local Delivery', 'Online Shopping - Gift Cards', 'Online Shopping - Merch', 'Patio', 'Wheelchair Accessible']",https://bcaletrail.ca/breweries/old-abbey-ales/,1A - 30321 Fraser Hwy,N/A,V4X 1T3,BC,6046075104,http://oldabbeyales.com,"['https://www.instagram.com/oldabbeyalesbrewery/', 'https://untappd.com/OldAbbeyAles']",Canada
Old Yale Brewing,Chilliwack,"['Board Games', 'Cider', 'Cocktails', 'Coffee', 'Crowlers', 'Family Friendly', 'GF Food Options', 'Growler Fills', 'Keg Sales/Rentals', 'Kombucha', 'Live Music', 'Merchandise', 'Patio', 'Restaurant Connected', 'Shopping', 'Take-Out', 'Wine']",https://bcaletrail.ca/breweries/old-yale-brewing-co/,4,44550 S Sumas Rd #40,V2R 5M3,BC,6043922011,http://oldyalebrewing.com,"['https://twitter.com/oldyalebrewing', 'https://www.facebook.com/oldyalebrewing/', 'https://www.instagram.com/oldyalebrewing/', 'https://untappd.com/oldyalebrewing']",Canada
Old Yale Brewing Abbotsford,Abbotsford,"['Beer Service', 'Brewpub', 'Call in or Order Online', 'Cider', 'Cocktails', 'Dog Friendly Zone', 'Experience', 'Family Friendly', 'Growler Fills', 'Guest Taps', 'Keg Sales/Rentals', 'Live Music', 'Merchandise', 'Patio', 'Videogames', 'Wheelchair Accessible', 'Wine']",https://bcaletrail.ca/breweries/old-yale-brewing-abbotsford/,33738 Laurel Street,N/A,V2S 1X2,BC,6043922011,https://www.oldyalebrewing.com/old-yale-abbotsford,"['https://twitter.com/oldyalebrewing', 'https://www.facebook.com/oldyalebrewing/', 'https://www.instagram.com/oldyalebrewing/', 'https://untappd.com/oldyalebrewing']",Canada
Over Time Beer Works,Kimberley,"['Growler Fills', 'Merchandise', 'Patio', 'Shopping', 'Snacks']",https://bcaletrail.ca/breweries/over-time-beer-works/,136 Wallinger Ave,N/A,V1A 1Y8,BC,2504272426,http://overtimebeer.ca,"['https://twitter.com/OverTimeBeer', 'https://www.facebook.com/OverTimeBeer/', 'https://www.instagram.com/overtimebeer/', 'https://untappd.com/OverTimeBeerWorks']",Canada
Parallel 49 Brewing,Vancouver,"['Barrels', 'Family Friendly', 'Gender Neutral Washrooms', 'Growler Fills', 'Has Tours', 'Merchandise', 'Restaurant Connected', 'Wheelchair Accessible']",https://bcaletrail.ca/breweries/parallel-49-brewing/,1950 Triumph St,N/A,V5L 1K5,BC,6045582739,http://parallel49brewing.com,"['https://twitter.com/parallel49beer', 'https://www.facebook.com/parallel49brewing/', 'https://www.instagram.com/parallel49beer/', 'https://untappd.com/Parallel49Brewing']",Canada
The Parkside Brewery,Port Moody,"['Dog Friendly Patio', 'Dog Friendly Zone', 'Family Friendly', 'Food Truck(s)', 'Growler Fills', 'Merchandise', 'Online Shopping - Gift Cards', 'Patio', 'Shopping', 'Snacks', 'Take-Out']",https://bcaletrail.ca/breweries/parkside-brewery/,2731 Murray St,N/A,V3H 3R5,BC,6044922731,http://theparksidebrewery.com,"['https://twitter.com/parksidebrewery', 'https://www.facebook.com/parksidebrewery/', 'https://www.instagram.com/parksidebrewery/', 'https://untappd.com/w/the-parkside-brewery/256503']",Canada
The Patch Brewery,Maple Ridge,"['Beer Service', 'Cider', 'Experience', 'Farm', 'Food Service', 'Gluten-Free Beer', 'Patio', 'Picnic Area Outside', 'Pizza', 'What Else?']",https://bcaletrail.ca/breweries/the-patch-brewery/,12745 Laity St,N/A,V4R 2P3,BC,N/A,https://thepatchbrewery.com/,"['https://www.facebook.com/p/The-Patch-Brewery-100063584870966/', 'https://www.instagram.com/thepatchbrewery']",Canada
Patina Brewing,Port Coquitlam,"['Brewpub', 'Call in or Order Online', 'Cider', 'Cocktails', 'Crowlers', 'Delivery through Skip the Dishes and Uber Eats', 'Family Friendly', 'Growler Fills', 'Has Tours', 'Keg Sales/Rentals', 'Live Music', 'Merchandise', 'Wine']",https://bcaletrail.ca/breweries/patina-brewing/,2332 Marpole Avenue,N/A,V3C 2A2,BC,6044740025,https://patinabrewing.com/,"['https://www.facebook.com/PatinaBrewing', 'https://www.instagram.com/patinabrewing/', 'https://untappd.com/PatinaBrewingCompany']",Canada
Pemberton Brewing Co.,Pemberton,"['All Weather Patio', 'Bike Racks', 'Board Games', 'Cider', 'Craft Sodas', 'Dog Friendly Zone', 'Family Friendly', 'Gender Neutral Washrooms', 'Growler Fills', 'Keg Sales/Rentals', 'Live Music', 'Merchandise', 'Patio', 'Snacks', 'Take-Out', 'Wheelchair Accessible']",https://bcaletrail.ca/breweries/pemberton-brewing/,s 5 and 6,1936 Stonecutter Place Unit,V0N 2K0,BC,6048942337,http://www.pembertonbrewing.ca/,"['https://www.facebook.com/pembertonbrewingco/', 'https://www.instagram.com/pembertonbrewingco/', 'https://untappd.com/PembertonBrewingCo']",Canada
Persephone Brewing,Gibsons,"['Barrels', 'Beer Service', 'Bike Racks', 'Board Games', 'Brewpub', 'Canada Post delivery across BC', 'Cider', 'Cider Production', 'Cocktails', 'Dog Friendly Zone', 'Experience', 'Family Friendly', 'Farm', 'Food Truck(s)', 'Gender Neutral Washrooms', 'Growler Fills', 'Guest Taps', 'Has Tours', 'Keg Sales/Rentals', 'Merchandise', 'Patio', 'Picnic Area Outside', 'Picnics', 'Shopping', 'Snacks', 'What Else?', 'Wheelchair Accessible', 'Wine']",https://bcaletrail.ca/breweries/persephone-brewing-co/,wart Rd,1053 Ste,V0N 1V7,BC,7784623007,http://persephonebrewing.com,"['https://twitter.com/Persephonebeer', 'https://www.facebook.com/PersephoneBrewing/', 'https://www.instagram.com/persephonebrewing/', 'https://untappd.com/PersephoneBrewingCompany']",Canada
Phillips Brewing & Malting Co.,Victoria,"['Baby Change Table (gender neutral washroom)', ""Baby Change Table (women's washroom)"", 'Bike Racks', 'Board Games', 'Canada Post delivery across BC', 'Cider', 'Cocktails', ""Code of Conduct on Brewery's Website"", 'Craft Sodas', 'Distilling', 'Dog Friendly Zone', 'Family Friendly', 'Gender Neutral Washrooms', 'GF Food Options', 'Growler Fills', 'Guest Taps', 'Keg Sales/Rentals', 'Live Music', 'Merchandise', 'Non Alc Beer Producer', 'Online Shopping - Merch', 'Patio', 'Picnic Area Outside', 'Spirits', 'Staff has completed Good Night Out training', 'Tasting Room Kitchen', 'Wheelchair Accessible']",https://bcaletrail.ca/breweries/phillips-brewing-malting-co/,2010 Government St,N/A,V8T 4P1,BC,2503801912,http://phillipsbeer.com,"['https://twitter.com/phillipsbeer', 'https://www.facebook.com/phillipsbeer/', 'https://www.instagram.com/phillipsbeer/', 'https://untappd.com/w/phillips-brewing-company/1472']",Canada
Poco Brothers Brewing Co,Port Coquitlam,"['Beer Service', 'Cider', 'Cocktails', 'Craft Sodas', 'Dog Friendly Patio', 'Experience', 'Food Service', 'GF Food Options', 'Guest Taps', 'Has Tours', 'Keg Sales/Rentals', 'Non Alc Beer Available', 'Patio', 'Restaurant Connected', 'What Else?', 'Wheelchair Accessible', 'Wine']",https://bcaletrail.ca/breweries/poco-brothers-brewing-co/,1979 Brown St,N/A,V3C 2N4,BC,6049418822,https://pocobrothersbrewing.com/,"['https://www.facebook.com/PoCoBrosBrews', 'https://www.instagram.com/pocobrothersbrewing', 'https://untappd.com/PocoBrothersBrewing']",Canada
Post & Row Brewing Co.,Dawson Creek,"['Brewpub', 'Cider', 'Dog Friendly Zone', 'Family Friendly', 'Gender Neutral Washrooms', 'GF Food Options', 'Growler Fills', 'Guest Taps', 'Live Music', 'Wheelchair Accessible', 'Wine']",https://bcaletrail.ca/breweries/post-row-brewing/,801 102 Ave,N/A,V1G 2B4,BC,7788430356,https://postandrow.ca/,"['https://www.facebook.com/postandrow/', 'https://www.instagram.com/postandrow/']",Canada
Powell Brewery,Vancouver,"['Barrels', 'Board Games', 'Cider', 'Craft Sodas', 'Dog Friendly Zone', 'Experience', 'Family Friendly', 'Food Truck(s)', 'Gluten-Free Beer', 'Growler Fills', 'Keg Sales/Rentals', 'Merchandise', 'Patio', 'Shopping', 'Snacks', 'Videogames']",https://bcaletrail.ca/breweries/powell-street-craft-brewery/,1357 Powell St,N/A,V5L 1G8,BC,6045582537,http://powellbeer.com,"['https://twitter.com/powellbeer', 'https://www.facebook.com/powellbeer/', 'https://www.instagram.com/powellbeer/', 'https://untappd.com/PSCB']",Canada
RAD Brewing,Comox,"['Beer Service', 'Bike Racks', 'Brewpub', 'Cider', 'Cocktails', 'Craft Sodas', 'Dog Friendly Zone', 'Experience', 'Family Friendly', 'Food Service', 'Growler Fills', 'Guest Taps', 'Has Tours', 'Kombucha', 'Live Music', 'What Else?']",https://bcaletrail.ca/breweries/rad-brewing-co/,1,Unit1,V9M 3M9,BC,N/A,https://radbrewco.com/,"['https://www.facebook.com/radbrewcomox', 'https://www.instagram.com/radbrewcomox/?fbclid=IwAR1jtpxpnx0PFIRFIyddsQN67moQCLQxeD-VEK5wRB6Y9HpluX2GlFLJpDs']",Canada
Radium Brewing,Radium Hot Springs,"['Delivery from Local Restaurants Available', 'Gender Neutral Washrooms', 'Live Music', 'Snacks', 'Wheelchair Accessible']",https://bcaletrail.ca/breweries/radium-brewing/,7537 Main Street West,N/A,V0A 1M0,BC,2506888091,https://www.radiumbrewing.ca/,"['https://www.facebook.com/RadiumBrewing', 'https://www.instagram.com/radiumbrewing/']",Canada
Railside Brewing,Kelowna,"['Beer Service', 'Bike Racks', 'Board Games', 'Cider', 'Cocktails', 'Craft Sodas', 'Delivery from Local Restaurants Available', 'Dog Friendly Zone', 'Experience', 'Family Friendly', 'Food Service', 'Food Truck(s)', 'Gender Neutral Washrooms', 'Kombucha', 'Patio', 'Wheelchair Accessible', 'Wine']",https://bcaletrail.ca/breweries/railside-brewing-ltd/,1186 High Road,N/A,V1Y 7B1,BC,N/A,https://www.railsidebrewing.ca/,"['https://www.facebook.com/profile.php?id=100084425877565', 'https://www.instagram.com/railsidebrewingkelowna/']",Canada
Ravens Brewing Company,Abbotsford,"['Barrels', 'Canada Post delivery across BC', 'Cocktails', 'Distilling', 'Family Friendly', 'Growler Fills', 'Has Tours', 'Keg Sales/Rentals', 'Merchandise', 'Snacks', 'Tasting Room Kitchen', 'Wheelchair Accessible', 'Wine']",https://bcaletrail.ca/breweries/ravens-brewing-company/,37455 Kilgard Road,N/A,V3G 0H8,BC,2364834028,http://ravensbrewing.com,"['https://twitter.com/ravensbrewing', 'https://www.facebook.com/ravensbrewing/', 'https://www.instagram.com/ravensbrewing/', 'https://untappd.com/RavensBrewingCompany']",Canada
R&B Brewing,Vancouver,"['Family Friendly', 'Growler Fills', 'Keg Sales/Rentals', 'Kombucha', 'Merchandise', 'Restaurant Connected', 'Wine']",https://bcaletrail.ca/breweries/rb-brewing-co/,54 E 4th Ave,N/A,V5T 1E8,BC,6048742537,http://randbbrewing.com,"['https://www.facebook.com/RBBrewing/', 'https://www.instagram.com/RBBrewing/', 'https://untappd.com/RandBBrewingCo']",Canada
Red Arrow Brewing,Duncan,"['Barrels', 'Beer Service', 'Canada Post delivery across BC', 'Cider', 'Cocktails', 'Crowlers', 'Dog Friendly Zone', 'Experience', 'Food Service', 'Food Truck(s)', 'Growler Fills', 'Keg Sales/Rentals', 'Live Music', 'Online Ordering - Local Delivery', 'Patio', 'Restaurant Connected', 'Tasting Room Kitchen', 'Videogames', 'Wheelchair Accessible', 'Wine']",https://bcaletrail.ca/breweries/red-arrow-brewing-company/,5255 Chaster Rd,N/A,V0R 2C0,BC,2505970037,http://redarrowbeer.ca,"['https://twitter.com/RedArrowBeer', 'https://www.facebook.com/redarrowbrewing/', 'https://www.instagram.com/redarrowbeer/', 'https://untappd.com/RedArrowBeer']",Canada
Red Bird Brewing,Kelowna,[''],https://bcaletrail.ca/breweries/red-bird-brewing/,1086 Richter Street,N/A,V1Y 2K5,BC,N/A,https://redbirdbrewing.com/,"['https://twitter.com/redbirdbeer', 'https://www.facebook.com/redbirdbeer/', 'https://www.instagram.com/redbirdbeer/', 'https://untappd.com/w/red-bird-brewing/359293']",Canada
Red Collar Brewing,Kamloops,"['Family Friendly', 'Growler Fills', 'Merchandise', 'Tasting Room Kitchen']",https://bcaletrail.ca/breweries/red-collar-brewing-co/,355 Lansdowne St,N/A,V2C 1X9,BC,7784710174,http://redcollar.ca,"['https://twitter.com/redcollarbrew', 'https://www.facebook.com/redcollarbrewery/', 'https://www.instagram.com/redcollarbrewing/', 'https://untappd.com/RedCollarBrewingCo']",Canada
Red Truck Beer Company,Vancouver,"['Brewpub', 'Family Friendly', 'Growler Fills', 'Has Tours', 'Merchandise', 'Restaurant Connected']",https://bcaletrail.ca/breweries/red-truck-beer-company/,295 E 1st Ave,N/A,V5T 1A7,BC,6046824733,http://redtruckbeer.com,"['https://www.facebook.com/RedTruckBeer/', 'https://www.instagram.com/redtruckbeer/', 'https://untappd.com/RedTruckBeerCompany']",Canada
Rewind Beer Co.,Port Moody,"['Cider', 'Delivery from Local Restaurants Available', 'Dog Friendly Zone', 'Family Friendly', 'Food Truck(s)', 'Gender Neutral Washrooms', 'Kombucha', 'Patio', 'Snacks', 'Tasting Room Kitchen', 'Wheelchair Accessible', 'Wine']",https://bcaletrail.ca/breweries/rewind-beer-co/,2809 Murray St,N/A,V3H 1X3,BC,2364660226,https://rewindbeer.com/,"['https://www.facebook.com/rewindbeer', 'https://www.instagram.com/rewindbeer/']",Canada
Ricochet Brewing and Taphouse,Salmon Arm,"['Gender Neutral Washrooms', 'Non Alc Beer Available', 'Patio', 'Wheelchair Accessible']",https://bcaletrail.ca/breweries/ricochet-brewing-and-taphouse/,310 Hudson Ave,N/A,V1E 4N2,BC,2508036829,https://ricochetbrewing.com/,"['https://www.facebook.com/ricochet.brewing.ca', 'https://www.instagram.com/ricochet.brewing']",Canada
Rossland Beer Company,Rossland,"['Family Friendly', 'Food Truck(s)', 'Growler Fills', 'Merchandise', 'Picnics', 'Shopping', 'Snacks', 'Take-Out']",https://bcaletrail.ca/breweries/rossland-beer-company/,1990F Columbia Avenue,N/A,V0G 1Y0,BC,2503622122,http://rosslandbeer.com,"['https://twitter.com/RosslandBeer', 'https://www.facebook.com/RosslandBeer/', 'https://www.instagram.com/rosslandbeerco/', 'https://untappd.com/w/rossland-beer-company/146910']",Canada
Rumpus Beer Co,Revelstoke,"['Beer Service', 'Crowlers', 'Delivery from Local Restaurants Available', 'Experience', 'Family Friendly', 'Food Service', 'Growler Fills', 'Merchandise', 'Snacks', 'Take-Out']",https://bcaletrail.ca/breweries/rumpus-beer-co/,208 1st Street E,N/A,N/A,BC,2506838100,http://www.rumpusbeerco.com,"['https://www.facebook.com/rumpusbeercompany/', 'https://www.instagram.com/rumpusbeerco/', 'https://untappd.com/w/rumpus-beer-company/434488']",Canada
Russell Brewing Company,Surrey,"['Barrels', 'Call in or Order Online', 'Cider', 'Family Friendly', 'Gender Neutral Washrooms', 'Growler Fills', 'Keg Sales/Rentals', 'Kombucha', 'Margaritas', 'Merchandise', 'Online Ordering - Local Delivery', 'Restaurant Connected', 'Wheelchair Accessible']",https://bcaletrail.ca/breweries/russell-brewing-company/,Ave,#100 - 13018 80,V3W 3B2,BC,2365989951,http://russellbeer.com,"['https://twitter.com/Russell_Beer', 'https://www.facebook.com/Russell.Brewing/', 'https://www.instagram.com/russell_beer/', 'https://untappd.com/russell_beer']",Canada
Rusted Rake Brewing,Nanoose Bay,"['All Weather Patio', 'Baby Change Table (gender neutral washroom)', 'Bike Racks', 'Brewpub', 'Cider', 'Cocktails', 'Craft Sodas', 'Dog Friendly Patio', 'Family Friendly', 'Farm', 'Gender Neutral Washrooms', 'GF Food Options', 'Growler Fills', 'Kombucha', 'Live Music', 'Merchandise', 'Non Alc Beer Available', 'Patio', 'Snacks', 'Spirits', 'Wheelchair Accessible', 'Wine']",https://bcaletrail.ca/breweries/rusted-rake-brewing/,3106 Northwest Bay Road,N/A,V9P 9E6,BC,2508211934,https://rustedrakebrewing.ca/,"['https://www.facebook.com/rustedrakebrewing/', 'https://www.instagram.com/rustedrakebrewing/']",Canada
Rustic Reel Brewing Co,Kelowna,"['Brewpub', 'Call in or Order Online', 'Cider', 'Cocktails', 'Crowlers', 'Family Friendly', 'GF Food Options', 'Gluten-Free Beer', 'Growler Fills', 'Keg Sales/Rentals', 'Kombucha', 'Live Music', 'Merchandise', 'Snacks', 'Wine']",https://bcaletrail.ca/breweries/rustic-reel-brewing-co/,760 Vaughan Ave,N/A,V1Y 7E4,BC,2508623737,http://www.rusticreel.com,"['https://www.facebook.com/rusticreel/', 'https://www.instagram.com/rusticreel', 'https://untappd.com/w/rustic-reel-brewing-co/442195']",Canada
Salt Spring Brewing Co.,Salt Spring Island,"['Dog Friendly Zone', 'Experience', 'Family Friendly', 'Growler Fills', 'Merchandise', 'Online Shopping - Gift Cards', 'Organic Beer', 'Patio', 'Picnics', 'Shopping']",https://bcaletrail.ca/breweries/salt-spring-island-ales/,270 Furness Rd,N/A,V8K 1Z7,BC,18443887742,https://www.saltspringbrewing.com/,"['https://twitter.com/saltspringales', 'https://www.facebook.com/saltspringbrewery', 'https://www.instagram.com/saltspringbrewery/', 'https://untappd.com/SaltSpringIslandAles']",Canada
Shaketown Brewing,North Vancouver,"['Call in or Order Online', 'Cider', 'Has Tours', 'Keg Sales/Rentals', 'Live Music', 'Merchandise', 'Online Ordering - Local Delivery', 'Snacks', 'Wine']",https://bcaletrail.ca/breweries/shaketown-brewing/,Esplanade Ave E,#105 - 288,V7M 1A1,BC,N/A,https://shaketownbrewing.com/,"['https://mobile.twitter.com/shaketownbeer', 'https://www.instagram.com/shaketownbeer/', 'https://untappd.com/ShaketownBrewing']",Canada
Sherwood Mountain Brewhouse,Terrace,"['All Weather Patio', 'Baby Change Table (gender neutral washroom)', 'Bike Racks', 'Canada Post delivery across BC', 'Cider', 'Delivery from Local Restaurants Available', 'Dog Friendly Patio', 'Family Friendly', 'Gender Neutral Washrooms', 'Growler Fills', 'Has Tours', 'Keg Sales/Rentals', 'Kombucha', 'Live Music', 'Merchandise', 'Online Ordering - Local Delivery', 'Online Shopping - Gift Cards', 'Online Shopping - Merch', 'Snacks', 'Spirits', 'Wheelchair Accessible', 'Wine']",https://bcaletrail.ca/breweries/sherwood-mountain-brewhouse/,101 - 4816 Highway 16 W,N/A,V8G 1L6,BC,2506350080,http://sherwoodmountain.beer,"['https://twitter.com/SherwoodMtn', 'https://www.facebook.com/SherwoodMountainBrewhouse', 'https://www.instagram.com/sherwoodmountainbeer/', 'https://untappd.com/w/sherwood-mountain-brewhouse/175106']",Canada
Shore Line Brewing,Kelowna,"['Bike Racks', 'Call in or Order Online', 'Cask Beer', 'Cider', 'Cocktails', 'Dog Friendly Zone', 'Experience', 'Family Friendly', 'GF Food Options', 'Growler Fills', 'Has Tours', 'Keg Sales/Rentals', 'Merchandise', 'Online Ordering - Local Delivery', 'Online Shopping - Gift Cards', 'Online Shopping - Merch', 'Patio', 'Shopping', 'Videogames', 'Wine']",https://bcaletrail.ca/breweries/shore-line-brewing/,Lakeshore Road,#116-3477,V1W 0A7,BC,7789406802,https://www.shorelinebrewing.com/,"['https://www.facebook.com/shorelinebrewingco/', 'https://www.instagram.com/shorelinebrewingco/', 'https://untappd.com/ShoreLineBrewingCo#']",Canada
Sidekick Brewing,Chilliwack,"['All Weather Patio', 'Baby Change Table (gender neutral washroom)', 'Beer Service', 'Bike Racks', 'Board Games', 'Brewpub', 'Call in or Order Online', 'Cider', 'Coffee', 'Craft Sodas', 'Delivery through Skip the Dishes and Uber Eats', 'Dog Friendly Zone', 'Events', 'Family Friendly', 'Gender Neutral Washrooms', 'GF Food Options', 'Good Night Out training', 'Growler Fills', 'Keg Sales/Rentals', 'Live Music', 'Merchandise', 'Non Alc Beer Available', 'Online Ordering - Local Delivery', 'Online Shopping - Gift Cards', 'Patio', 'Safe Space Signage', 'Snacks', 'Staff has completed Good Night Out training', 'Take-Out', 'Wheelchair Accessible', 'Wine']",https://bcaletrail.ca/breweries/sidekick-brewing/,Vedder Mountain Rd,#106 - 45530,V2R 4C3,BC,6048472023,https://www.sidekickbrewing.com/,"['https://www.facebook.com/SidekickBrewingBC', 'https://www.instagram.com/sidekickbrewingbc/']",Canada
Silverstar Brewing Company,Vernon,"['Baby Change Table (gender neutral washroom)', ""Baby Change Table (women's washroom)"", 'Bike Racks', 'Board Games', 'Brewpub', 'Cider', 'Cocktails', 'Craft Sodas', 'Crowlers', 'Dog Friendly Patio', 'Family Friendly', 'GF Food Options', 'Growler Fills', 'Guest Taps', 'Has Tours', 'Keg Sales/Rentals', 'Kombucha', 'Live Music', 'Merchandise', 'Non Alc Beer Producer', 'Patio', 'Spirits', 'Wheelchair Accessible', 'Wine']",https://bcaletrail.ca/breweries/silverstar-brewing-company/,2933 30th Ave,N/A,V1T 2B8,BC,7784755115,https://silverstarbrewing.com/,"['https://www.facebook.com/silverstarbrewing', 'https://www.instagram.com/silverstarbrewing/']",Canada
Slackwater Brewing,Penticton,[''],https://bcaletrail.ca/breweries/slackwater-brewing/,218 Martin Street - PRODUCTION FACILITY ONLY,N/A,V2A 5K3,BC,N/A,http://www.slackwaterbrewing.com,"['https://www.facebook.com/slackwaterbrewing', 'https://www.instagram.com/slackwaterbrewing', 'https://untappd.com/SlackwaterBrewing']",Canada
Slow Hand Beer Co.,Vancouver,"['Bike Racks', 'Cider', 'Craft Sodas', 'Delivery from Local Restaurants Available', 'Dog Friendly Patio', 'Family Friendly', 'Gender Neutral Washrooms', 'Keg Sales/Rentals', 'Kombucha', 'Merchandise', 'Non Alc Beer Available', 'Patio', 'Snacks', 'Wine']",https://bcaletrail.ca/breweries/slow-hand-beer/,1830 Powell St,N/A,V5L 1H9,BC,7788192252,https://www.slowhandbeer.com/,"['https://www.facebook.com/slowhandbeer', 'https://www.instagram.com/slowhandbeer/', 'https://untappd.com/SHBCo']",Canada
Small Gods Brewing,Sidney,"['Beer Service', 'Bike Racks', 'Brewpub', 'Cider', 'Cocktails', ""Code of Conduct on Brewery's Website"", 'Craft Sodas', 'Dog Friendly Zone', 'Experience', 'Family Friendly', 'Food Service', 'Gender Neutral Washrooms', 'Keg Sales/Rentals', 'Merchandise', 'Non Alc Beer Available', 'Patio', 'Wheelchair Accessible', 'Wine']",https://bcaletrail.ca/breweries/small-gods-brewing-co/,9835 Third Street,N/A,N/A,BC,N/A,https://smallgods.ca/,"['https://twitter.com/SmallGodsBrew', 'https://www.facebook.com/smallgodsbrewing', 'https://www.instagram.com/smallgodsbrewing/?hl=en']",Canada
Smithers Brewing Company,Smithers,"['Beer Service', 'Experience', 'Family Friendly', 'Food Service', 'Growler Fills', 'Has Tours', 'Merchandise', 'Snacks']",https://bcaletrail.ca/breweries/smithers-brewing/,3832 3 Ave,N/A,V0J 2N0,BC,7786402739,https://www.smithersbrewing.com,"['https://www.facebook.com/smithersbrewing/', 'https://www.instagram.com/smithersbrewing/', 'https://untappd.com/SmithersBrewingCo']",Canada
Smugglers Trail Caskworks,Langley,"['All Weather Patio', 'Baby Change Table (gender neutral washroom)', 'Bike Racks', 'Board Games', 'Brewpub', 'Canada Post delivery across BC', 'Cask Beer', 'Cider', 'Cocktails', 'Craft Sodas', 'Dog Friendly Patio', 'Educational events', 'Family Friendly', 'Gender Neutral Washrooms', 'Growler Fills', 'Guest Taps', 'Has Tours', 'Keg Sales/Rentals', 'Kombucha', 'Live Music', 'Merchandise', 'Online Ordering - Local Delivery', 'Online Shopping - Gift Cards', 'Online Shopping - Merch', 'Patio', 'Safe Space Signage', 'Spirits', 'Wheelchair Accessible', 'Wine']",https://bcaletrail.ca/breweries/smugglers-trail-caskworks/,140 - 9339 200A St,N/A,V1M 0B3,BC,7787051880,https://smugglerstrailcask.com/,"['https://twitter.com/smugglerstrail', 'https://www.facebook.com/smugglers.trail.beer/', 'https://www.instagram.com/smugglerstrail/', 'https://untappd.com/smugglerstrail']",Canada
Sooke Brewing Company,Sooke,"['Barrels', 'Crowlers', 'Delivery from Local Restaurants Available', 'Food Truck(s)', 'Growler Fills', 'Merchandise']",https://bcaletrail.ca/breweries/sooke-brewing-company/,2057 Otter Point Road,N/A,N/A,BC,2506420106,http://sookebrewing.com,"['https://twitter.com/SookeBrewingCo', 'https://www.facebook.com/sookebrewing/', 'https://www.instagram.com/sookebrewing/', 'https://untappd.com/SookeBrewingCompany']",Canada
Sooke Oceanside Brewery,Sooke,"['Cider', 'Food Truck(s)', 'Growler Fills', 'Keg Sales/Rentals', 'Merchandise', 'Wine']",https://bcaletrail.ca/breweries/sooke-oceanside-brewery/,5871 - A Sooke Road,N/A,V9Z 0C7,BC,7783522739,http://sookeoceansidebrewery.com,"['https://twitter.com/sookebrew', 'https://www.facebook.com/sookebrew/', 'https://www.instagram.com/Sookebrew/', 'https://untappd.com/SookeOceansideBrewery']",Canada
Spinnakers Brewpub,Victoria,"['Barrels', 'Brewpub', 'Cask Beer', 'Cider', 'Cider Production', 'Distilling', 'Family Friendly', 'Growler Fills', 'Has Tours', 'Hotel', 'Merchandise', 'Wine']",https://bcaletrail.ca/breweries/spinnakers-brewpub/,308 Catherine St,N/A,V9A 3S8,BC,2503862739,http://spinnakers.com,"['https://twitter.com/spinnakers', 'https://www.facebook.com/spinnakersbrewpub/', 'https://www.instagram.com/spinnakersbrewpub/', 'https://untappd.com/Spinnakers']",Canada
Steamworks Brew Pub,Vancouver,"['Beer Service', 'Brewpub', 'Experience', 'Family Friendly', 'Food Service', 'GF Food Options', 'Patio', 'Wheelchair Accessible']",https://bcaletrail.ca/breweries/steamworks-brewpub/,375 Water St,N/A,N/A,BC,6046892739,http://steamworks.com/brew-pub,"['https://www.facebook.com/Steamworks/', 'https://www.instagram.com/steamworksbrewpub/', 'https://untappd.com/v/steamworks-brewing-company/22757']",Canada
Steamworks Brewing Co – Burnaby Brewery & Taproom,Burnaby,"['Baby Change Table (gender neutral washroom)', 'Bike Racks', 'Board Games', 'Cask Beer', 'Cider', 'Craft Sodas', 'Dog Friendly Zone', 'Family Friendly', 'Food Truck(s)', 'Gender Neutral Washrooms', 'Growler Fills', 'Keg Sales/Rentals', 'Merchandise', 'Non Alc Beer Available', 'Online Shopping - Gift Cards', 'Online Shopping - Merch', 'Patio', 'Picnic Area Outside', 'Wheelchair Accessible', 'Wine']",https://bcaletrail.ca/breweries/steamworks-brewing-co/,3845 William St,N/A,V5C 3J1,BC,N/A,https://steamworks.com/the-brewery/,"['https://www.facebook.com/steamworksbeer/', 'https://www.instagram.com/steamworksbeer/', 'https://untappd.com/steamworks']",Canada
Steel & Oak Brewing,New Westminster,"['Barrels', 'Beer Service', 'Canada Post delivery across BC', 'Cider', 'Family Friendly', 'Growler Fills', 'Merchandise', 'Shopping', 'Snacks', 'Take-Out']",https://bcaletrail.ca/breweries/steel-oak-brewing-co/,1319 3rd Ave,N/A,V3M 1R2,BC,6045406495,http://steelandoak.ca,"['https://twitter.com/steelandoak', 'https://www.facebook.com/steelandoak/', 'https://www.instagram.com/steelandoak/', 'https://untappd.com/SteelAndOak']",Canada
Storm Brewing,Vancouver,"['Barrels', 'Family Friendly', 'Growler Fills', 'Keg Sales/Rentals', 'Merchandise']",https://bcaletrail.ca/breweries/storm-brewing-ltd/,310 Commercial Dr,N/A,V5L 1T1,BC,6042559119,http://stormbrewing.org,"['https://twitter.com/stormbrewingvan', 'https://www.facebook.com/stormbrewing/', 'https://www.instagram.com/stormbrewing/', 'https://untappd.com/w/storm-brewing-british-columbia/1210']",Canada
Strange Fellows Brewing,Vancouver,"['Barrels', 'Cider', 'Cider Production', 'Family Friendly', 'Growler Fills', 'Has Tours', 'Merchandise', 'Non Alc Beer Producer', 'Shopping', 'Snacks', 'Take-Out']",https://bcaletrail.ca/breweries/strange-fellows-brewing/,1345 Clark Dr,N/A,V5L 3K8,BC,6042150092,http://strangefellowsbrewing.com,"['https://twitter.com/Strange_Fellows', 'https://www.facebook.com/strangefellowsbrewing/', 'https://www.instagram.com/strangefellowsbrewing/', 'https://untappd.com/StrangeFellowsBrewing']",Canada
Strathcona Beer Co.,Vancouver,"['Brewpub', 'Family Friendly', 'Growler Fills', 'Merchandise', 'Restaurant Connected']",https://bcaletrail.ca/breweries/strathcona-beer-company/,895 E Hastings St,N/A,V6A 3Y1,BC,7783799050,http://strathconabeer.com,"['https://twitter.com/strathconabeer', 'https://www.facebook.com/strathconabeer/', 'https://www.instagram.com/strathconabeer/', 'https://untappd.com/w/strathcona-beer-company/283978']",Canada
Superflux Beer Co.,Vancouver,"['Take-Out', 'Tasting Room Kitchen']",https://bcaletrail.ca/breweries/superflux-beer-co/,505 Clark Dr,N/A,V5L 3H7,BC,N/A,https://www.superfluxbeer.com/,"['https://www.instagram.com/superfluxbeer/', 'https://untappd.com/SuperfluxBeerCompany']",Canada
Swift Brewing,Victoria,"['Brewpub', 'Cider', 'Cocktails', 'Dog Friendly Patio', 'Dog Friendly Zone', 'Experience', 'Gender Neutral Washrooms', 'Guest Taps', 'Has Tours', 'Merchandise', 'Non Alc Beer Available', 'Patio', 'Snacks', 'Videogames', 'Wheelchair Accessible', 'Wine']",https://bcaletrail.ca/breweries/swift-brewing/,450 Swift St,N/A,V8W 1S3,BC,N/A,http://swiftbrewing.ca,"['https://www.facebook.com/SwiftBeer', 'https://www.instagram.com/swiftbeer/', 'https://untappd.com/w/swift-brewing/541900']",Canada
Switchback Brewing,Maple Ridge,"['Food Truck(s)', 'Growler Fills', 'Merchandise', 'Shopping', 'Snacks', 'Take-Out']",https://bcaletrail.ca/breweries/switchback-brewing/,22775 Dewdney Trunk Rd,N/A,V2X 3K4,BC,6044790999,https://www.switchbackbrewco.com/,"['https://www.facebook.com/profile.php?id=61558280696857', 'https://www.instagram.com/switchbackbrewingcanada/']",Canada
Tailout Brewing,Trail,"['Baby Change Table (gender neutral washroom)', 'Bike Racks', 'Brewpub', 'Cider', 'Cocktails', 'Dog Friendly Zone', 'Family Friendly', 'Food Truck(s)', 'Gender Neutral Washrooms', 'Growler Fills', 'Hotel', 'Keg Sales/Rentals', 'Non Alc Beer Available', 'Patio', 'Spirits', 'Wheelchair Accessible', 'Wine']",https://bcaletrail.ca/breweries/tailout-brewing/,1299 Bay Avenue,N/A,V1R 4A5,BC,2506089056,http://www.tailoutbrewing.com,"['https://www.facebook.com/tailoutbrewing/', 'https://www.instagram.com/tailoutbrewing/', 'https://untappd.com/TailoutBrewing']",Canada
Tapworks Brewing Company,Gibsons,"['Beer Service', 'Brewpub', 'Cider', 'Craft Sodas', 'Dog Friendly Zone', 'Experience', 'Family Friendly', 'Food Service', 'Gender Neutral Washrooms', 'GF Food Options', 'Growler Fills', 'Has Tours', 'Keg Sales/Rentals', 'Live Music', 'Merchandise', 'Patio', 'Picnics', 'Shopping', 'Take-Out', 'Tasting Room Kitchen', 'Videogames', 'What Else?', 'Wheelchair Accessible', 'Wine']",https://bcaletrail.ca/breweries/tapworks-brewing-company/,537 Cruice Lane,N/A,V0N 1V9,BC,7784622337,http://www.gibsonstapworks.com/delivery,"['https://twitter.com/tapworksbrewing', 'https://www.facebook.com/tapworksbrewing/', 'http://www.instagram.com/tapworksbrewing', 'https://untappd.com/w/gibsons-tapworks-brewing/320257']",Canada
Taylight Brewing,Port Coquitlam,"['All Weather Patio', 'Bike Racks', 'Board Games', 'Cider', 'Craft Sodas', 'Delivery from Local Restaurants Available', 'Delivery through Skip the Dishes and Uber Eats', 'Dog Friendly Patio', 'Family Friendly', 'Food Truck(s)', 'Gender Neutral Washrooms', 'Gluten-Free Beer', 'Growler Fills', 'Keg Sales/Rentals', 'Live Music', 'Merchandise', 'Non Alc Beer Available', 'Non Alc Beer Producer', 'Picnic Area Outside', 'Safe Space Signage', 'Snacks', 'Spirits', 'Wheelchair Accessible', 'Wine']",https://bcaletrail.ca/breweries/taylight-brewing/,402 - 1485 Coast Meridian Road,N/A,V3C 5P1,BC,6042831944,http://taylightbrewing.com/,"['https://www.facebook.com/taylightbrewing/', 'https://www.instagram.com/taylight_brewing', 'https://untappd.com/Taylight_Brewing']",Canada
Three Lakes Brewing,Kelowna,"['Accessibility & Inclusion', 'Beer Service', 'Cider', 'Experience', 'Family Friendly', 'Food Service', 'Growler Fills', 'Guest Taps', 'Has Tours', 'Keg Sales/Rentals', 'Non Alc Beer Available', 'Snacks', 'Tasting Room Kitchen', 'What Else?', 'Wheelchair Accessible', 'Wine']",https://bcaletrail.ca/breweries/three-lakes-brewing-co/,Matrix Crescent,#7 - 2030,V1V 0G5,BC,2508085430,https://threelakesbrewing.com/,"['https://www.facebook.com/threelakesbrewing', 'https://www.instagram.com/threelakesbrewing/']",Canada
Three Ranges Brewing Company,Valemount,"['Beer Service', 'Cider', 'Family Friendly', 'Food Truck(s)', 'Growler Fills', 'Keg Sales/Rentals', 'Merchandise', 'Shopping', 'Snacks', 'Take-Out', 'Wine']",https://bcaletrail.ca/breweries/three-ranges-brewing-company/,1160 5th Avenue,N/A,N/A,BC,2505660024,https://threeranges.com/,"['https://twitter.com/threeranges', 'https://www.facebook.com/ThreeRangesBrewingCompany/', 'https://www.instagram.com/threerangesbrewing/', 'https://untappd.com/ThreeRanges']",Canada
Tin Whistle Brewing,Penticton,"['Bike Racks', 'Board Games', 'Dog Friendly Patio', 'Family Friendly', 'Growler Fills', 'Keg Sales/Rentals', 'Merchandise', 'Non Alc Beer Available', 'Non Alc Beer Producer', 'Patio', 'Snacks']",https://bcaletrail.ca/breweries/tin-whistle-brewing-co/,1475 Fairview Rd,N/A,V2A 7W5,BC,2507701122,https://www.tinwhistlebrewery.com/,"['https://twitter.com/tinwhistlebrew', 'https://www.facebook.com/TinWhistleBrew/', 'https://www.instagram.com/thetinwhistle/', 'https://untappd.com/w/tin-whistle-brewing-company/6156']",Canada
Tinhouse Brewing,Port Coquitlam,"['Barrels', 'Family Friendly', 'Food Truck(s)', 'Gender Neutral Washrooms', 'Growler Fills', 'Live Music', 'Merchandise', 'Shopping', 'Take-Out', 'Videogames', 'Wheelchair Accessible']",https://bcaletrail.ca/breweries/tinhouse-brewing/,Sherling Place,#2140-550,V3B 0J6,BC,6044743434,http://www.tinhousebrewing.ca/,"['https://twitter.com/tinhousebrewing', 'https://www.facebook.com/TinHouseBrewing', 'https://www.instagram.com/tinhousebrewing']",Canada
Tofino Brewing,Tofino,"['Family Friendly', 'Food Truck(s)', 'Growler Fills', 'Merchandise', 'Patio', 'Tasting Room Kitchen']",https://bcaletrail.ca/breweries/tofino-brewing/,691 Industrial Way,N/A,V0R 2Z0,BC,2507252899,http://tofinobrewingco.com,"['https://twitter.com/TofinoBrewCo', 'https://www.facebook.com/TofinoBrewCo/', 'https://www.instagram.com/tofinobrewco/', 'https://untappd.com/TofinoBrewingCompany']",Canada
Torchlight Brewing,Nelson,"['Barrels', 'Board Games', 'Brewpub', 'Cider', 'Cocktails', 'Family Friendly', 'GF Food Options', 'Growler Fills', 'Merchandise', 'Shopping', 'Wine']",https://bcaletrail.ca/breweries/torchlight-brewing-co/,125 Hall Street,N/A,V1L 7B4,BC,2503520094,http://www.torchlightbrewing.com/,"['https://twitter.com/Brew_Torchlight', 'https://www.facebook.com/brewtorchlight/', 'https://www.instagram.com/torchlightbrewing', 'https://untappd.com/TorchlightBrewingCompany']",Canada
Townsite Brewing,Powell River,"['Barrels', 'Beer Service', 'Cider', 'Family Friendly', 'Growler Fills', 'Has Tours', 'Keg Sales/Rentals', 'Merchandise', 'Shopping', 'Snacks', 'Take-Out']",https://bcaletrail.ca/breweries/townsite-brewing/,5824 Ash Ave,N/A,V8A 4R4,BC,6044832111,http://townsitebrewing.com/,"['https://twitter.com/townsitebrewing', 'https://www.facebook.com/townsitebrewing/', 'https://www.instagram.com/townsitebrewing/', 'https://www.untappd.com/TownsiteBrewing']",Canada
Trading Post Brewing,Langley,"['Barrels', 'Cider', 'Family Friendly', 'GF Food Options', 'Growler Fills', 'Has Tours', 'Live Music', 'Merchandise', 'Patio', 'Snacks', 'Take-Out', 'Tasting Room Kitchen', 'Wine']",https://bcaletrail.ca/breweries/trading-post-brewing/,Avenue,#107 - 20120 64,V2Y 1M7,BC,6043432337,http://tradingpostbrewing.com,"['https://twitter.com/tradingpostbrew', 'https://www.facebook.com/TradingPostBrewing/', 'https://www.instagram.com/tradingpostbrewing/', 'https://untappd.com/TradingPostBrewing']",Canada
Trench Brewing & Distilling,Prince George,"['Distilling', 'Experience', 'Family Friendly', 'Food Service', 'Growler Fills', 'Has Tours', 'Merchandise', 'Snacks', 'What Else?']",https://bcaletrail.ca/breweries/trench-brewing-distilling/,399 2nd Ave,N/A,N/A,BC,2364230065,http://www.trenchbrew.ca,"['https://twitter.com/trenchbrewing', 'https://www.facebook.com/trenchbrew/', 'https://www.instagram.com/trenchbrewing/', 'https://untappd.com/TrenchBrew']",Canada
Twa Dogs Brewery at Macaloney’s Island Distillery,Victoria,"['All Weather Patio', 'Bike Racks', 'Board Games', 'Craft Sodas', 'Distilling', 'Dog Friendly Patio', 'Educational events', 'Family Friendly', 'Gluten-Free Beer', 'Growler Fills', 'Guest Taps', 'Has Tours', 'Keg Sales/Rentals', 'Live Music', 'Merchandise', 'Online Shopping - Merch', 'Snacks', 'Spirits', 'Tasting Room Kitchen']",https://bcaletrail.ca/breweries/twa-dogs-brewery/,761 Enterprise Crescent,N/A,N/A,BC,7784010410,https://macaloneydistillers.com/lounge/,"['https://www.facebook.com/twadogsbrewery', 'https://www.instagram.com/twadogsbrewery/', 'https://untappd.com/TwaDogsBeer']",Canada
Twin City Brewing Co,Port Alberni,"['Brewpub', 'Events', 'Family Friendly', 'Food Service', 'Gender Neutral Washrooms', 'Growler Fills', 'Live Music', 'Merchandise', 'Pizza', 'Take-Out', 'Wheelchair Accessible']",https://bcaletrail.ca/breweries/twin-city-brewing-company/,4503 Margaret St,N/A,V9Y 6G8,BC,7784192739,http://twincitybrewing.ca,"['https://twitter.com/twincitybrewing', 'https://www.facebook.com/twincitybrew/', 'https://www.instagram.com/twincitybrewing/', 'https://untappd.com/TwinCityBrewing']",Canada
Twin Sails Brewing,Port Moody,"['Barrels', 'Family Friendly', 'Food Truck(s)', 'Growler Fills', 'Merchandise', 'Shopping', 'Snacks', 'Take-Out']",https://bcaletrail.ca/breweries/twin-sails-brewing/,2821 Murray St,N/A,V3H 1X3,BC,6044924234,http://twinsailsbrewing.com,"['https://twitter.com/TwinSailsBeer', 'https://www.facebook.com/TwinSailsBrewing/', 'https://www.instagram.com/twinsailsbeer/', 'https://untappd.com/TwinSailsBrewing']",Canada
Two Peaks Brewing,Kitimat,"['Beer Service', 'Cocktails', 'Experience', 'Food Service', 'Gender Neutral Washrooms', 'Growler Fills', 'Guest Taps', 'Keg Sales/Rentals', 'Patio', 'Restaurant Connected', 'What Else?', 'Wheelchair Accessible']",https://bcaletrail.ca/breweries/two-peaks-brewing/,578 Mountainview Sq,N/A,V8C 1T5,BC,7786312739,https://twopeaksbrewing.ca/,"['https://www.facebook.com/profile.php?id=100063740327983', 'https://www.instagram.com/twopeaksbrewing/']",Canada
Ucluelet Brewing,Ucluelet,"['Bike Racks', 'Board Games', 'Brewpub', 'Cider', 'Family Friendly', 'Gender Neutral Washrooms', 'GF Food Options', 'Growler Fills', 'Guest Taps', 'Keg Sales/Rentals', 'Kombucha', 'Live Music', 'Merchandise', 'Non Alc Beer Available', 'Patio', 'Snacks', 'Wheelchair Accessible', 'Wine']",https://bcaletrail.ca/breweries/ucluelet-brewing/,1601 Peninsula Rd,N/A,N/A,BC,2507260499,https://uclueletbrewing.ca/,"['https://twitter.com/BrewUkee', 'https://www.facebook.com/pg/brewukee', 'https://www.instagram.com/ucluelet_brewing_co/', 'https://untappd.com/UclueletBrewing']",Canada
Unleashed Brewing,Kelowna,"['Cider', 'Crowlers', 'Family Friendly', 'Growler Fills', 'Keg Sales/Rentals', 'Merchandise', 'Snacks', 'Wine']",https://bcaletrail.ca/breweries/unleashed-brewing/,207-880 Clement Ave,N/A,V1Y 0H8,BC,2507178817,https://unleashedbrewing.ca/,"['https://www.facebook.com/unleashedbrewingco/', 'https://www.instagram.com/unleashedbrewingco/']",Canada
Vancouver Island Brewing,Victoria,[''],https://bcaletrail.ca/breweries/vi-brewing/,2330 Government St,N/A,V8T 5G5,BC,25036210007,http://vibrewing.com/,"['https://twitter.com/vibrewing', 'https://www.facebook.com/vibrewing/', 'https://www.instagram.com/vibrewing/', 'https://untappd.com/vibrewing']",Canada
Way Back Brew Co.,Surrey,"['Accessibility & Inclusion', 'Beer Service', 'Craft Sodas', 'Food Service', 'Food Truck(s)', 'Gender Neutral Washrooms', 'Keg Sales/Rentals', 'What Else?', 'Wheelchair Accessible', 'Wine']",https://bcaletrail.ca/breweries/way-back-brew-co/,a,Unit116 - 15063 54,V3S 5X7,BC,N/A,https://www.waybackbrewco.com/,"['https://www.facebook.com/waybackbrewingco', 'https://www.instagram.com/waybackbrewco/']",Canada
Wheelhouse Brewing Company,Prince Rupert,"['Canada Post delivery across BC', 'Family Friendly', 'Food Truck(s)', 'Gluten-Free Beer', 'Growler Fills', 'Live Music', 'Merchandise', 'Online Ordering - Local Delivery', 'Shopping', 'Snacks', 'Take-Out']",https://bcaletrail.ca/breweries/wheelhouse-brewing-company/,380 Bill Murray Dr,N/A,V8J 4P5,BC,2506242739,https://www.wheelhousebrewing.com/,"['https://twitter.com/wheelhousebeer', 'https://www.facebook.com/wheelhousebrewing/', 'https://www.instagram.com/wheelhousebeer/', 'https://untappd.com/WheelhouseBrewingCompany']",Canada
Whistle Buoy Brewing,Victoria,"['All Weather Patio', 'Baby Change Table (gender neutral washroom)', 'Barrels', 'Bike Racks', 'Cider', 'Cocktails', ""Code of Conduct on Brewery's Website"", 'Craft Sodas', 'Dog Friendly Patio', 'Family Friendly', 'Gender Neutral Washrooms', 'Guest Taps', 'Kombucha', 'Merchandise', 'Non Alc Beer Producer', 'Online Shopping - Gift Cards', 'Online Shopping - Merch', 'Outside food permitted', 'Patio', 'Safe Space Signage', 'Snacks', 'Spirits', 'Wheelchair Accessible', 'Wine']",https://bcaletrail.ca/breweries/whistle-buoy-brewing-co/,Johnson St.,Unit63 - 560,V8W 3C6,BC,N/A,https://whistlebuoybrewing.com/,"['https://www.facebook.com/whistlebuoybrewing/', 'https://www.instagram.com/whistlebuoybrewing/', 'https://untappd.com/WhistleBuoyBrewingCo']",Canada
Whistler Brewing Company,Whistler,"['Brewpub', 'Family Friendly', 'Growler Fills', 'Has Tours', 'Merchandise']",https://bcaletrail.ca/breweries/whistler-brewing-co/,1045 Millar Creek Rd,N/A,V0N 1B1,BC,6049628889,http://whistlerbeer.com,"['https://twitter.com/whistlerbrewing', 'https://www.facebook.com/WhistlerBrewing/', 'https://www.instagram.com/whistlerbrewing/', 'https://untappd.com/WhistlerBrewing']",Canada
White Rock Beach Beer Co.,White Rock,"['Family Friendly', 'Growler Fills', 'Live Music', 'Merchandise', 'Patio', 'Restaurant Connected', 'Shopping', 'Snacks', 'Take-Out']",https://bcaletrail.ca/breweries/white-rock-beach-beer-company/,15181 Russell Ave,N/A,V4B 3Z6,BC,7788085416,http://whiterockbeachbeer.com,"['https://twitter.com/WRBeachBeer', 'https://www.facebook.com/White-Rock-Beach-Beer-Company-277772139071094/', 'https://www.instagram.com/WRBeachBeer/', 'https://untappd.com/w/white-rock-beach-beer-company/125603']",Canada
White Sails Brewing,Nanaimo,"['Accessibility & Inclusion', 'Beer Service', 'Cask Beer', 'Cider', 'Cocktails', 'Coffee', 'Craft Sodas', 'Experience', 'Family Friendly', 'Gender Neutral Washrooms', 'Growler Fills', 'Guest Taps', 'Has Tours', 'Keg Sales/Rentals', 'Kombucha', 'Live Music', 'Merchandise', 'Non Alc Beer Available', 'Patio', 'Snacks', 'Videogames', 'What Else?', 'Wheelchair Accessible', 'Wine']",https://bcaletrail.ca/breweries/white-sails-brewing/,125 Comox Rd,N/A,V9R 3H9,BC,2507542337,http://whitesailsbrewing.com,"['https://twitter.com/whitesailsbeer', 'https://www.facebook.com/whitesailsbrewing/', 'https://www.instagram.com/whitesailsbrewing/', 'https://untappd.com/WhiteSailsBrewing']",Canada
Whitetooth Brewing,Golden,"['Food Truck(s)', 'Growler Fills', 'Merchandise', 'Shopping', 'Snacks', 'Take-Out']",https://bcaletrail.ca/breweries/whitetooth-brewing-company-ltd/,623 8th Avenue North,N/A,N/A,BC,2503442838,http://whitetoothbrewing.com,"['https://twitter.com/whitetoothbrew', 'https://www.facebook.com/WhitetoothBrewing/', 'https://www.instagram.com/whitetoothbrew/', 'https://untappd.com/WhitetoothBrewing']",Canada
Wild Ambition Brewing,Kelowna,"['Barrels', 'Beer Service', 'Canada Post delivery across BC', 'Family Friendly', 'Has Tours']",https://bcaletrail.ca/breweries/wild-ambition-brewing/,1-3314 Appaloosa Rd,N/A,V1V 2W5,BC,N/A,https://wildambition.beer/,"['https://twitter.com/WildAmbitionBC', 'https://www.facebook.com/wildambitionbrewing/', 'https://www.instagram.com/wildambitionbrewing/', 'https://untappd.com/WildAmbitionBrewing']",Canada
Wild North Brewing Co,Creston,"['Cider', 'Delivery from Local Restaurants Available', 'Family Friendly', 'Food Truck(s)', 'Growler Fills', 'Has Tours', 'Keg Sales/Rentals', 'Patio', 'Snacks', 'Videogames', 'Wine']",https://bcaletrail.ca/breweries/wild-north-brewing/,125 16th Ave N,N/A,V0B 1G0,BC,2504318624,https://wildnorthbrewery.ca/,"['https://www.facebook.com/wildnorthbrewingco/', 'https://www.instagram.com/wildnorthbrewing/', 'https://untappd.com/WildNorthBrewingCo']",Canada
Wildeye Brewing,North Vancouver,"['Brewpub', 'Cider', 'Family Friendly', 'Food Service', 'Growler Fills', 'Has Tours', 'Keg Sales/Rentals', 'Kombucha', 'Margaritas', 'Non Alc Beer Available', 'Online Shopping - Gift Cards', 'Shopping', 'Snacks', 'What Else?', 'Wine']",https://bcaletrail.ca/breweries/wildeye-brewing/,1385 Main Street,N/A,N/A,BC,6049881900,http://www.wildeyebrewing.ca/,"['https://www.facebook.com/wildeyebrewing/', 'https://www.instagram.com/wildeyebrewing', 'https://untappd.com/WildeyeBrewing']",Canada
Wolf Brewing Company,Nanaimo,"['All Weather Patio', 'Beer Service', 'Bike Racks', 'Board Games', 'Cask Beer', 'Cider', 'Cocktails', 'Delivery from Local Restaurants Available', 'Dog Friendly Zone', 'Events', 'Experience', 'Family Friendly', 'Gender Neutral Washrooms', 'Gluten-Free Beer', 'Growler Fills', 'Has Tours', 'Keg Sales/Rentals', 'Kombucha', 'Live Music', 'Merchandise', 'Non Alc Beer Available', 'Patio', 'Pizza', 'Tasting Room Kitchen', 'Videogames', 'Wheelchair Accessible', 'Wine']",https://bcaletrail.ca/breweries/wolf-brewing-company/,940 Old Victoria Rd,N/A,V9R 6Z8,BC,2507162739,http://wolfbrewingcompany.com,"['https://www.facebook.com/Wolf.Nanaimo/', 'https://www.instagram.com/wolfbrewingcompany/', 'https://untappd.com/w/wolf-brewing/11376']",Canada
Yaletown Brewing,Vancouver,"['Brewpub', 'Family Friendly', 'Growler Fills']",https://bcaletrail.ca/breweries/yaletown-brewing-co/,1111 Mainland St,N/A,V6B 2T9,BC,6046812739,http://www.mjg.ca/yaletown/,"['https://www.facebook.com/YBC-Yaletown-Brewing-Company-Official-Page-61928961678/', 'https://www.instagram.com/yaletownbrewingco/', 'https://untappd.com/w/yaletown-brewing-company/1381']",Canada
Yellow Dog Brewing,Port Moody,"['Barrels', 'Family Friendly', 'Food Truck(s)', 'Growler Fills', 'Merchandise', 'Online Shopping - Gift Cards', 'Online Shopping - Merch', 'Picnics', 'Snacks']",https://bcaletrail.ca/breweries/yellow-dog-brewing/,1,2817 Murray St #,V3H 1X3,BC,6044920191,http://yellowdogbeer.com,"['https://twitter.com/yellowdogbeer', 'https://www.facebook.com/YellowDogBeer/', 'https://www.instagram.com/yellowdogbeer/', 'https://untappd.com/YellowDogBrewingCo']",Canada
Yellow Dog Brewing Penticton,Penticton,"['Cocktails', 'Dog Friendly Zone', 'Experience', 'Food Service', 'Patio', 'Spirits', 'Tasting Room Kitchen']",https://bcaletrail.ca/breweries/yellow-dog-brewing-penticton/,169 Estabrook Ave,N/A,V2A 1G2,BC,N/A,https://yellowdogbeer.com/penticton-tasting-room/,"['https://www.facebook.com/YellowDogBeer', 'https://www.instagram.com/yellowdogbeer/', 'https://untappd.com/YellowDogBrew']",Canada
