name,city,brewery_type,url,address,postal_code,state_province,phone,website_url,social_media,country
101 Brewhouse + Distillery,Gibsons,"['Brewpub', 'Cider', 'Growler Fills', 'Live Music', 'Merchandise', 'Wine']",https://bcaletrail.ca/breweries/101-brewhouse-distillery/,1009 Gibsons Way,V0N 1V7,BC,7784622011,https://the101.ca/,"['https://twitter.com/The101Gibsons', 'https://www.facebook.com/pg/The101Gibsons', 'https://www.instagram.com/the101gibsons/', 'https://untappd.com/w/101-brewhouse-distillery/357883']",Canada
3 Dogs Brewing,White Rock,"['Board Games', 'Growler Fills', 'Live Music', 'Merchandise', 'Snacks']",https://bcaletrail.ca/breweries/3-dogs-brewing/,107 - 15181 Thrift Avenue,V4B 0C1,BC,6043851364,http://www.3dogsbrewing.com,"['https://twitter.com/3Dogs_Brewing', 'https://www.facebook.com/3dogsbrewingofficial/', 'https://www.instagram.com/3dogsbrewing/', 'https://untappd.com/3_Dogs_Brewing']",Canada
33 Acres Brewing Company,Vancouver,"['Food Truck(s)', 'Growler Fills', 'Merchandise', 'Patio']",https://bcaletrail.ca/breweries/33-acres-brewing-co/,15 W 8th Ave,V5Y 1M8,BC,6046204589,https://33acresbrewing.com/,"['https://www.facebook.com/33acresbrewing/', 'https://www.instagram.com/33acresbrewing/', 'https://untappd.com/w/33-acres-brewing-co/71017']",Canada
33 Brewing Experiment,Vancouver,"['Cider', 'Food Truck(s)', 'Growler Fills', 'Merchandise', 'Snacks']",https://bcaletrail.ca/breweries/33-brewing-experiment/,25 W 8th Ave,V5Y 1M8,BC,6046204589,https://33brewingexp.com/,"['https://www.facebook.com/33brewingexp/', 'https://www.instagram.com/33brewingexp/', 'https://untappd.com/w/33-brewing-experiment/405524']",Canada
4 Mile Brewing,Victoria,"['Brewpub', 'Growler Fills', 'Merchandise', 'Wine']",https://bcaletrail.ca/breweries/4-mile-brewing-co/,199 Island Hwy,V9B 1G2,BC,2504792514,http://4milebrewingco.com,"['https://www.facebook.com/4milebrewingco/', 'https://untappd.com/4MileBrewing']",Canada
A-FRAME Brewing,Squamish,"['Cider', 'Cocktails', 'Craft Sodas', 'Food Truck(s)', 'GF Food Options', 'Growler Fills', 'Live Music', 'Merchandise', 'Snacks', 'Wheelchair Accessible', 'Wine']",https://bcaletrail.ca/breweries/a-frame-brewing-co/,1 - 38927 Queens Way,N/A,BC,6048920777,http://aframebrewing.com,"['https://twitter.com/aframebrewing', 'https://www.facebook.com/aframebrewing', 'https://www.instagram.com/aframebrewing', 'https://untappd.com/AFrameBrewingCompany']",Canada
Abandoned Rail Brewing Co,Penticton,"['Bike Racks', 'Board Games', 'Brewpub', 'Cider', 'Cocktails', 'Dog Friendly Patio', 'GF Food Options', 'Growler Fills', 'Guest Taps', 'Merchandise', 'Non Alc Beer Available', 'Patio', 'Snacks', 'Spirits', 'Wheelchair Accessible', 'Wine']",https://bcaletrail.ca/breweries/abandoned-rail-brewing/,1220 Davenport Ave,V2A 8V1,BC,7784767704,https://www.arbrewco.com/,"['https://www.facebook.com/profile.php?id=61557457193019', 'https://www.instagram.com/abandonedrailbrewco/', 'https://untappd.com/AbandonedRailBrewing']",Canada
Ace Brewing,Courtenay,"['Growler Fills', 'Live Music', 'Snacks']",https://bcaletrail.ca/breweries/ace-brewing/,150 Mansfield Drive,V9N 6C5,BC,2503381182,https://acebrewing.ca/,"['https://twitter.com/AceBrewery', 'https://www.facebook.com/pg/acebrewingcompany', 'https://www.instagram.com/acebrewingcompany/', 'https://untappd.com/AceBrewingCompany']",Canada
Alberni Brewing Co.,Port Alberni,"['Brewpub', 'Cider', 'Growler Fills', 'Merchandise', 'Patio', 'Wine']",https://bcaletrail.ca/breweries/alberni-brewing-co/,4630 Adelaide Street,V9Y 6N4,BC,7787448010,https://albernibrewingcompany.ca/,"['https://www.facebook.com/AlberniBrewingCompany', 'https://www.instagram.com/albernibrewing/', 'https://untappd.com/AlberniBrewing']",Canada
Angry Hen Brewing,Kaslo,"['Growler Fills', 'Merchandise', 'Patio', 'Snacks']",https://bcaletrail.ca/breweries/angry-hen-brewing/,343 Front Street,V0G 1M0,BC,2503537446,http://angryhenbrewing.com,"['https://www.facebook.com/angryhenbrewing/', 'https://www.instagram.com/angryhenbrewing/', 'https://untappd.com/AngryHenBrewing']",Canada
Another Beer Co,New Westminster,['Snacks'],https://bcaletrail.ca/breweries/another-beer-co/,#11 - 30 Capilano Way,V3L 5M3,BC,7782329112,http://www.anotherbeerco.com/store,"['https://twitter.com/anotherbeerco', 'https://www.facebook.com/anotherbeerco/', 'https://www.instagram.com/anotherbeerco/', 'https://untappd.com/w/another-beer-company/396668']",Canada
Arrowhead Brewing Company,Invermere,"['Board Games', 'Cider', 'Dog Friendly Patio', 'Food Truck(s)', 'Growler Fills', 'Live Music', 'Merchandise', 'Non Alc Beer Available', 'Patio', 'Snacks', 'Wheelchair Accessible', 'Wine']",https://bcaletrail.ca/breweries/arrowhead-brewing-company/,481 Arrow Road,V0A 1K2,BC,7785262739,http://arrowheadbrewingcompany.ca,"['https://www.facebook.com/arrowheadbrew', 'https://www.instagram.com/arrowheadbrew/']",Canada
Backcountry Brewing,Squamish,"['Brewpub', 'Cider', 'Growler Fills', 'Live Music', 'Merchandise', 'Wine']",https://bcaletrail.ca/breweries/backcountry-brewing/,405-1201 Commercial Place,N/A,BC,6045672739,http://www.backcountrybrewing.com,"['https://twitter.com/Backcountry604', 'https://www.facebook.com/backcountrybrewing/', 'https://www.instagram.com/backcountrybrewing/', 'https://untappd.com/w/backcountry-brewing/332875']",Canada
Backroads Brewing Company,Nelson,"['Growler Fills', 'Merchandise', 'Snacks']",https://bcaletrail.ca/breweries/backroads-brewing-company/,460 Baker St,V1L 4H7,BC,7784633361,http://backroadsbrewing.com,"['https://twitter.com/backroadsbrews', 'https://www.facebook.com/backroadsbrews/', 'https://www.instagram.com/backroadsbrewing/', 'https://untappd.com/BackroadsBrewingCo']",Canada
Backroads Brewing – Osoyoos,Osoyoos,"['Bike Racks', 'Cider', 'Cocktails', 'Craft Sodas', 'Non Alc Beer Available', 'Patio', 'Videogames', 'Wheelchair Accessible', 'Wine']",https://bcaletrail.ca/breweries/backroads-brewing-co-osoyoss/,15 Park Place,V0H 1V0,BC,N/A,https://backroadsbrewing.com/,"['https://twitter.com/backroadsbrews', 'https://www.facebook.com/backroadsbrews', 'https://www.instagram.com/backroadsbrewing/', 'https://untappd.com/BackroadsBrewingCo']",Canada
Bad Dog Brewing,Sooke,"['Growler Fills', 'Merchandise', 'Snacks', 'Wheelchair Accessible']",https://bcaletrail.ca/breweries/bad-dog-brewing/,7861 Tugwell Rd,V9Z 0J7,BC,2506423621,http://www.baddogbrewing.ca,"['https://www.facebook.com/sookebaddogbrewing/', 'https://www.instagram.com/baddogbrewingco/']",Canada
Barkerville Brewing,Quesnel,"['Growler Fills', 'Merchandise', 'Snacks']",https://bcaletrail.ca/breweries/barkerville-brewing-co/,185 Davie St,V2J 2S8,BC,7784142739,https://barkervillebeer.com,"['https://twitter.com/BarkervilleBeer', 'https://www.facebook.com/BarkervilleBeer/', 'https://www.instagram.com/barkervillebeer/', 'https://untappd.com/BarkervilleBrewingCo']",Canada
Barley Mill Brew Pub,Penticton,"['Bike Racks', 'Board Games', 'Brewpub', 'Cider', 'Cocktails', 'Dog Friendly Patio', 'GF Food Options', 'Growler Fills', 'Live Music', 'Merchandise', 'Non Alc Beer Available', 'Patio', 'Snacks', 'Spirits', 'Wine']",https://bcaletrail.ca/breweries/barley-mill-brew-pub-bistro/,2460 Skaha Lake Rd,V2A 6E9,BC,2504938000,http://barleymillpub.com,"['https://twitter.com/barleymillbrew', 'https://www.facebook.com/Barley.Mill.Pub.Penticton/', 'https://www.instagram.com/barleymillpubpenticton/', 'https://untappd.com/w/barley-mill-brew-pub-british-columbia/34072']",Canada
Barley Station Brew Pub,Salmon Arm,"['Brewpub', 'GF Food Options', 'Growler Fills', 'Live Music', 'Merchandise']",https://bcaletrail.ca/breweries/barley-station-brew-pub/,20 Shuswap St S,V1E 1G1,BC,2508320999,http://barleystation.com,"['https://www.facebook.com/BarleyStationBrewPub/', 'https://www.instagram.com/barleystation/', 'https://untappd.com/w/barley-station-brew-pub-shuswap-lake-brewing-company/3035']",Canada
Barn Owl Brewing,Kelowna,"['Cider', 'Growler Fills', 'Wine']",https://bcaletrail.ca/breweries/barn-owl-brewing/,#102 - 4629 Lakeshore Rd,V1W 1X3,BC,7787609349,https://www.barnowlbrewing.ca/,"['https://www.facebook.com/pages/category/Brewery/Barn-Owl-Brewing-Company-1198749453615387/', 'https://www.instagram.com/barnowlbrew/', 'https://untappd.com/Barn_Owl_Brewing']",Canada
Barnside Brewing,Delta,"['Brewpub', 'Cider', 'Craft Sodas', 'GF Food Options', 'Growler Fills', 'Patio', 'Wheelchair Accessible', 'Wine']",https://bcaletrail.ca/breweries/barnside-brewing-co/,6655 60th Ave,V4K4E2,BC,7784342264,http://www.barnsidebrewing.ca,"['https://www.facebook.com/barnsidebrewing', 'http://www.instagram.com/barnsidebrewing', 'https://untappd.com/BarnsideBrewingCo']",Canada
Batch 44 Brewery & Kitchen,Sechelt,"['Brewpub', 'GF Food Options', 'Growler Fills', 'Wine']",https://bcaletrail.ca/breweries/batch-44-brewery-kitchen/,5559 Wharf Ave,V0N 3A0,BC,6047403805,https://www.batch44brewery.com/,"['https://www.facebook.com/pages/Batch-44-Brewery/102447004669676', 'https://www.instagram.com/batch44brewery/', 'https://untappd.com/w/batch-44-brewery/458038']",Canada
Bayview Brewing Company,Ladysmith,"['Bike Racks', 'Brewpub', 'Cider', 'Craft Sodas', 'Dog Friendly Patio', 'GF Food Options', 'Gluten-Free Beer', 'Growler Fills', 'Guest Taps', 'Merchandise', 'Non Alc Beer Available', 'Wheelchair Accessible', 'Wine']",https://bcaletrail.ca/breweries/bayview-brewing-co/,204 Dogwood Drive,V9G 1S8,BC,2509120166,N/A,"['https://www.facebook.com/bayviewbrewingcompany/', 'https://www.instagram.com/bayviewbrewing/', 'http://www.untappd.com/bayviewbrewing']",Canada
Beach Fire Brewing,Campbell River,"['Brewpub', 'Cider', 'Craft Sodas', 'Growler Fills', 'Live Music', 'Merchandise', 'Wine']",https://bcaletrail.ca/breweries/beach-fire-brewing/,594 11 Ave,V9W 4G4,BC,2509143473,http://www.beachfirebrewing.ca/,"['https://twitter.com/beachfirebrew', 'https://www.facebook.com/beachfirebrewing/', 'https://www.instagram.com/beachfirebrewing/', 'https://untappd.com/BeachFireBrewingCo']",Canada
Beacon Brewing,Sidney,"['Cider', 'Cocktails', 'Craft Sodas', 'Growler Fills', 'Live Music', 'Merchandise', 'Non Alc Beer Available', 'Snacks', 'Videogames', 'Wine']",https://bcaletrail.ca/breweries/beacon-brewing/,9829 Third Street,V8L 3A7,BC,N/A,http://www.beaconbrewing.ca/,"['https://www.facebook.com/BeaconBrewing.Sidney', 'https://www.instagram.com/beacon.brewing/']",Canada
Beard’s Brewing,Fort St. John,"['Food Truck(s)', 'Growler Fills', 'Merchandise']",https://bcaletrail.ca/breweries/beards-brewing/,10408 Alaska Rd North,N/A,BC,2502624104,https://www.beardsbrewing.ca/,"['https://twitter.com/beards_brewing', 'https://www.facebook.com/beardsbrewing/', 'https://www.instagram.com/beards.brewing/', 'https://untappd.com/w/beard-s-brewing-company/370489']",Canada
The Beer Farmers,Pemberton,"['Food Truck(s)', 'Growler Fills', 'Merchandise']",https://bcaletrail.ca/breweries/the-beer-farmers/,8324 Meadows Rd,V0N 2L2,BC,7788794033,https://www.thebeerfarmers.com/,"['https://www.facebook.com/thebeerfarmers/', 'https://www.instagram.com/thebeerfarmers/', 'https://untappd.com/w/the-beer-farmers/397530']",Canada
Beere Brewing,North Vancouver,"['Growler Fills', 'Merchandise', 'Snacks']",https://bcaletrail.ca/breweries/beere-brewing/,312 Esplanade E,N/A,BC,6049832163,https://www.beerebrewing.com/beerestore/,"['https://twitter.com/BeereBrewingCo', 'https://www.facebook.com/beerebrewing/', 'https://www.instagram.com/beerebrewingco/']",Canada
Beva Brewing & Blending,North Vancouver,"['Bike Racks', 'Brewpub', 'Cider', 'Cocktails', 'Dog Friendly Patio', 'Guest Taps', 'Non Alc Beer Available', 'Patio', 'Snacks', 'Wheelchair Accessible', 'Wine']",https://bcaletrail.ca/breweries/beva-brewing-blending/,1405 Pemberton Ave,V7P2R8,BC,N/A,https://www.bevabrewing.ca/,"['https://www.facebook.com/profile.php?id=100093881980814', 'https://www.instagram.com/bevabrewing/', 'https://untappd.com/BevaBrewingBlending']",Canada
Black Kettle Brewing,North Vancouver,"['Growler Fills', 'Merchandise', 'Snacks']",https://bcaletrail.ca/breweries/black-kettle-brewing/,720 Copping St #106,V7M 3G3,BC,6049879989,http://blackkettlebrewing.com,"['https://twitter.com/BlackKettleBeer', 'https://www.facebook.com/BlackKettleBrewing/', 'https://www.instagram.com/blackkettlebeer/', 'https://untappd.com/BlackKettleBrewingCompany']",Canada
BNA Brewing Co.,Kelowna,"['Bike Racks', 'Board Games', 'Brewpub', 'Cider', 'Cocktails', 'Dog Friendly Patio', 'GF Food Options', 'Growler Fills', 'Merchandise', 'Non Alc Beer Available', 'Patio', 'Spirits', 'Videogames', 'Wheelchair Accessible', 'Wine']",https://bcaletrail.ca/breweries/bna-brewing-co/,1250 Ellis St,V1Y 1Z4,BC,2364200025,http://bnabrewing.com,"['https://twitter.com/BNABrewing', 'https://www.facebook.com/BNAbrewing/', 'https://www.instagram.com/bnabrewing/', 'https://untappd.com/BNABrewingCo']",Canada
Bomber Brewing,Vancouver,"['Food Truck(s)', 'Growler Fills', 'Merchandise', 'Snacks']",https://bcaletrail.ca/breweries/bomber-brewing/,1488 Adanac St,V5L 2C3,BC,6044287457,https://bomberbrewing.com,"['https://twitter.com/bomberbrewing', 'https://www.facebook.com/bomberbrewing/', 'https://www.instagram.com/bomberbrewing/', 'https://untappd.com/BomberBrewingVan']",Canada
Braggot Brewing,North Vancouver,[],https://bcaletrail.ca/breweries/braggot-brewing/,102 - 370 Esplanade East,V7L 1A4,BC,N/A,https://braggottery.com/,['https://www.instagram.com/braggotbrewing/'],Canada
Brassneck Brewery,Vancouver,"['Food Truck(s)', 'Growler Fills', 'Snacks']",https://bcaletrail.ca/breweries/brassneck-brewery/,2148 Main St,V5T 3C5,BC,6042597686,http://brassneck.ca,"['https://www.facebook.com/pages/Brassneck-Brewery/661469417210968', 'https://www.instagram.com/brassneckbrew/', 'https://untappd.com/w/brassneck-brewery/83539']",Canada
BREWHALL,Vancouver,"['Brewpub', 'Cider', 'GF Food Options', 'Gluten-Free Beer', 'Merchandise', 'Videogames', 'Wine']",https://bcaletrail.ca/breweries/brewhall-beer-co/,97 East 2nd Ave,V5T 1B3,BC,6047098623,http://brewhall.com/,"['https://www.facebook.com/Brewhall/', 'https://www.instagram.com/brewhall/', 'https://untappd.com/BREWHALLBeerCo']",Canada
The BrewHouse (High Mountain Brewing),Whistler,"['Brewpub', 'Growler Fills']",https://bcaletrail.ca/breweries/brewhouse-at-whistler/,4355 Blackcomb Way,V0N 1B4,BC,6049052739,https://mjg.ca/brewhouse/,"['https://twitter.com/BREWHOUSEatWHIS', 'https://www.facebook.com/HMBC.Brewhouse', 'https://untappd.com/w/brewhouse-high-mountain-brewing-co/5023']",Canada
Brewing August,Vancouver,"['Food Truck(s)', 'Merchandise']",https://bcaletrail.ca/breweries/brewing-august/,1614 W. 3rd Ave,V6J 1K2,BC,N/A,https://www.brewingaugust.com/,"['https://www.facebook.com/photo.php?fbid=531170842344601&set=pb.100063550707101.-2207520000..&type=3', 'https://www.instagram.com/brewingaugust/']",Canada
Bridge Brewing Company,North Vancouver,"['Craft Sodas', 'Growler Fills', 'Merchandise', 'Snacks', 'Wheelchair Accessible', 'Wine']",https://bcaletrail.ca/breweries/bridge-brewing-company/,1448 Charlotte Rd,V7J 1H2,BC,6047702739,https://www.bridgebrewingstore.com/,"['https://twitter.com/bridgebrewcrew', 'https://www.facebook.com/BridgeBrewCrew/', 'https://www.instagram.com/bridgebrewcrew/', 'https://untappd.com/BridgeBrewingCompany']",Canada
Bright Eye Brewing,Kamloops,"['Brewpub', 'Growler Fills', 'Merchandise']",https://bcaletrail.ca/breweries/bright-eye-brewing/,292 Tranquille Rd,V2B 3G3,BC,2503121702,https://www.brighteyebrewing.com,"['https://www.facebook.com/pg/brighteyebrewing', 'https://www.instagram.com/brighteyebrewing', 'https://untappd.com/BrightEyeBrewing']",Canada
Brookswood Brewing Co,Langley,[],https://bcaletrail.ca/breweries/brookswood-brewing-co/,#102 - 4061 200 Street,V3A 1K8,BC,N/A,https://www.brookswoodbrewing.com/,"['https://twitter.com/Brookswoodbrew', 'https://www.facebook.com/brookswoodbrewing', 'https://www.instagram.com/brookswoodbrewingco/', 'https://untappd.com/Brookswood_Brewing_Co']",Canada
Buffalo Rouge Brewing,Kelowna,"['Bike Racks', 'Cider', 'Craft Sodas', 'Guest Taps', 'Patio', 'Snacks', 'Vegan Options', 'Wheelchair Accessible', 'Wine']",https://bcaletrail.ca/breweries/buffalo-rouge-brewing-company/,1111 Gordon Drive #105,V1Y 3E3,BC,7789400170,https://buffalorougebrewing.com/,"['https://www.facebook.com/profile.php?id=100087725526765', 'https://www.instagram.com/buffalo.rouge.brewing/']",Canada
Bulkley Valley Brewery,Smithers,"['Growler Fills', 'Live Music', 'Merchandise']",https://bcaletrail.ca/breweries/bulkley-valley-brewery/,3860 1st Ave,V0J 2N0,BC,2508470699,http://www.bulkleyvalleybrewery.com,"['http://fb.me/BulkleyValleyBrewery', 'https://www.instagram.com/bulkleyvalleybrewery/', 'https://untappd.com/BulkleyValleyBrewery']",Canada
Camp Beer Co.,Langley,"['Bike Racks', 'Board Games', 'Cider', 'Craft Sodas', 'Dog Friendly Patio', 'GF Food Options', 'Growler Fills', 'Live Music', 'Merchandise', 'Non Alc Beer Available', 'Snacks', 'Wheelchair Accessible', 'Wine']",https://bcaletrail.ca/breweries/camp-beer-co/,110 - 19664 64 Avenue,V2Y 1H3,BC,6044274287,http://www.campbeer.ca,"['https://twitter.com/campbeerco', 'https://faceboook.com/campbeerco', 'https://www.instagram.com/campbeerco/', 'https://untappd.com/campbeerco']",Canada
Cannery Brewing,Penticton,"['Cider', 'GF Food Options', 'Growler Fills', 'Live Music', 'Merchandise', 'Wine']",https://bcaletrail.ca/breweries/cannery-brewing/,198 Ellis Street,V2A 4L5,BC,2504932723,http://cannerybrewing.com,"['https://twitter.com/cannerybrewing', 'https://www.facebook.com/CanneryBrewing/', 'https://www.instagram.com/cannerybrewing/', 'https://untappd.com/cannerybrewing']",Canada
Canuck Empire Brewing Co,Abbotsford,"['Cider', 'GF Food Options', 'Growler Fills', 'Snacks', 'Wheelchair Accessible', 'Wine']",https://bcaletrail.ca/breweries/canuck-empire-brewing-co/,Unit C - 33797 King Road,V2S 7P2,BC,6047463616,https://canuckempirebrewing.com/,"['https://twitter.com/canuckempire', 'https://www.facebook.com/CanuckEmpire/', 'https://www.instagram.com/canuckempire/', 'https://untappd.com/CanuckEmpireBrewing']",Canada
Cask and Cleaver Brewing,100 Mile House,"['Bike Racks', 'Brewpub', 'Cider', 'Craft Sodas', 'GF Food Options', 'Growler Fills', 'Guest Taps', 'Non Alc Beer Available', 'Patio', 'Wheelchair Accessible', 'Wine']",https://bcaletrail.ca/breweries/cask-and-cleaver-brewing/,175 Cariboo Hwy,V0K 2E0,BC,7784825180,https://www.caskandcleaver.com/,"['https://www.facebook.com/caskandcleaverbrewing/', 'https://www.instagram.com/caskandcleaver/', 'https://untappd.com/Cask_And_Cleaver']",Canada
Category 12 Brewing,Victoria,"['Growler Fills', 'Merchandise', 'Vegan-Friendly Beer']",https://bcaletrail.ca/breweries/category-12-brewing/,2200 Unit C Keating Cross Rd,V8M 2A6,BC,2506529668,https://www.category12beer.com/,"['https://twitter.com/c12beer', 'https://www.facebook.com/C12beer/', 'https://www.instagram.com/c12beer/', 'https://untappd.com/Category12']",Canada
Central City Brewers & Distillers,Surrey,"['Cocktails', 'Dog Friendly Patio', 'Food Truck(s)', 'Merchandise', 'Patio', 'Spirits', 'Wheelchair Accessible']",https://bcaletrail.ca/breweries/central-city-brewers-distillers/,11411 Bridgeview Dr,V3R 2N1,BC,6045882337,http://centralcitybrewing.com,"['https://twitter.com/centralcitybrew', 'https://www.facebook.com/CentralCityBrewing/', 'https://www.instagram.com/centralcitybrew/', 'https://untappd.com/RedRacerBrew']",Canada
Coast Mountain Brewing,Whistler,"['Bike Racks', 'Cider', 'Craft Sodas', 'GF Food Options', 'Gluten-Free Beer', 'Growler Fills', 'Guest Taps', 'Live Music', 'Merchandise', 'Non Alc Beer Available', 'Outside food permitted', 'Patio', 'Snacks', 'Videogames', 'Wheelchair Accessible', 'Wine']",https://bcaletrail.ca/breweries/coast-mountain-brewing/,2 - 1212 Alpha Lake,V8E 0R5,BC,6049623230,https://www.coastmountainbrewing.com/,"['https://twitter.com/coastmtnbrewing', 'https://www.facebook.com/CoastMountainBrewing/', 'https://www.instagram.com/coastmountainbeer/', 'https://untappd.com/w/coast-mountain-brewing/294125']",Canada
Connector Brewing,West Kelowna,"['Board Games', 'Brewpub', 'Cider', 'Craft Sodas', 'GF Food Options', 'Gluten-Free Beer', 'Growler Fills', 'Guest Taps', 'Live Music', 'Merchandise', 'Non Alc Beer Available', 'Wheelchair Accessible', 'Wine']",https://bcaletrail.ca/breweries/connector-brewing/,101 - 3310 Carrington Rd,V4T 3C1,BC,N/A,https://connectorbrewing.com/,"['https://www.facebook.com/connectorbrewing', 'https://www.instagram.com/connectorbrewing/', 'https://untappd.com/ConnectorBrewing']",Canada
Container Brewing,Vancouver,"['Craft Sodas', 'Food Truck(s)', 'Live Music', 'Merchandise', 'Patio', 'Snacks', 'Wheelchair Accessible']",https://bcaletrail.ca/breweries/container-brewing/,1216 Franklin St,V6A 1K1,BC,7784040657,https://containerbrewing.ca/,"['https://twitter.com/containerbeer', 'https://www.facebook.com/containerbrewing', 'https://www.instagram.com/containerbrewing/', 'https://untappd.com/ContainerBrewing']",Canada
Copper Brewing,Kelowna,"['Cider', 'Cocktails', 'Growler Fills', 'Merchandise', 'Snacks', 'Videogames', 'Wine']",https://bcaletrail.ca/breweries/copper-brewing/,1851 Kirschner Rd #102,V1Y 4N7,BC,2507628850,https://copperbrewingco.com/,"['https://www.facebook.com/Copperbrewing/', 'https://www.instagram.com/copperbrewing/', 'https://untappd.com/w/copper-brewing-co/442327']",Canada
CowDog Brew Co,Vancouver,"['Bike Racks', 'Board Games', 'Cocktails', 'Craft Sodas', 'Growler Fills', 'Guest Taps', 'Merchandise', 'Patio', 'Snacks', 'Spirits', 'Wheelchair Accessible']",https://bcaletrail.ca/breweries/cowdog-brew-co/,1338 Franklin St,V5L 1N9,BC,N/A,https://cowdogbrewcompany.ca/,"['https://www.facebook.com/profile.php?id=61560883811004', 'https://www.instagram.com/cowdogbrewcompany/', 'https://untappd.com/Cowdog_Brew_Company_']",Canada
Craig Street Brewing,Duncan,"['Brewpub', 'Growler Fills']",https://bcaletrail.ca/breweries/craig-street-brew-pub/,25 Craig St,V9L 1V7,BC,2507372337,http://www.csbrewery.ca/craigstreetbrewpub,"['https://twitter.com/csbrewpub', 'https://www.facebook.com/craigstbrewpub', 'https://www.instagram.com/csbrewpub', 'https://untappd.com/w/craig-street-brewpub/5223']",Canada
Crannóg Ales,Sorrento,"['Growler Fills', 'Merchandise']",https://bcaletrail.ca/breweries/crannog-ales/,706 Elson Rd,V0E 2W1,BC,2506756847,http://crannogales.com,"['https://www.facebook.com/pages/Crannog-Ales/147130382004277/', 'https://www.instagram.com/crannogales/', 'https://untappd.com/w/crann-g-ales/4651']",Canada
CrossRoads Brewing & Distillery,Prince George,"['Bike Racks', 'Board Games', 'Brewpub', 'Cider', 'Cocktails', 'GF Food Options', 'Growler Fills', 'Guest Taps', 'Merchandise', 'Non Alc Beer Available', 'Patio', 'Spirits', 'Wheelchair Accessible', 'Wine']",https://bcaletrail.ca/breweries/crossroads-brewing/,508 George St,V2L 1R7,BC,2506142337,http://crossroadscraft.com,"['https://twitter.com/crossroadscraft', 'https://www.facebook.com/crossroadscraft/', 'https://www.instagram.com/crossroadscraft/', 'https://untappd.com/crossroads']",Canada
Cumberland Brewing Company,Cumberland,"['Bike Racks', 'Brewpub', 'Cider', 'Cocktails', 'Craft Sodas', 'Dog Friendly Patio', 'GF Food Options', 'Growler Fills', 'Non Alc Beer Available', 'Patio', 'Snacks', 'Wheelchair Accessible', 'Wine']",https://bcaletrail.ca/breweries/cumberland-brewing-co/,2732 Dunsmuir Ave,N/A,BC,2504002739,http://cumberlandbrewing.com,"['https://twitter.com/cumberlandbeer', 'https://www.facebook.com/cumberlandbrewingco/', 'https://www.instagram.com/cumberlandbrewingcompany/', 'https://untappd.com/w/cumberland-brewing-company/176608']",Canada
Dageraad Brewing,Burnaby,"['Bike Racks', 'Cider', 'Craft Sodas', 'Food Truck(s)', 'Growler Fills', 'Merchandise', 'Non Alc Beer Available', 'Patio', 'Snacks', 'Wheelchair Accessible', 'Wine']",https://bcaletrail.ca/breweries/dageraad-brewing/,3191 Thunderbird Crescent #114,V5A 3G1,BC,6044202050,https://dageraadbrewing.com/,"['https://twitter.com/DageraadBeer', 'https://www.facebook.com/DageraadBrewing/', 'https://www.instagram.com/dageraadbeer/', 'https://untappd.com/Dageraad']",Canada
Dead Frog Brewery,Langley,"['Brewpub', 'Cider', 'GF Food Options', 'Growler Fills', 'Live Music', 'Merchandise', 'Patio', 'Snacks', 'Wheelchair Accessible', 'Wine']",https://bcaletrail.ca/breweries/dead-frog-brewery/,#105  8860 201 Street,V2Y 0C8,BC,6048561055,https://deadfrog.ca/,"['https://twitter.com/deadfrogbrewery', 'https://www.facebook.com/deadfrogbrewery/', 'https://www.instagram.com/deadfrogbrewery/', 'https://untappd.com/deadfrog']",Canada
Deadfall Brewing Company,Prince George,"['Bike Racks', 'Board Games', 'Cider', 'Craft Sodas', 'GF Food Options', 'Growler Fills', 'Live Music', 'Merchandise', 'Non Alc Beer Available', 'Snacks', 'Wheelchair Accessible']",https://bcaletrail.ca/breweries/deadfall-brewing-company/,1733 Nicholson St South,V2N 1V7,BC,N/A,https://www.deadfallbrewing.com,"['https://twitter.com/deadfallbrewco/', 'https://www.facebook.com/DeadfallBrewCo', 'https://www.instagram.com/deadfallbrewco/', 'https://untappd.com/DeadfallBrewCo']",Canada
Deadhead Brew Co,Duncan,"['Board Games', 'Cider', 'Cocktails', 'Dog Friendly Patio', 'Gluten-Free Beer', 'Non Alc Beer Available', 'Patio', 'Snacks', 'Wheelchair Accessible']",https://bcaletrail.ca/breweries/deadhead-brew-co-duncan/,203-5301 Chaster Rd,V9L 6W4,BC,2505970045,http://deadheadbrew.co/,"['https://www.facebook.com/profile.php?id=61559554907637', 'https://www.instagram.com/deadheadbrewco/']",Canada
Detonate Brewing Company,Summerland,"['Bike Racks', 'Brewpub', 'Cider', 'Cocktails', 'Craft Sodas', 'Dog Friendly Patio', 'Growler Fills', 'Guest Taps', 'Live Music', 'Merchandise', 'Patio', 'Spirits', 'Wheelchair Accessible', 'Wine']",https://bcaletrail.ca/breweries/detonate-brewing-company/,103 - 9503 Cedar Ave,N/A,BC,2503285294,https://www.detonatebrew.com/,"['https://twitter.com/DetonateBrewing', 'https://www.facebook.com/DetonateBrewing', 'https://www.instagram.com/detonatebrewing/', 'https://untappd.com/DetonateBrewingCompany']",Canada
Devils’ Bath Brewing,Port McNeill,"['Brewpub', 'Cider', 'Craft Sodas', 'Growler Fills', 'Patio', 'Snacks', 'Wine']",https://bcaletrail.ca/breweries/devils-bath-brewing/,1616 McNeill Rd,V0N 2R0,BC,2509561616,http://devilsbathbrewing.ca/,"['https://www.facebook.com/DevilsBathBrewingCo', 'https://www.instagram.com/devilsbathbrewingco/', 'https://untappd.com/w/devils-bath-brewing-co/500668']",Canada
Dog Mountain Brewing,Port Alberni,"['Growler Fills', 'Merchandise', 'Patio', 'Snacks']",https://bcaletrail.ca/breweries/dog-mountain-brewing/,3141 3rd Ave,V9Y 4C4,BC,2507318810,https://dogmountainbrew.com/,"['https://www.facebook.com/dogmountainbrewing', 'https://www.instagram.com/dogmountainbrewing/', 'https://untappd.com/w/dog-mountain-brewing/403394']",Canada
Driftwood Brewery,Victoria,"['Bike Racks', 'Cider', 'Cocktails', 'Craft Sodas', 'Growler Fills', 'Merchandise', 'Patio', 'Spirits', 'Vegan-Friendly Beer', 'Wheelchair Accessible', 'Wine']",https://bcaletrail.ca/breweries/driftwood-brewery/,836 Viewfield Rd,V9A 4V1,BC,2505903555,https://driftwoodbeer.ca/,"['https://twitter.com/driftwoodbeer', 'https://www.facebook.com/driftwoodbeer/', 'https://www.instagram.com/driftwoodbrewery/', 'https://untappd.com/DriftwoodBrewery']",Canada
East Vancouver Brewing Company,Vancouver,"['Cider', 'Cocktails', 'Growler Fills', 'Merchandise', 'Snacks']",https://bcaletrail.ca/breweries/east-van-brewing/,1675 Venables St,V5L 2H1,BC,6045583822,http://www.eastvanbrewing.com/,"['https://twitter.com/EastVanBrewing', 'https://www.facebook.com/EastVanBrewing/', 'https://instagram.com/EastVanBrewing', 'https://untappd.com/EastVanBrewingCo']",Canada
Electric Bicycle Brewing,Vancouver,"['Brewpub', 'Cider', 'Growler Fills', 'Patio']",https://bcaletrail.ca/breweries/electric-bicycle-brewing/,20 East 4th Ave,V5T1E8,BC,2508963774,https://electricbicyclebrewing.com/,"['https://www.facebook.com/Electricbicyclebrewing/', 'https://www.instagram.com/electricbicyclebrewing/', 'https://untappd.com/ElectricBicycleBrewing_']",Canada
Empty Keg Brew House,Merritt,"['Cider', 'GF Food Options', 'Growler Fills', 'Merchandise', 'Non Alc Beer Available', 'Snacks']",https://bcaletrail.ca/breweries/empty-keg-brew-house/,2190 Voght Street,V1K 1C8,BC,2503152337,http://www.emptykegbrewhouse.ca/,"['https://www.facebook.com/EmptyKegBrewHouse', 'https://www.instagram.com/emptykegbrewhouse']",Canada
Encore Brewing Company,Cranbrook,"['Cider', 'Cocktails', 'Craft Sodas', 'Videogames', 'Wheelchair Accessible', 'Wine']",https://bcaletrail.ca/breweries/encore-brewing-company/,1400 4 St N,N/A,BC,7787440460,https://www.encorebrewing.ca/,"['https://www.facebook.com/EncoreBeerCBK', 'https://www.instagram.com/encorebeer/']",Canada
Erie Creek Brewing,Salmo,"['Cider', 'Growler Fills', 'Live Music', 'Merchandise', 'Snacks', 'Videogames', 'Wine']",https://bcaletrail.ca/breweries/erie-creek-brewing/,117 4th St,V0G 1Z0,BC,2503572479,https://www.eriecreekbrewingco.com/,"['https://www.facebook.com/Erie-Creek-Brewing-Company-2119648468326918/', 'https://www.instagram.com/erie_creek_brewing/', 'https://untappd.com/w/erie-creek-brewing-company/464086']",Canada
Faculty Brewing Co.,Vancouver,"['Growler Fills', 'Merchandise', 'Snacks']",https://bcaletrail.ca/breweries/faculty-brewing-co/,1830 Ontario St,V5T 2W6,BC,7788196794,http://facultybrewing.com,"['https://www.facebook.com/facultybrewing/', 'https://www.instagram.com/facultybrewing/', 'https://untappd.com/w/faculty-brewing/231919']",Canada
Farm Country Brewing,Langley,"['Cider', 'Growler Fills', 'Live Music', 'Merchandise', 'Snacks', 'Wheelchair Accessible', 'Wine']",https://bcaletrail.ca/breweries/farm-country-brewing/,5 - 20555 56th Avenue,V3A 3Y9,BC,7788192288,https://farmcountrybrewing.com/,"['http://www.twitter.com/farmcountrybrew', 'https://www.facebook.com/farmcountrybrew/', 'http://www.instagram.com/farmcountrybrewco', 'https://untappd.com/FarmCountryBrewing']",Canada
Farmhouse Brewing Co.,Chilliwack,"['Bike Racks', 'Board Games', 'Brewpub', 'Cider', 'Craft Sodas', 'Dog Friendly Patio', 'GF Food Options', 'Growler Fills', 'Live Music', 'Merchandise', 'Non Alc Beer Available', 'Wheelchair Accessible', 'Wine']",https://bcaletrail.ca/breweries/farmhouse-brewing/,6385 Lickman Rd,V2R 4A9,BC,6048249007,http://www.farmhousebrewing.co,"['https://www.facebook.com/farmhousebrewingco', 'https://www.instagram.com/farmhousebrewingco/', 'https://untappd.com/w/farmhouse-brewing-co/478489']",Canada
Fern + Cedar Brewing,Qualicum Beach,"['Brewpub', 'Cider', 'Cocktails', 'Craft Sodas', 'GF Food Options', 'Growler Fills', 'Live Music', 'Merchandise', 'Wheelchair Accessible', 'Wine']",https://bcaletrail.ca/breweries/fern-cedar-brewing/,680 Berwick Road South,V9K 1R2,BC,2505940052,https://fernandcedar.ca/,"['https://www.facebook.com/fernandcedarbrewing/', 'https://www.instagram.com/fernandcedarbrewing/', 'https://untappd.com/w/fern-cedar-brewing/512791']",Canada
Fernie Brewing Co.,Fernie,"['Growler Fills', 'Merchandise', 'Snacks']",https://bcaletrail.ca/breweries/fernie-brewing-co/,26 Manitou Rd,V0B 1M5,BC,2504237797,https://www.ferniebrewing.com/,"['https://twitter.com/FernieBrewingCo', 'https://www.facebook.com/Fernie-Brewing-Company-170347052983672/', 'https://www.instagram.com/ferniebrewingco/', 'https://untappd.com/FernieBrewingCompany']",Canada
Field House Brewing CHWK,Chilliwack,"['GF Food Options', 'Growler Fills', 'Live Music', 'Merchandise']",https://bcaletrail.ca/breweries/field-house-chwk/,#102-9251 Woolly Dog Alley,N/A,BC,6047762739,http://www.fieldhousebrewing.com,N/A,Canada
Field House Brewing Co ABBY,Abbotsford,"['Bike Racks', 'Brewpub', 'Cider', 'Cocktails', 'Craft Sodas', 'Dog Friendly Patio', 'GF Food Options', 'Growler Fills', 'Guest Taps', 'Live Music', 'Merchandise', 'Patio', 'Snacks', 'Wheelchair Accessible', 'Wine']",https://bcaletrail.ca/breweries/field-house-brewing-co/,2281 W Railway St,V2S 2E3,BC,6047762739,https://fieldhousebrewing.com/,"['https://www.facebook.com/fieldhousebrewing/', 'https://www.instagram.com/fieldhousebrewing/', 'https://untappd.com/FieldHouseBrewingCo']",Canada
Firehall Brewery,Oliver,"['Cider', 'Cocktails', 'Craft Sodas', 'Growler Fills', 'Live Music', 'Merchandise', 'Patio', 'Wheelchair Accessible']",https://bcaletrail.ca/breweries/firehall-brewery/,6077 Main St,V0H 1T0,BC,7784392337,https://www.firehallbrewery.com/shop,"['https://twitter.com/firehallbrewery', 'https://www.facebook.com/thefirehallbrewery/', 'https://www.instagram.com/firehallbrewery/', 'https://untappd.com/FirehallBrewery']",Canada
Fisher Peak Brewing,Cranbrook,"['Brewpub', 'Growler Fills', 'Merchandise']",https://bcaletrail.ca/breweries/fisher-peak-brewing-company/,821 Baker St,V1C 1A2,BC,2504267922,http://theheidout.ca,"['https://twitter.com/FPBCoHeidout', 'https://www.facebook.com/TheHeidOutRestaurantandBrewhouse/', 'https://www.instagram.com/theheidout/', 'https://untappd.com/FisherPeakBrewingCo']",Canada
Five Roads Brewing,Langley,"['Bike Racks', 'Board Games', 'Cider', 'Cocktails', 'Craft Sodas', 'GF Food Options', 'Growler Fills', 'Live Music', 'Merchandise', 'Patio', 'Snacks', 'Wheelchair Accessible', 'Wine']",https://bcaletrail.ca/breweries/five-roads-brewing-co/,#1 - 6263 202 St,V2Y 1N1,BC,6045396754,https://www.fiveroadsbrewing.com/,"['https://twitter.com/fiveroadsbrew', 'https://www.facebook.com/fiveroadsbrewingco/', 'https://www.instagram.com/fiveroadsbrewingco/', 'https://untappd.com/w/five-roads-brewing/429083']",Canada
Foamers’ Folly Brewing,Pitt Meadows,"['Cider', 'Cocktails', 'Growler Fills', 'Live Music', 'Merchandise', 'Patio', 'Snacks', 'Wheelchair Accessible', 'Wine']",https://bcaletrail.ca/breweries/foamers-folly-brewing-co/,19221 122a Ave,V3Y 2E9,BC,6044597837,https://www.foamersfolly.ca/,"['https://twitter.com/foamersfolly', 'https://www.facebook.com/foamersfolly/', 'https://www.instagram.com/foamersfolly/', 'https://untappd.com/FoamersFolly']",Canada
Four Winds Beach House & Brewery,Delta,"['Bike Racks', 'Brewpub', 'Cider', 'Cocktails', 'Craft Sodas', 'GF Food Options', 'Merchandise', 'Non Alc Beer Available', 'Spirits', 'Wheelchair Accessible', 'Wine']",https://bcaletrail.ca/breweries/four-winds-beach-house-brewery/,6350 Market Avenue,V4L 0B1,BC,6049402985,https://fourwindsbrewing.ca/pages/new-southlands,"['https://twitter.com/FourWindsBrewCo', 'https://www.facebook.com/profile.php?id=61560202815822', 'https://www.instagram.com/fourwindsbeachhouseandbrewery']",Canada
Four Winds Brewing Co.,Delta,"['Bike Racks', 'Brewpub', 'Cider', 'Cocktails', 'Craft Sodas', 'Dog Friendly Patio', 'GF Food Options', 'Merchandise', 'Non Alc Beer Available', 'Patio', 'Snacks', 'Wheelchair Accessible', 'Wine']",https://bcaletrail.ca/breweries/four-winds-brewing/,4 - 7355 72 St,V4G 1L5,BC,6049409949,https://fourwindsbrewing.ca/,"['https://twitter.com/fourwindsbrewco', 'https://www.facebook.com/fourwindsbrewingco/', 'https://www.instagram.com/fourwindsbrewco/', 'https://untappd.com/FourWindsBrewing']",Canada
Fox Mountain Brewing Co,Williams Lake,"['Growler Fills', 'Merchandise']",https://bcaletrail.ca/breweries/fox-mountain-brewing/,215 Donald Road,V2G 4K4,BC,2503923622,https://www.foxmountainbeer.com/,"['https://www.facebook.com/FoxMtnBrewCo', 'https://www.instagram.com/fox.mountain.brewing/', 'https://untappd.com/FoxMountainBrewingCo']",Canada
Freddy’s Brewpub,Kelowna,"['Brewpub', 'Growler Fills', 'Merchandise', 'Snacks']",https://bcaletrail.ca/breweries/freddys-brewpub/,124-948 McCurdy Rd,N/A,BC,2507658956,https://www.mccurdybowl.com/kelownabrewery,"['https://twitter.com/Bowl_N_Brew', 'https://www.facebook.com/bowlandbrewkelowna/', 'https://www.instagram.com/Bowl_N_Brew/', 'https://untappd.com/FreddysBrewpub']",Canada
Fuggles Beer,Richmond,"['Cocktails', 'Growler Fills', 'Merchandise', 'Videogames', 'Wheelchair Accessible', 'Wine']",https://bcaletrail.ca/breweries/fuggles-warlock-craftworks/,11220 Horseshoe Way,N/A,BC,60428577451,https://www.fugglesbeer.com,"['https://twitter.com/fugglesbeer', 'https://www.facebook.com/FugglesBeer', 'https://www.instagram.com/fugglesbeer/', 'https://untappd.com/FugglesandWarlockCraftworks']",Canada
Giant’s Head Brewing,Summerland,"['Brewpub', 'Cider', 'Cocktails', 'Dog Friendly Patio', 'GF Food Options', 'Growler Fills', 'Merchandise', 'Non Alc Beer Available', 'Patio', 'Spirits', 'Wheelchair Accessible', 'Wine']",https://bcaletrail.ca/breweries/giants-head-brewing/,13224 Victoria Rd N,V0H 1Z0,BC,2504041123,https://www.giantsheadbrewing.ca/,"['https://www.facebook.com/giantsheadbrewing', 'https://www.instagram.com/giantshead_brewing/', 'https://untappd.com/w/giant-s-head-brewing/509624']",Canada
Gladstone Brewing,Courtenay,"['Cider', 'GF Food Options', 'Growler Fills', 'Merchandise', 'Snacks', 'Wine']",https://bcaletrail.ca/breweries/gladstone-brewing-co/,244 4th St,V9N 1G6,BC,2508711111,https://www.gladstonebrewing.ca/,"['https://twitter.com/Gladstone_Beer', 'https://www.facebook.com/gladstonebrewingco/', 'https://www.instagram.com/gladstonebrewingco/', 'https://untappd.com/GladstoneBrewingCompany']",Canada
Grey Fox Brewing,Kelowna,"['Gluten-Free Beer', 'Growler Fills', 'Merchandise', 'Wheelchair Accessible']",https://bcaletrail.ca/breweries/grey-fox-brewing/,105 - 310 Hiram Walker Ct,V4V 0B2,BC,2508595518,http://www.greyfoxbrewing.com,"['https://www.facebook.com/greyfoxbrewing', 'https://www.instagram.com/greyfoxbrewing', 'https://untappd.com/GreyFoxBrewing']",Canada
Grist & Mash Brewery,Kimberley,"['Cider', 'Cocktails', 'Growler Fills', 'Live Music', 'Merchandise', 'Patio', 'Snacks', 'Videogames', 'Wine']",https://bcaletrail.ca/breweries/grist-mash-brewery/,345 Wallinger Ave,V1A 1Z3,BC,2504270148,https://gristandmash.com/,"['https://www.facebook.com/gristandmashbrewery/', 'https://www.instagram.com/gristandmash/', 'https://untappd.com/GristAndMashBrewery']",Canada
The Hatching Post,West Kelowna,"['Brewpub', 'Cider', 'Cocktails', 'GF Food Options', 'Growler Fills', 'Merchandise', 'Non Alc Beer Available', 'Patio', 'Snacks', 'Wheelchair Accessible', 'Wine']",https://bcaletrail.ca/breweries/the-hatching-post/,2850 Boucherie Rd,V1Z 2G5,BC,7787558166,https://hatchingpostbeer.com/,"['https://www.facebook.com/thehatchingpost', 'https://www.instagram.com/thehatchingpost/']",Canada
Herald Street Brew Works,Victoria,"['Cider', 'GF Food Options', 'Snacks', 'Wine']",https://bcaletrail.ca/breweries/herald-street-brew-works/,506 Herald Street,V8W 3N8,BC,2505909592,https://www.heraldstreet.com/,"['https://www.facebook.com/heraldstbw', 'https://www.instagram.com/heraldstbw/', 'https://untappd.com/HeraldStreetBrewWorks']",Canada
Highway 97 Brewery,Penticton,"['Bike Racks', 'Brewpub', 'Cider', 'GF Food Options', 'Growler Fills', 'Live Music', 'Merchandise', 'Non Alc Beer Available', 'Patio', 'Snacks', 'Wine']",https://bcaletrail.ca/breweries/highway-97-brewing/,200 Ellis St,V2A 4L6,BC,2504930323,http://hwy97brewery.com,"['https://twitter.com/hwy97beer', 'https://www.facebook.com/hwy97beer/', 'https://www.instagram.com/hwy97beer/', 'https://untappd.com/w/highway-97-brewery/262791']",Canada
Hornby Island Brewing,Hornby Island,"['Growler Fills', 'Merchandise', 'Non Alc Beer Available']",https://bcaletrail.ca/breweries/hornby-island-brewing/,6985 St Johns Pt Road,V0R 1Z0,BC,2503359179,http://hornbyislandbrewing.ca/,"['https://twitter.com/hornbybrewco', 'https://www.facebook.com/hornbyislandbrewingco', 'https://www.instagram.com/hornbyislandbrewingco/', 'https://untappd.com/HornbyIslandBrewingCompany']",Canada
House of Funk Brewing,North Vancouver,"['Growler Fills', 'Live Music', 'Non Alc Beer Available', 'Patio', 'Snacks']",https://bcaletrail.ca/breweries/house-of-funk-brewing/,350 E Esplanade,V7L 1A4,BC,N/A,https://www.houseoffunkbrewing.com/,"['https://www.facebook.com/houseoffunkbrewing', 'https://www.instagram.com/houseoffunkbrewing/', 'https://untappd.com/House_Of_Funk']",Canada
Howe Sound Brewing,Squamish,"['Bike Racks', 'Brewpub', 'Cider', 'Cocktails', 'Craft Sodas', 'Dog Friendly Patio', 'GF Food Options', 'Gluten-Free Beer', 'Growler Fills', 'Guest Taps', 'Merchandise', 'Non Alc Beer Available', 'Patio', 'Snacks', 'Spirits', 'Wheelchair Accessible', 'Wine']",https://bcaletrail.ca/breweries/howe-sound-brewing/,37801 Cleveland Ave,V8B 0S8,BC,6048922603,http://howesound.com,"['https://twitter.com/howesoundbeer', 'https://www.facebook.com/HoweSoundBrewing', 'https://www.instagram.com/Howesoundbrewing/', 'https://untappd.com/HoweSoundBrewingCo']",Canada
Hoyne Brewing,Victoria,"['Growler Fills', 'Merchandise']",https://bcaletrail.ca/breweries/hoyne-brewing-co/,2740 Bridge St,V8T 5C5,BC,2505905758,http://hoynebrewing.ca,"['https://twitter.com/HoyneBeer', 'https://www.facebook.com/HoyneBrewing/', 'https://www.instagram.com/hoynebrewing/', 'https://untappd.com/hoynebrewing']",Canada
île Sauvage Brewing,Victoria,"['Cider', 'Food Truck(s)', 'Snacks']",https://bcaletrail.ca/breweries/ile-sauvage-brewing/,2960 Bridge Street,V8T 4T3,BC,2505089386,http://www.ilesauvage.com,"['https://twitter.com/ilesauvagebeer', 'https://www.facebook.com/ilesauvagebrewing/', 'https://www.instagram.com/ilesauvagebrewing/', 'https://untappd.com/IleSauvage']",Canada
Iron Road Brewing,Kamloops,"['Brewpub', 'Growler Fills', 'Live Music']",https://bcaletrail.ca/breweries/iron-road-brewing/,980 Camosun Cres,V2C 6G2,BC,7787658160,http://www.ironroadbrewing.ca,"['https://twitter.com/@ironroadbrewing', 'https://www.facebook.com/Iron-Road-Brewing-1264130683634590/', 'https://www.instagram.com/ironroadbrewing', 'https://untappd.com/Iron_Road_Brewing']",Canada
Jackknife Brewing,Kelowna,"['Cider', 'Patio', 'Wheelchair Accessible']",https://bcaletrail.ca/breweries/jackknife-brewing/,727 Baillie Ave,N/A,BC,N/A,https://www.jackknife.beer/,"['https://www.facebook.com/jackknifebrewing/', 'https://www.instagram.com/jackknifebrewing', 'https://untappd.com/JackknifeBrewing']",Canada
Kelowna Beer Institute,Kelowna,"['Bike Racks', 'Board Games', 'Brewpub', 'Cider', 'Cocktails', 'Craft Sodas', 'Dog Friendly Patio', 'GF Food Options', 'Growler Fills', 'Live Music', 'Merchandise', 'Non Alc Beer Available', 'Patio', 'Snacks', 'Spirits', 'Wheelchair Accessible', 'Wine']",https://bcaletrail.ca/breweries/kelowna-beer-institute/,1346 Water St,V1Y 1J1,BC,7784840306,http://kelownabeerinstitute.com/,"['https://www.facebook.com/KelownaBeerInstitute', 'https://www.instagram.com/kelownabeerinstitute/', 'https://untappd.com/treebeer']",Canada
Kettle River Brewing Co.,Kelowna,"['Bike Racks', 'Board Games', 'Brewpub', 'Cider', 'Cocktails', 'Craft Sodas', 'Dog Friendly Patio', 'Growler Fills', 'Guest Taps', 'Live Music', 'Merchandise', 'Non Alc Beer Available', 'Patio', 'Snacks', 'Wheelchair Accessible', 'Wine']",https://bcaletrail.ca/breweries/kettle-river-brewing-co/,731 Baillie Ave,V1Y 7E9,BC,2508625115,http://kettleriverbrewing.ca,"['https://twitter.com/kettleriverbrew', 'http://www.facebook.com/kettleriverbrew', 'https://www.instagram.com/kettleriverbrew/', 'https://untappd.com/w/kettle-river-brewing/270361']",Canada
KPU Brew Lab | Kwantlen Polytechnic University,Langley,"['Growler Fills', 'Merchandise', 'Wheelchair Accessible']",https://bcaletrail.ca/breweries/kwantlen-polytechnic-university-brewing/,20901 Langley Bypass,V3A 8G9,BC,N/A,http://www.kpu.ca/brew,"['https://twitter.com/kpubrew', 'https://www.facebook.com/kpubrew/', 'https://www.instagram.com/kpubrew', 'https://untappd.com/KPUBrewingLab']",Canada
La Cerveceria Astilleros,North Vancouver,"['Brewpub', 'Cocktails', 'GF Food Options', 'Growler Fills', 'Live Music', 'Merchandise', 'Patio', 'Snacks', 'Wheelchair Accessible', 'Wine']",https://bcaletrail.ca/breweries/la-cerveceria-astilleros/,226 Esplanade East,V7L 1A3,BC,N/A,http://www.cerveceria-astilleros.com,"['https://www.facebook.com/cerveceriaastilleros/', 'https://www.instagram.com/lacerveceriaastilleros/', 'https://untappd.com/w/la-cerveceria-astilleros/473297']",Canada
Lakesider Brewing Co.,West Kelowna,"['Bike Racks', 'Board Games', 'Brewpub', 'Cider', 'Cocktails', 'Craft Sodas', 'Dog Friendly Patio', 'GF Food Options', 'Gluten-Free Beer', 'Growler Fills', 'Guest Taps', 'Live Music', 'Merchandise', 'Non Alc Beer Available', 'Patio', 'Snacks', 'Spirits', 'Wheelchair Accessible', 'Wine']",https://bcaletrail.ca/breweries/lakesider-brewing/,835 Anders Rd W.,N/A,BC,2367661144,https://lakesiderbrewing.com/,"['https://www.facebook.com/lakesiderbeer/', 'https://www.instagram.com/lakesiderbeer/', 'https://untappd.com/w/lakesider-brewing/494371']",Canada
Land & Sea Brewing,Comox,"['Bike Racks', 'Cider', 'GF Food Options', 'Gluten-Free Beer', 'Growler Fills', 'Live Music', 'Snacks', 'Wine']",https://bcaletrail.ca/breweries/land-and-sea-brewing/,2040 Guthrie Rd,V9M 3P6,BC,2509415577,https://www.landandseabrewing.ca/,"['https://www.facebook.com/landandseabeer/', 'https://www.instagram.com/landandseabeer/', 'https://untappd.com/LandandSeaBrewing']",Canada
Lighthouse Brewing,Victoria,"['Bike Racks', 'Growler Fills', 'Merchandise', 'Patio', 'Snacks', 'Vegan Options']",https://bcaletrail.ca/breweries/lighthouse-brewing-company/,836 Devonshire Rd,V9A 4T4,BC,2503836500,http://lighthousebrewing.com,"['https://twitter.com/LIGHTHOUSEBEER', 'https://www.facebook.com/LIGHTHOUSEBEER/', 'https://www.instagram.com/LIGHTHOUSEBEER/', 'https://untappd.com/lighthousebrewing']",Canada
Lillooet Brewing Company,Lillooet,"['Bike Racks', 'Board Games', 'Cider', 'Dog Friendly Patio', 'Food Truck(s)', 'Growler Fills', 'Guest Taps', 'Merchandise', 'Patio', 'Snacks', 'Wheelchair Accessible', 'Wine']",https://bcaletrail.ca/breweries/lillooet-brewing-co/,104 Main St,V0K 1V0,BC,2364171133,https://lillooetbrewing.com/,"['https://www.facebook.com/LillooetBrewing', 'https://www.instagram.com/lillooetbeer/']",Canada
Locality Brewing,Langley,[],https://bcaletrail.ca/breweries/locality-brewing/,7111 252 Street,V4W 1H6,BC,7788551376,https://localitybrewing.ca/,"['https://twitter.com/LocalityBrewing', 'https://www.facebook.com/localitybrewing/', 'https://www.instagram.com/localitybrewing']",Canada
Longwood Brew Pub & Restaurant,Nanaimo,"['Bike Racks', 'Brewpub', 'Cider', 'Cocktails', 'GF Food Options', 'Growler Fills', 'Merchandise', 'Non Alc Beer Available', 'Patio', 'Spirits', 'Wheelchair Accessible', 'Wine']",https://bcaletrail.ca/breweries/longwood-brewpub/,5775 Turner Rd,V9T 6L8,BC,2507298225,http://www.longwoodbrewpub.com/,"['https://www.facebook.com/longwoodbrewpub', 'http://www.instagram.com/longwoodbrewpub/']",Canada
Longwood Brewery on Boxwood Road,Nanaimo,"['Dog Friendly Patio', 'Growler Fills', 'Merchandise', 'Non Alc Beer Available', 'Patio', 'Wheelchair Accessible']",https://bcaletrail.ca/breweries/longwood-brewery/,101A - 2046 Boxwood Rd,V9S 5W7,BC,2505912739,http://longwoodbeer.com,"['https://twitter.com/longwoodbrewery', 'https://www.facebook.com/profile.php?id=100086750047819', 'https://www.instagram.com/longwoodbrewery/', 'https://untappd.com/LongwoodBreweryNanaimo']",Canada
LoveShack Libations,Qualicum Beach,"['Food Truck(s)', 'Merchandise', 'Outside food permitted', 'Wheelchair Accessible']",https://bcaletrail.ca/breweries/loveshack-libations/,4134 Island Hwy W #1,V9K 2B2,BC,6043192484,http://loveshacklibations.com,"['https://twitter.com/LoveShackBeer', 'https://www.facebook.com/loveshacklibations/', 'https://www.instagram.com/loveshacklibations/', 'https://untappd.com/w/loveshack-libations/325191']",Canada
Luppolo Brewing Company,Vancouver,"['Bike Racks', 'Brewpub', 'Cider', 'Cocktails', 'Craft Sodas', 'Merchandise', 'Non Alc Beer Available', 'Patio', 'Snacks', 'Spirits', 'Wheelchair Accessible', 'Wine']",https://bcaletrail.ca/breweries/luppolo-brewing-company/,1123 Venables St,V6A 2C6,BC,6042554997,http://luppolobrewing.ca,"['https://twitter.com/luppolo_brewing', 'https://www.facebook.com/luppolobrewingco/', 'https://www.instagram.com/luppolo_brewing/', 'https://untappd.com/w/luppolo-brewing-company/281667']",Canada
Main Street Brewing,Vancouver,"['Growler Fills', 'Merchandise']",https://bcaletrail.ca/breweries/main-street-brewing/,261 E 7th Ave,V5T 0B4,BC,6043367711,http://mainstreetbeer.ca,"['https://www.facebook.com/MainStreetBeer/', 'https://www.instagram.com/mainstreetbeer/', 'https://untappd.com/MainStreetBrewingCompany']",Canada
Mariner Brewing,Coquitlam,"['Board Games', 'Cider', 'Cocktails', 'Craft Sodas', 'Dog Friendly Patio', 'Food Truck(s)', 'Growler Fills', 'Guest Taps', 'Merchandise', 'Non Alc Beer Available', 'Patio', 'Snacks', 'Spirits', 'Wheelchair Accessible', 'Wine']",https://bcaletrail.ca/breweries/mariner-brewing/,H-1100 Lansdowne Drive,V3B 5E2,BC,6044674160,https://www.marinerbrewing.ca/,"['https://twitter.com/MarinerBeer', 'https://www.facebook.com/pg/marinerbeer', 'https://www.instagram.com/marinerbeer/']",Canada
Mayne Island Brewing Company,Mayne Island,"['Merchandise', 'Wheelchair Accessible']",https://bcaletrail.ca/breweries/mayne-island-brewing-company/,490 Fernhill Road,V0N 2J2,BC,2505260711,https://mayneislandbrewing.com/,"['https://www.facebook.com/MayneIslandBrewing/', 'https://www.instagram.com/mayneislandbrewingco/', 'https://untappd.com/w/mayne-island-brewing-company/316870']",Canada
Mighty Peace Brewing,Fort St. John,"['Cider', 'Cocktails', 'Growler Fills', 'Guest Taps', 'Live Music', 'Merchandise', 'Non Alc Beer Available', 'Patio', 'Snacks', 'Wheelchair Accessible', 'Wine']",https://bcaletrail.ca/breweries/mighty-peace/,10128 95 Ave,V1J 1J1,BC,2507855553,http://www.Mightypeacebrewing.ca,"['https://twitter.com/MightyPeaceBeer', 'https://www.facebook.com/MightyPeaceBrewing/', 'https://www.instagram.com/mightypeacebrewing/', 'https://untappd.com/Mighty_Peace_Brewing_Co']",Canada
Mile Zero Brewing,Metchosin,"['Growler Fills', 'Patio']",https://bcaletrail.ca/breweries/mile-zero-brewing/,4495 Happy Valley Road,V9C 3Z3,BC,N/A,https://www.milezerobrewing.ca/,"['https://www.facebook.com/milezerobrewing', 'https://www.instagram.com/milezerobrewingca/', 'https://untappd.com/MileZeroBrewing']",Canada
Moody Ales & Co.,Port Moody,"['Bike Racks', 'Board Games', 'Cocktails', 'Craft Sodas', 'Growler Fills', 'Merchandise', 'Patio', 'Wheelchair Accessible', 'Wine']",https://bcaletrail.ca/breweries/moody-ales/,2601 Murray St,V3H 3R5,BC,6044923911,http://www.Moodyales.com,"['https://www.facebook.com/MoodyAles/', 'https://www.instagram.com/MoodyAles/', 'https://untappd.com/MoodyAles']",Canada
Mount Arrowsmith Brewing,Parksville,"['Growler Fills', 'Merchandise']",https://bcaletrail.ca/breweries/mount-arrowsmith-brewing-co/,425 Stanford Avenue East,N/A,BC,2509510125,https://arrowsmithbrewing.com/shop/,"['https://www.facebook.com/MABrewing', 'https://www.instagram.com/MABrewing/', 'https://untappd.com/MountArrowsmith']",Canada
Mountainview Brewing,Hope,"['Board Games', 'Cider', 'Cocktails', 'Craft Sodas', 'Food Truck(s)', 'GF Food Options', 'Growler Fills', 'Live Music', 'Merchandise', 'Patio', 'Snacks', 'Videogames', 'Wheelchair Accessible', 'Wine']",https://bcaletrail.ca/breweries/mountainview-brewing/,390 Old Hope Princeton Way,V0X 1L0,BC,2363551333,https://mountainviewbrewing.ca/,"['https://twitter.com/mtnviewbrewing', 'https://www.facebook.com/mtnviewbrewing/', 'https://www.instagram.com/mtnviewbrewing/', 'https://untappd.com/Mountainview_Brewing_Co']",Canada
Mt. Begbie Brewing,Revelstoke,"['Brewpub', 'Merchandise', 'Snacks']",https://bcaletrail.ca/breweries/mt-begbie-brewing-company/,2155 Oak Drive,V0E 2S1,BC,2508372756,http://mt-begbie.com,"['https://twitter.com/MtBegbiebeer', 'https://www.facebook.com/mtbegbiebeer/', 'https://www.instagram.com/mtbegbiebeer/', 'https://untappd.com/MtBegbieBrewingCo']",Canada
Neighbourhood Brewing,Penticton,"['Bike Racks', 'Board Games', 'Brewpub', 'Cider', 'Dog Friendly Patio', 'GF Food Options', 'Growler Fills', 'Guest Taps', 'Merchandise', 'Non Alc Beer Available', 'Patio', 'Spirits', 'Wheelchair Accessible', 'Wine']",https://bcaletrail.ca/breweries/neighbourhood-brewing/,187 Westminster Ave.,V2A 1J7,BC,7783800841,https://neighbourhoodbrewing.com/,"['https://www.facebook.com/NBHDBeer', 'https://www.instagram.com/nbhdbeer/', 'https://untappd.com/NeighbourhoodBrewing']",Canada
Nelson Brewing Company,Nelson,"['Bike Racks', 'Growler Fills', 'Merchandise', 'Patio', 'Snacks']",https://bcaletrail.ca/breweries/nelson-brewing-company/,512 Latimer St,V1L 4V1,BC,2503523582,http://nelsonbrewing.com,"['https://www.facebook.com/Nelson-Brewing-Company-192612907436095/', 'https://www.instagram.com/nelsonbrewingcompany/', 'https://untappd.com/w/nelson-brewing-company/902']",Canada
Noble Pig Brewhouse,Kamloops,"['Brewpub', 'Cider', 'Growler Fills', 'Wine']",https://bcaletrail.ca/breweries/the-noble-pig-brewhouse/,650 Victoria St,V2C 2B4,BC,7784715999,http://thenoblepig.ca,"['https://twitter.com/thenoblepigbrew', 'https://www.facebook.com/The-Noble-Pig-Brewhouse-101556243242933/', 'https://www.instagram.com/thenoblepigbrew/', 'https://untappd.com/w/noble-pig-brewhouse/8623']",Canada
North Point Brewing,North Vancouver,"['Growler Fills', 'Merchandise']",https://bcaletrail.ca/breweries/north-point-brewing/,266 1st Street East,V7L 1B3,BC,6042500234,https://www.northpointbrewing.com,"['https://www.facebook.com/northpointbrewing', 'https://www.instagram.com/northpointbrewing/', 'https://untappd.com/NorthPoint']",Canada
Northpaw Brew Co.,Port Coquitlam,"['Growler Fills', 'Merchandise', 'Snacks']",https://bcaletrail.ca/breweries/northpaw-brew-co/,2150-570 Sherling Pl,V3E 3G7,BC,6046445439,https://www.northpawbrewco.com/,"['https://twitter.com/northpawbrewco', 'https://www.facebook.com/northpawbrewco/', 'https://www.instagram.com/northpawbrewco/', 'https://untappd.com/NorthpawBrewCo']",Canada
Off The Rail Brewing Co,Vancouver,"['Growler Fills', 'Merchandise', 'Snacks']",https://bcaletrail.ca/breweries/off-the-rail-brewing-co/,1351 Adanac St,V5L 2C4,BC,6045635767,http://offtherailbrewing.com,"['https://twitter.com/offtherailbeer', 'https://www.facebook.com/Off-The-Rail-Brewing-Co-286997414805699/', 'https://www.instagram.com/offtherailbeer/', 'https://untappd.com/w/off-the-rail-brewing/186988']",Canada
The Office Brewery,Kelowna,"['Bike Racks', 'Board Games', 'Brewpub', 'Cider', 'Cocktails', 'Craft Sodas', 'Growler Fills', 'Guest Taps', 'Merchandise', 'Non Alc Beer Available', 'Patio', 'Wheelchair Accessible', 'Wine']",https://bcaletrail.ca/breweries/the-office-brewery/,301 - 890 Clement Ave,V1Y 7E4,BC,N/A,https://officebrewery.ca/,"['https://www.facebook.com/theofficebrewery', 'https://www.instagram.com/theofficebrewery/']",Canada
Old Abbey Ales,Abbotsford,"['Board Games', 'Cider', 'Craft Sodas', 'Dog Friendly Patio', 'Growler Fills', 'Guest Taps', 'Merchandise', 'Patio', 'Wheelchair Accessible']",https://bcaletrail.ca/breweries/old-abbey-ales/,1A - 30321 Fraser Hwy,V4X 1T3,BC,6046075104,http://oldabbeyales.com,"['https://www.instagram.com/oldabbeyalesbrewery/', 'https://untappd.com/OldAbbeyAles']",Canada
Old Yale Brewing,Chilliwack,"['Board Games', 'Cider', 'Cocktails', 'GF Food Options', 'Growler Fills', 'Live Music', 'Merchandise', 'Patio', 'Wine']",https://bcaletrail.ca/breweries/old-yale-brewing-co/,44550 S Sumas Rd #404,V2R 5M3,BC,6043922011,http://oldyalebrewing.com,"['https://twitter.com/oldyalebrewing', 'https://www.facebook.com/oldyalebrewing/', 'https://www.instagram.com/oldyalebrewing/', 'https://untappd.com/oldyalebrewing']",Canada
Old Yale Brewing Abbotsford,Abbotsford,"['Brewpub', 'Cider', 'Cocktails', 'Growler Fills', 'Guest Taps', 'Live Music', 'Merchandise', 'Patio', 'Videogames', 'Wheelchair Accessible', 'Wine']",https://bcaletrail.ca/breweries/old-yale-brewing-abbotsford/,33738 Laurel Street,V2S 1X2,BC,6043922011,https://www.oldyalebrewing.com/old-yale-abbotsford,"['https://twitter.com/oldyalebrewing', 'https://www.facebook.com/oldyalebrewing/', 'https://www.instagram.com/oldyalebrewing/', 'https://untappd.com/oldyalebrewing']",Canada
Over Time Beer Works,Kimberley,"['Growler Fills', 'Merchandise', 'Patio', 'Snacks']",https://bcaletrail.ca/breweries/over-time-beer-works/,136 Wallinger Ave,V1A 1Y8,BC,2504272426,http://overtimebeer.ca,"['https://twitter.com/OverTimeBeer', 'https://www.facebook.com/OverTimeBeer/', 'https://www.instagram.com/overtimebeer/', 'https://untappd.com/OverTimeBeerWorks']",Canada
Parallel 49 Brewing,Vancouver,"['Growler Fills', 'Merchandise', 'Wheelchair Accessible']",https://bcaletrail.ca/breweries/parallel-49-brewing/,1950 Triumph St,V5L 1K5,BC,6045582739,http://parallel49brewing.com,"['https://twitter.com/parallel49beer', 'https://www.facebook.com/parallel49brewing/', 'https://www.instagram.com/parallel49beer/', 'https://untappd.com/Parallel49Brewing']",Canada
The Parkside Brewery,Port Moody,"['Dog Friendly Patio', 'Food Truck(s)', 'Growler Fills', 'Merchandise', 'Patio', 'Snacks']",https://bcaletrail.ca/breweries/parkside-brewery/,2731 Murray St,V3H 3R5,BC,6044922731,http://theparksidebrewery.com,"['https://twitter.com/parksidebrewery', 'https://www.facebook.com/parksidebrewery/', 'https://www.instagram.com/parksidebrewery/', 'https://untappd.com/w/the-parkside-brewery/256503']",Canada
The Patch Brewery,Maple Ridge,"['Cider', 'Gluten-Free Beer', 'Patio']",https://bcaletrail.ca/breweries/the-patch-brewery/,12745 Laity St,V4R 2P3,BC,N/A,https://thepatchbrewery.com/,"['https://www.facebook.com/p/The-Patch-Brewery-100063584870966/', 'https://www.instagram.com/thepatchbrewery']",Canada
Patina Brewing,Port Coquitlam,"['Brewpub', 'Cider', 'Cocktails', 'Growler Fills', 'Live Music', 'Merchandise', 'Wine']",https://bcaletrail.ca/breweries/patina-brewing/,2332 Marpole Avenue,V3C 2A2,BC,6044740025,https://patinabrewing.com/,"['https://www.facebook.com/PatinaBrewing', 'https://www.instagram.com/patinabrewing/', 'https://untappd.com/PatinaBrewingCompany']",Canada
Pemberton Brewing Co.,Pemberton,"['Bike Racks', 'Board Games', 'Cider', 'Craft Sodas', 'Growler Fills', 'Live Music', 'Merchandise', 'Patio', 'Snacks', 'Wheelchair Accessible']",https://bcaletrail.ca/breweries/pemberton-brewing/,1936 Stonecutter Place Units 5 and 6,V0N 2K0,BC,6048942337,http://www.pembertonbrewing.ca/,"['https://www.facebook.com/pembertonbrewingco/', 'https://www.instagram.com/pembertonbrewingco/', 'https://untappd.com/PembertonBrewingCo']",Canada
Persephone Brewing,Gibsons,"['Bike Racks', 'Board Games', 'Brewpub', 'Cider', 'Cocktails', 'Food Truck(s)', 'Growler Fills', 'Guest Taps', 'Merchandise', 'Patio', 'Snacks', 'Wheelchair Accessible', 'Wine']",https://bcaletrail.ca/breweries/persephone-brewing-co/,1053 Stewart Rd,V0N 1V7,BC,7784623007,http://persephonebrewing.com,"['https://twitter.com/Persephonebeer', 'https://www.facebook.com/PersephoneBrewing/', 'https://www.instagram.com/persephonebrewing/', 'https://untappd.com/PersephoneBrewingCompany']",Canada
Phillips Brewing & Malting Co.,Victoria,"['Bike Racks', 'Board Games', 'Cider', 'Cocktails', 'Craft Sodas', 'GF Food Options', 'Growler Fills', 'Guest Taps', 'Live Music', 'Merchandise', 'Patio', 'Spirits', 'Wheelchair Accessible']",https://bcaletrail.ca/breweries/phillips-brewing-malting-co/,2010 Government St,V8T 4P1,BC,2503801912,http://phillipsbeer.com,"['https://twitter.com/phillipsbeer', 'https://www.facebook.com/phillipsbeer/', 'https://www.instagram.com/phillipsbeer/', 'https://untappd.com/w/phillips-brewing-company/1472']",Canada
Poco Brothers Brewing Co,Port Coquitlam,"['Cider', 'Cocktails', 'Craft Sodas', 'Dog Friendly Patio', 'GF Food Options', 'Guest Taps', 'Non Alc Beer Available', 'Patio', 'Wheelchair Accessible', 'Wine']",https://bcaletrail.ca/breweries/poco-brothers-brewing-co/,1979 Brown St,V3C 2N4,BC,6049418822,https://pocobrothersbrewing.com/,"['https://www.facebook.com/PoCoBrosBrews', 'https://www.instagram.com/pocobrothersbrewing', 'https://untappd.com/PocoBrothersBrewing']",Canada
Post & Row Brewing Co.,Dawson Creek,"['Brewpub', 'Cider', 'GF Food Options', 'Growler Fills', 'Guest Taps', 'Live Music', 'Wheelchair Accessible', 'Wine']",https://bcaletrail.ca/breweries/post-row-brewing/,801 102 Ave,V1G 2B4,BC,7788430356,https://postandrow.ca/,"['https://www.facebook.com/postandrow/', 'https://www.instagram.com/postandrow/']",Canada
Powell Brewery,Vancouver,"['Board Games', 'Cider', 'Craft Sodas', 'Food Truck(s)', 'Gluten-Free Beer', 'Growler Fills', 'Merchandise', 'Patio', 'Snacks', 'Videogames']",https://bcaletrail.ca/breweries/powell-street-craft-brewery/,1357 Powell St,V5L 1G8,BC,6045582537,http://powellbeer.com,"['https://twitter.com/powellbeer', 'https://www.facebook.com/powellbeer/', 'https://www.instagram.com/powellbeer/', 'https://untappd.com/PSCB']",Canada
RAD Brewing,Comox,"['Bike Racks', 'Brewpub', 'Cider', 'Cocktails', 'Craft Sodas', 'Growler Fills', 'Guest Taps', 'Live Music']",https://bcaletrail.ca/breweries/rad-brewing-co/,Unit 11,V9M 3M9,BC,N/A,https://radbrewco.com/,"['https://www.facebook.com/radbrewcomox', 'https://www.instagram.com/radbrewcomox/?fbclid=IwAR1jtpxpnx0PFIRFIyddsQN67moQCLQxeD-VEK5wRB6Y9HpluX2GlFLJpDs']",Canada
Radium Brewing,Radium Hot Springs,"['Live Music', 'Snacks', 'Wheelchair Accessible']",https://bcaletrail.ca/breweries/radium-brewing/,7537 Main Street West,V0A 1M0,BC,2506888091,https://www.radiumbrewing.ca/,"['https://www.facebook.com/RadiumBrewing', 'https://www.instagram.com/radiumbrewing/']",Canada
Railside Brewing,Kelowna,"['Bike Racks', 'Board Games', 'Cider', 'Cocktails', 'Craft Sodas', 'Food Truck(s)', 'Patio', 'Wheelchair Accessible', 'Wine']",https://bcaletrail.ca/breweries/railside-brewing-ltd/,1186 High Road,V1Y 7B1,BC,N/A,https://www.railsidebrewing.ca/,"['https://www.facebook.com/profile.php?id=100084425877565', 'https://www.instagram.com/railsidebrewingkelowna/']",Canada
Ravens Brewing Company,Abbotsford,"['Cocktails', 'Growler Fills', 'Merchandise', 'Snacks', 'Wheelchair Accessible', 'Wine']",https://bcaletrail.ca/breweries/ravens-brewing-company/,37455 Kilgard Road,V3G 0H8,BC,2364834028,http://ravensbrewing.com,"['https://twitter.com/ravensbrewing', 'https://www.facebook.com/ravensbrewing/', 'https://www.instagram.com/ravensbrewing/', 'https://untappd.com/RavensBrewingCompany']",Canada
R&B Brewing,Vancouver,"['Growler Fills', 'Merchandise', 'Wine']",https://bcaletrail.ca/breweries/rb-brewing-co/,54 E 4th Ave,V5T 1E8,BC,6048742537,http://randbbrewing.com,"['https://www.facebook.com/RBBrewing/', 'https://www.instagram.com/RBBrewing/', 'https://untappd.com/RandBBrewingCo']",Canada
Red Arrow Brewing,Duncan,"['Cider', 'Cocktails', 'Food Truck(s)', 'Growler Fills', 'Live Music', 'Patio', 'Videogames', 'Wheelchair Accessible', 'Wine']",https://bcaletrail.ca/breweries/red-arrow-brewing-company/,5255 Chaster Rd,V0R 2C0,BC,2505970037,http://redarrowbeer.ca,"['https://twitter.com/RedArrowBeer', 'https://www.facebook.com/redarrowbrewing/', 'https://www.instagram.com/redarrowbeer/', 'https://untappd.com/RedArrowBeer']",Canada
Red Bird Brewing,Kelowna,[],https://bcaletrail.ca/breweries/red-bird-brewing/,1086 Richter Street,V1Y 2K5,BC,N/A,https://redbirdbrewing.com/,"['https://twitter.com/redbirdbeer', 'https://www.facebook.com/redbirdbeer/', 'https://www.instagram.com/redbirdbeer/', 'https://untappd.com/w/red-bird-brewing/359293']",Canada
Red Collar Brewing,Kamloops,"['Growler Fills', 'Merchandise']",https://bcaletrail.ca/breweries/red-collar-brewing-co/,355 Lansdowne St,V2C 1X9,BC,7784710174,http://redcollar.ca,"['https://twitter.com/redcollarbrew', 'https://www.facebook.com/redcollarbrewery/', 'https://www.instagram.com/redcollarbrewing/', 'https://untappd.com/RedCollarBrewingCo']",Canada
Red Truck Beer Company,Vancouver,"['Brewpub', 'Growler Fills', 'Merchandise']",https://bcaletrail.ca/breweries/red-truck-beer-company/,295 E 1st Ave,V5T 1A7,BC,6046824733,http://redtruckbeer.com,"['https://www.facebook.com/RedTruckBeer/', 'https://www.instagram.com/redtruckbeer/', 'https://untappd.com/RedTruckBeerCompany']",Canada
Rewind Beer Co.,Port Moody,"['Cider', 'Food Truck(s)', 'Patio', 'Snacks', 'Wheelchair Accessible', 'Wine']",https://bcaletrail.ca/breweries/rewind-beer-co/,2809 Murray St,V3H 1X3,BC,2364660226,https://rewindbeer.com/,"['https://www.facebook.com/rewindbeer', 'https://www.instagram.com/rewindbeer/']",Canada
Ricochet Brewing and Taphouse,Salmon Arm,"['Non Alc Beer Available', 'Patio', 'Wheelchair Accessible']",https://bcaletrail.ca/breweries/ricochet-brewing-and-taphouse/,310 Hudson Ave,V1E 4N2,BC,2508036829,https://ricochetbrewing.com/,"['https://www.facebook.com/ricochet.brewing.ca', 'https://www.instagram.com/ricochet.brewing']",Canada
Rossland Beer Company,Rossland,"['Food Truck(s)', 'Growler Fills', 'Merchandise', 'Snacks']",https://bcaletrail.ca/breweries/rossland-beer-company/,1990F Columbia Avenue,V0G 1Y0,BC,2503622122,http://rosslandbeer.com,"['https://twitter.com/RosslandBeer', 'https://www.facebook.com/RosslandBeer/', 'https://www.instagram.com/rosslandbeerco/', 'https://untappd.com/w/rossland-beer-company/146910']",Canada
Rumpus Beer Co,Revelstoke,"['Growler Fills', 'Merchandise', 'Snacks']",https://bcaletrail.ca/breweries/rumpus-beer-co/,208 1st Street E,N/A,BC,2506838100,http://www.rumpusbeerco.com,"['https://www.facebook.com/rumpusbeercompany/', 'https://www.instagram.com/rumpusbeerco/', 'https://untappd.com/w/rumpus-beer-company/434488']",Canada
Russell Brewing Company,Surrey,"['Cider', 'Growler Fills', 'Merchandise', 'Wheelchair Accessible']",https://bcaletrail.ca/breweries/russell-brewing-company/,#100 - 13018 80 Ave,V3W 3B2,BC,2365989951,http://russellbeer.com,"['https://twitter.com/Russell_Beer', 'https://www.facebook.com/Russell.Brewing/', 'https://www.instagram.com/russell_beer/', 'https://untappd.com/russell_beer']",Canada
Rusted Rake Brewing,Nanoose Bay,"['Bike Racks', 'Brewpub', 'Cider', 'Cocktails', 'Craft Sodas', 'Dog Friendly Patio', 'GF Food Options', 'Growler Fills', 'Live Music', 'Merchandise', 'Non Alc Beer Available', 'Patio', 'Snacks', 'Spirits', 'Wheelchair Accessible', 'Wine']",https://bcaletrail.ca/breweries/rusted-rake-brewing/,3106 Northwest Bay Road,V9P 9E6,BC,2508211934,https://rustedrakebrewing.ca/,"['https://www.facebook.com/rustedrakebrewing/', 'https://www.instagram.com/rustedrakebrewing/']",Canada
Rustic Reel Brewing Co,Kelowna,"['Brewpub', 'Cider', 'Cocktails', 'GF Food Options', 'Gluten-Free Beer', 'Growler Fills', 'Live Music', 'Merchandise', 'Snacks', 'Wine']",https://bcaletrail.ca/breweries/rustic-reel-brewing-co/,760 Vaughan Ave,V1Y 7E4,BC,2508623737,http://www.rusticreel.com,"['https://www.facebook.com/rusticreel/', 'https://www.instagram.com/rusticreel', 'https://untappd.com/w/rustic-reel-brewing-co/442195']",Canada
Salt Spring Brewing Co.,Salt Spring Island,"['Growler Fills', 'Merchandise', 'Patio']",https://bcaletrail.ca/breweries/salt-spring-island-ales/,270 Furness Rd,V8K 1Z7,BC,18443887742,https://www.saltspringbrewing.com/,"['https://twitter.com/saltspringales', 'https://www.facebook.com/saltspringbrewery', 'https://www.instagram.com/saltspringbrewery/', 'https://untappd.com/SaltSpringIslandAles']",Canada
Shaketown Brewing,North Vancouver,"['Cider', 'Live Music', 'Merchandise', 'Snacks', 'Wine']",https://bcaletrail.ca/breweries/shaketown-brewing/,#105 - 288 Esplanade Ave E,V7M 1A1,BC,N/A,https://shaketownbrewing.com/,"['https://mobile.twitter.com/shaketownbeer', 'https://www.instagram.com/shaketownbeer/', 'https://untappd.com/ShaketownBrewing']",Canada
Sherwood Mountain Brewhouse,Terrace,"['Bike Racks', 'Cider', 'Dog Friendly Patio', 'Growler Fills', 'Live Music', 'Merchandise', 'Snacks', 'Spirits', 'Wheelchair Accessible', 'Wine']",https://bcaletrail.ca/breweries/sherwood-mountain-brewhouse/,101 - 4816 Highway 16 W,V8G 1L6,BC,2506350080,http://sherwoodmountain.beer,"['https://twitter.com/SherwoodMtn', 'https://www.facebook.com/SherwoodMountainBrewhouse', 'https://www.instagram.com/sherwoodmountainbeer/', 'https://untappd.com/w/sherwood-mountain-brewhouse/175106']",Canada
Shore Line Brewing,Kelowna,"['Bike Racks', 'Cider', 'Cocktails', 'GF Food Options', 'Growler Fills', 'Merchandise', 'Patio', 'Videogames', 'Wine']",https://bcaletrail.ca/breweries/shore-line-brewing/,#116-3477 Lakeshore Road,V1W 0A7,BC,7789406802,https://www.shorelinebrewing.com/,"['https://www.facebook.com/shorelinebrewingco/', 'https://www.instagram.com/shorelinebrewingco/', 'https://untappd.com/ShoreLineBrewingCo#']",Canada
Sidekick Brewing,Chilliwack,"['Bike Racks', 'Board Games', 'Brewpub', 'Cider', 'Craft Sodas', 'GF Food Options', 'Growler Fills', 'Live Music', 'Merchandise', 'Non Alc Beer Available', 'Patio', 'Snacks', 'Wheelchair Accessible', 'Wine']",https://bcaletrail.ca/breweries/sidekick-brewing/,#106 - 45530 Vedder Mountain Rd,V2R 4C3,BC,6048472023,https://www.sidekickbrewing.com/,"['https://www.facebook.com/SidekickBrewingBC', 'https://www.instagram.com/sidekickbrewingbc/']",Canada
Silverstar Brewing Company,Vernon,"['Bike Racks', 'Board Games', 'Brewpub', 'Cider', 'Cocktails', 'Craft Sodas', 'Dog Friendly Patio', 'GF Food Options', 'Growler Fills', 'Guest Taps', 'Live Music', 'Merchandise', 'Patio', 'Spirits', 'Wheelchair Accessible', 'Wine']",https://bcaletrail.ca/breweries/silverstar-brewing-company/,2933 30th Ave,V1T 2B8,BC,7784755115,https://silverstarbrewing.com/,"['https://www.facebook.com/silverstarbrewing', 'https://www.instagram.com/silverstarbrewing/']",Canada
Slackwater Brewing,Penticton,[],https://bcaletrail.ca/breweries/slackwater-brewing/,218 Martin Street - PRODUCTION FACILITY ONLY,V2A 5K3,BC,N/A,http://www.slackwaterbrewing.com,"['https://www.facebook.com/slackwaterbrewing', 'https://www.instagram.com/slackwaterbrewing', 'https://untappd.com/SlackwaterBrewing']",Canada
Slow Hand Beer Co.,Vancouver,"['Bike Racks', 'Cider', 'Craft Sodas', 'Dog Friendly Patio', 'Merchandise', 'Non Alc Beer Available', 'Patio', 'Snacks', 'Wine']",https://bcaletrail.ca/breweries/slow-hand-beer/,1830 Powell St,V5L 1H9,BC,7788192252,https://www.slowhandbeer.com/,"['https://www.facebook.com/slowhandbeer', 'https://www.instagram.com/slowhandbeer/', 'https://untappd.com/SHBCo']",Canada
Small Gods Brewing,Sidney,"['Bike Racks', 'Brewpub', 'Cider', 'Cocktails', 'Craft Sodas', 'Merchandise', 'Non Alc Beer Available', 'Patio', 'Wheelchair Accessible', 'Wine']",https://bcaletrail.ca/breweries/small-gods-brewing-co/,9835 Third Street,N/A,BC,N/A,https://smallgods.ca/,"['https://twitter.com/SmallGodsBrew', 'https://www.facebook.com/smallgodsbrewing', 'https://www.instagram.com/smallgodsbrewing/?hl=en']",Canada
Smithers Brewing Company,Smithers,"['Growler Fills', 'Merchandise', 'Snacks']",https://bcaletrail.ca/breweries/smithers-brewing/,3832 3 Ave,V0J 2N0,BC,7786402739,https://www.smithersbrewing.com,"['https://www.facebook.com/smithersbrewing/', 'https://www.instagram.com/smithersbrewing/', 'https://untappd.com/SmithersBrewingCo']",Canada
Smugglers Trail Caskworks,Langley,"['Bike Racks', 'Board Games', 'Brewpub', 'Cider', 'Cocktails', 'Craft Sodas', 'Dog Friendly Patio', 'Growler Fills', 'Guest Taps', 'Live Music', 'Merchandise', 'Patio', 'Spirits', 'Wheelchair Accessible', 'Wine']",https://bcaletrail.ca/breweries/smugglers-trail-caskworks/,140 - 9339 200A St,V1M 0B3,BC,7787051880,https://smugglerstrailcask.com/,"['https://twitter.com/smugglerstrail', 'https://www.facebook.com/smugglers.trail.beer/', 'https://www.instagram.com/smugglerstrail/', 'https://untappd.com/smugglerstrail']",Canada
Sooke Brewing Company,Sooke,"['Food Truck(s)', 'Growler Fills', 'Merchandise']",https://bcaletrail.ca/breweries/sooke-brewing-company/,2057 Otter Point Road,N/A,BC,2506420106,http://sookebrewing.com,"['https://twitter.com/SookeBrewingCo', 'https://www.facebook.com/sookebrewing/', 'https://www.instagram.com/sookebrewing/', 'https://untappd.com/SookeBrewingCompany']",Canada
Sooke Oceanside Brewery,Sooke,"['Cider', 'Food Truck(s)', 'Growler Fills', 'Merchandise', 'Wine']",https://bcaletrail.ca/breweries/sooke-oceanside-brewery/,5871 - A Sooke Road,V9Z 0C7,BC,7783522739,http://sookeoceansidebrewery.com,"['https://twitter.com/sookebrew', 'https://www.facebook.com/sookebrew/', 'https://www.instagram.com/Sookebrew/', 'https://untappd.com/SookeOceansideBrewery']",Canada
Spinnakers Brewpub,Victoria,"['Brewpub', 'Cider', 'Growler Fills', 'Merchandise', 'Wine']",https://bcaletrail.ca/breweries/spinnakers-brewpub/,308 Catherine St,V9A 3S8,BC,2503862739,http://spinnakers.com,"['https://twitter.com/spinnakers', 'https://www.facebook.com/spinnakersbrewpub/', 'https://www.instagram.com/spinnakersbrewpub/', 'https://untappd.com/Spinnakers']",Canada
Steamworks Brew Pub,Vancouver,"['Brewpub', 'GF Food Options', 'Patio', 'Wheelchair Accessible']",https://bcaletrail.ca/breweries/steamworks-brewpub/,375 Water St,N/A,BC,6046892739,http://steamworks.com/brew-pub,"['https://www.facebook.com/Steamworks/', 'https://www.instagram.com/steamworksbrewpub/', 'https://untappd.com/v/steamworks-brewing-company/22757']",Canada
Steamworks Brewing Co – Burnaby Brewery & Taproom,Burnaby,"['Bike Racks', 'Board Games', 'Cider', 'Craft Sodas', 'Food Truck(s)', 'Growler Fills', 'Merchandise', 'Non Alc Beer Available', 'Patio', 'Wheelchair Accessible', 'Wine']",https://bcaletrail.ca/breweries/steamworks-brewing-co/,3845 William St,V5C 3J1,BC,N/A,https://steamworks.com/the-brewery/,"['https://www.facebook.com/steamworksbeer/', 'https://www.instagram.com/steamworksbeer/', 'https://untappd.com/steamworks']",Canada
Steel & Oak Brewing,New Westminster,"['Cider', 'Growler Fills', 'Merchandise', 'Snacks']",https://bcaletrail.ca/breweries/steel-oak-brewing-co/,1319 3rd Ave,V3M 1R2,BC,6045406495,http://steelandoak.ca,"['https://twitter.com/steelandoak', 'https://www.facebook.com/steelandoak/', 'https://www.instagram.com/steelandoak/', 'https://untappd.com/SteelAndOak']",Canada
Storm Brewing,Vancouver,"['Growler Fills', 'Merchandise']",https://bcaletrail.ca/breweries/storm-brewing-ltd/,310 Commercial Dr,V5L 1T1,BC,6042559119,http://stormbrewing.org,"['https://twitter.com/stormbrewingvan', 'https://www.facebook.com/stormbrewing/', 'https://www.instagram.com/stormbrewing/', 'https://untappd.com/w/storm-brewing-british-columbia/1210']",Canada
Strange Fellows Brewing,Vancouver,"['Cider', 'Growler Fills', 'Merchandise', 'Snacks']",https://bcaletrail.ca/breweries/strange-fellows-brewing/,1345 Clark Dr,V5L 3K8,BC,6042150092,http://strangefellowsbrewing.com,"['https://twitter.com/Strange_Fellows', 'https://www.facebook.com/strangefellowsbrewing/', 'https://www.instagram.com/strangefellowsbrewing/', 'https://untappd.com/StrangeFellowsBrewing']",Canada
Strathcona Beer Co.,Vancouver,"['Brewpub', 'Growler Fills', 'Merchandise']",https://bcaletrail.ca/breweries/strathcona-beer-company/,895 E Hastings St,V6A 3Y1,BC,7783799050,http://strathconabeer.com,"['https://twitter.com/strathconabeer', 'https://www.facebook.com/strathconabeer/', 'https://www.instagram.com/strathconabeer/', 'https://untappd.com/w/strathcona-beer-company/283978']",Canada
Superflux Beer Co.,Vancouver,[],https://bcaletrail.ca/breweries/superflux-beer-co/,505 Clark Dr,V5L 3H7,BC,N/A,https://www.superfluxbeer.com/,"['https://www.instagram.com/superfluxbeer/', 'https://untappd.com/SuperfluxBeerCompany']",Canada
Swift Brewing,Victoria,"['Brewpub', 'Cider', 'Cocktails', 'Dog Friendly Patio', 'Guest Taps', 'Merchandise', 'Non Alc Beer Available', 'Patio', 'Snacks', 'Videogames', 'Wheelchair Accessible', 'Wine']",https://bcaletrail.ca/breweries/swift-brewing/,450 Swift St,V8W 1S3,BC,N/A,http://swiftbrewing.ca,"['https://www.facebook.com/SwiftBeer', 'https://www.instagram.com/swiftbeer/', 'https://untappd.com/w/swift-brewing/541900']",Canada
Switchback Brewing,Maple Ridge,"['Food Truck(s)', 'Growler Fills', 'Merchandise', 'Snacks']",https://bcaletrail.ca/breweries/switchback-brewing/,22775 Dewdney Trunk Rd,V2X 3K4,BC,6044790999,https://www.switchbackbrewco.com/,"['https://www.facebook.com/profile.php?id=61558280696857', 'https://www.instagram.com/switchbackbrewingcanada/']",Canada
Tailout Brewing,Trail,"['Bike Racks', 'Brewpub', 'Cider', 'Cocktails', 'Food Truck(s)', 'Growler Fills', 'Non Alc Beer Available', 'Patio', 'Spirits', 'Wheelchair Accessible', 'Wine']",https://bcaletrail.ca/breweries/tailout-brewing/,1299 Bay Avenue,V1R 4A5,BC,2506089056,http://www.tailoutbrewing.com,"['https://www.facebook.com/tailoutbrewing/', 'https://www.instagram.com/tailoutbrewing/', 'https://untappd.com/TailoutBrewing']",Canada
Tapworks Brewing Company,Gibsons,"['Brewpub', 'Cider', 'Craft Sodas', 'GF Food Options', 'Growler Fills', 'Live Music', 'Merchandise', 'Patio', 'Videogames', 'Wheelchair Accessible', 'Wine']",https://bcaletrail.ca/breweries/tapworks-brewing-company/,537 Cruice Lane,V0N 1V9,BC,7784622337,http://www.gibsonstapworks.com/delivery,"['https://twitter.com/tapworksbrewing', 'https://www.facebook.com/tapworksbrewing/', 'http://www.instagram.com/tapworksbrewing', 'https://untappd.com/w/gibsons-tapworks-brewing/320257']",Canada
Taylight Brewing,Port Coquitlam,"['Bike Racks', 'Board Games', 'Cider', 'Craft Sodas', 'Dog Friendly Patio', 'Food Truck(s)', 'Gluten-Free Beer', 'Growler Fills', 'Live Music', 'Merchandise', 'Non Alc Beer Available', 'Snacks', 'Spirits', 'Wheelchair Accessible', 'Wine']",https://bcaletrail.ca/breweries/taylight-brewing/,402 - 1485 Coast Meridian Road,V3C 5P1,BC,6042831944,http://taylightbrewing.com/,"['https://www.facebook.com/taylightbrewing/', 'https://www.instagram.com/taylight_brewing', 'https://untappd.com/Taylight_Brewing']",Canada
Three Lakes Brewing,Kelowna,"['Cider', 'Growler Fills', 'Guest Taps', 'Non Alc Beer Available', 'Snacks', 'Wheelchair Accessible', 'Wine']",https://bcaletrail.ca/breweries/three-lakes-brewing-co/,#7 - 2030 Matrix Crescent,V1V 0G5,BC,2508085430,https://threelakesbrewing.com/,"['https://www.facebook.com/threelakesbrewing', 'https://www.instagram.com/threelakesbrewing/']",Canada
Three Ranges Brewing Company,Valemount,"['Cider', 'Food Truck(s)', 'Growler Fills', 'Merchandise', 'Snacks', 'Wine']",https://bcaletrail.ca/breweries/three-ranges-brewing-company/,1160 5th Avenue,N/A,BC,2505660024,https://threeranges.com/,"['https://twitter.com/threeranges', 'https://www.facebook.com/ThreeRangesBrewingCompany/', 'https://www.instagram.com/threerangesbrewing/', 'https://untappd.com/ThreeRanges']",Canada
Tin Whistle Brewing,Penticton,"['Bike Racks', 'Board Games', 'Dog Friendly Patio', 'Growler Fills', 'Merchandise', 'Non Alc Beer Available', 'Patio', 'Snacks']",https://bcaletrail.ca/breweries/tin-whistle-brewing-co/,1475 Fairview Rd,V2A 7W5,BC,2507701122,https://www.tinwhistlebrewery.com/,"['https://twitter.com/tinwhistlebrew', 'https://www.facebook.com/TinWhistleBrew/', 'https://www.instagram.com/thetinwhistle/', 'https://untappd.com/w/tin-whistle-brewing-company/6156']",Canada
Tinhouse Brewing,Port Coquitlam,"['Food Truck(s)', 'Growler Fills', 'Live Music', 'Merchandise', 'Videogames', 'Wheelchair Accessible']",https://bcaletrail.ca/breweries/tinhouse-brewing/,#2140-550 Sherling Place,V3B 0J6,BC,6044743434,http://www.tinhousebrewing.ca/,"['https://twitter.com/tinhousebrewing', 'https://www.facebook.com/TinHouseBrewing', 'https://www.instagram.com/tinhousebrewing']",Canada
Tofino Brewing,Tofino,"['Food Truck(s)', 'Growler Fills', 'Merchandise', 'Patio']",https://bcaletrail.ca/breweries/tofino-brewing/,691 Industrial Way,V0R 2Z0,BC,2507252899,http://tofinobrewingco.com,"['https://twitter.com/TofinoBrewCo', 'https://www.facebook.com/TofinoBrewCo/', 'https://www.instagram.com/tofinobrewco/', 'https://untappd.com/TofinoBrewingCompany']",Canada
Torchlight Brewing,Nelson,"['Board Games', 'Brewpub', 'Cider', 'Cocktails', 'GF Food Options', 'Growler Fills', 'Merchandise', 'Wine']",https://bcaletrail.ca/breweries/torchlight-brewing-co/,125 Hall Street,V1L 7B4,BC,2503520094,http://www.torchlightbrewing.com/,"['https://twitter.com/Brew_Torchlight', 'https://www.facebook.com/brewtorchlight/', 'https://www.instagram.com/torchlightbrewing', 'https://untappd.com/TorchlightBrewingCompany']",Canada
Townsite Brewing,Powell River,"['Cider', 'Growler Fills', 'Merchandise', 'Snacks']",https://bcaletrail.ca/breweries/townsite-brewing/,5824 Ash Ave,V8A 4R4,BC,6044832111,http://townsitebrewing.com/,"['https://twitter.com/townsitebrewing', 'https://www.facebook.com/townsitebrewing/', 'https://www.instagram.com/townsitebrewing/', 'https://www.untappd.com/TownsiteBrewing']",Canada
Trading Post Brewing,Langley,"['Cider', 'GF Food Options', 'Growler Fills', 'Live Music', 'Merchandise', 'Patio', 'Snacks', 'Wine']",https://bcaletrail.ca/breweries/trading-post-brewing/,#107 - 20120 64 Avenue,V2Y 1M7,BC,6043432337,http://tradingpostbrewing.com,"['https://twitter.com/tradingpostbrew', 'https://www.facebook.com/TradingPostBrewing/', 'https://www.instagram.com/tradingpostbrewing/', 'https://untappd.com/TradingPostBrewing']",Canada
Trench Brewing & Distilling,Prince George,"['Growler Fills', 'Merchandise', 'Snacks']",https://bcaletrail.ca/breweries/trench-brewing-distilling/,399 2nd Ave,N/A,BC,2364230065,http://www.trenchbrew.ca,"['https://twitter.com/trenchbrewing', 'https://www.facebook.com/trenchbrew/', 'https://www.instagram.com/trenchbrewing/', 'https://untappd.com/TrenchBrew']",Canada
Twa Dogs Brewery at Macaloney’s Island Distillery,Victoria,"['Bike Racks', 'Board Games', 'Craft Sodas', 'Dog Friendly Patio', 'Gluten-Free Beer', 'Growler Fills', 'Guest Taps', 'Live Music', 'Merchandise', 'Snacks', 'Spirits']",https://bcaletrail.ca/breweries/twa-dogs-brewery/,761 Enterprise Crescent,N/A,BC,7784010410,https://macaloneydistillers.com/lounge/,"['https://www.facebook.com/twadogsbrewery', 'https://www.instagram.com/twadogsbrewery/', 'https://untappd.com/TwaDogsBeer']",Canada
Twin City Brewing Co,Port Alberni,"['Brewpub', 'Growler Fills', 'Live Music', 'Merchandise', 'Wheelchair Accessible']",https://bcaletrail.ca/breweries/twin-city-brewing-company/,4503 Margaret St,V9Y 6G8,BC,7784192739,http://twincitybrewing.ca,"['https://twitter.com/twincitybrewing', 'https://www.facebook.com/twincitybrew/', 'https://www.instagram.com/twincitybrewing/', 'https://untappd.com/TwinCityBrewing']",Canada
Twin Sails Brewing,Port Moody,"['Food Truck(s)', 'Growler Fills', 'Merchandise', 'Snacks']",https://bcaletrail.ca/breweries/twin-sails-brewing/,2821 Murray St,V3H 1X3,BC,6044924234,http://twinsailsbrewing.com,"['https://twitter.com/TwinSailsBeer', 'https://www.facebook.com/TwinSailsBrewing/', 'https://www.instagram.com/twinsailsbeer/', 'https://untappd.com/TwinSailsBrewing']",Canada
Two Peaks Brewing,Kitimat,"['Cocktails', 'Growler Fills', 'Guest Taps', 'Patio', 'Wheelchair Accessible']",https://bcaletrail.ca/breweries/two-peaks-brewing/,578 Mountainview Sq,V8C 1T5,BC,7786312739,https://twopeaksbrewing.ca/,"['https://www.facebook.com/profile.php?id=100063740327983', 'https://www.instagram.com/twopeaksbrewing/']",Canada
Ucluelet Brewing,Ucluelet,"['Bike Racks', 'Board Games', 'Brewpub', 'Cider', 'GF Food Options', 'Growler Fills', 'Guest Taps', 'Live Music', 'Merchandise', 'Non Alc Beer Available', 'Patio', 'Snacks', 'Wheelchair Accessible', 'Wine']",https://bcaletrail.ca/breweries/ucluelet-brewing/,1601 Peninsula Rd,N/A,BC,2507260499,https://uclueletbrewing.ca/,"['https://twitter.com/BrewUkee', 'https://www.facebook.com/pg/brewukee', 'https://www.instagram.com/ucluelet_brewing_co/', 'https://untappd.com/UclueletBrewing']",Canada
Unleashed Brewing,Kelowna,"['Cider', 'Growler Fills', 'Merchandise', 'Snacks', 'Wine']",https://bcaletrail.ca/breweries/unleashed-brewing/,207-880 Clement Ave,V1Y 0H8,BC,2507178817,https://unleashedbrewing.ca/,"['https://www.facebook.com/unleashedbrewingco/', 'https://www.instagram.com/unleashedbrewingco/']",Canada
Vancouver Island Brewing,Victoria,[],https://bcaletrail.ca/breweries/vi-brewing/,2330 Government St,V8T 5G5,BC,25036210007,http://vibrewing.com/,"['https://twitter.com/vibrewing', 'https://www.facebook.com/vibrewing/', 'https://www.instagram.com/vibrewing/', 'https://untappd.com/vibrewing']",Canada
Way Back Brew Co.,Surrey,"['Craft Sodas', 'Food Truck(s)', 'Wheelchair Accessible', 'Wine']",https://bcaletrail.ca/breweries/way-back-brew-co/,Unit 116 - 15063 54a,V3S 5X7,BC,N/A,https://www.waybackbrewco.com/,"['https://www.facebook.com/waybackbrewingco', 'https://www.instagram.com/waybackbrewco/']",Canada
Wheelhouse Brewing Company,Prince Rupert,"['Food Truck(s)', 'Gluten-Free Beer', 'Growler Fills', 'Live Music', 'Merchandise', 'Snacks']",https://bcaletrail.ca/breweries/wheelhouse-brewing-company/,380 Bill Murray Dr,V8J 4P5,BC,2506242739,https://www.wheelhousebrewing.com/,"['https://twitter.com/wheelhousebeer', 'https://www.facebook.com/wheelhousebrewing/', 'https://www.instagram.com/wheelhousebeer/', 'https://untappd.com/WheelhouseBrewingCompany']",Canada
Whistle Buoy Brewing,Victoria,"['Bike Racks', 'Cider', 'Cocktails', 'Craft Sodas', 'Dog Friendly Patio', 'Guest Taps', 'Merchandise', 'Outside food permitted', 'Patio', 'Snacks', 'Spirits', 'Wheelchair Accessible', 'Wine']",https://bcaletrail.ca/breweries/whistle-buoy-brewing-co/,Unit 63 - 560 Johnson St.,V8W 3C6,BC,N/A,https://whistlebuoybrewing.com/,"['https://www.facebook.com/whistlebuoybrewing/', 'https://www.instagram.com/whistlebuoybrewing/', 'https://untappd.com/WhistleBuoyBrewingCo']",Canada
Whistler Brewing Company,Whistler,"['Brewpub', 'Growler Fills', 'Merchandise']",https://bcaletrail.ca/breweries/whistler-brewing-co/,1045 Millar Creek Rd,V0N 1B1,BC,6049628889,http://whistlerbeer.com,"['https://twitter.com/whistlerbrewing', 'https://www.facebook.com/WhistlerBrewing/', 'https://www.instagram.com/whistlerbrewing/', 'https://untappd.com/WhistlerBrewing']",Canada
White Rock Beach Beer Co.,White Rock,"['Growler Fills', 'Live Music', 'Merchandise', 'Patio', 'Snacks']",https://bcaletrail.ca/breweries/white-rock-beach-beer-company/,15181 Russell Ave,V4B 3Z6,BC,7788085416,http://whiterockbeachbeer.com,"['https://twitter.com/WRBeachBeer', 'https://www.facebook.com/White-Rock-Beach-Beer-Company-277772139071094/', 'https://www.instagram.com/WRBeachBeer/', 'https://untappd.com/w/white-rock-beach-beer-company/125603']",Canada
White Sails Brewing,Nanaimo,"['Cider', 'Cocktails', 'Craft Sodas', 'Growler Fills', 'Guest Taps', 'Live Music', 'Merchandise', 'Non Alc Beer Available', 'Patio', 'Snacks', 'Videogames', 'Wheelchair Accessible', 'Wine']",https://bcaletrail.ca/breweries/white-sails-brewing/,125 Comox Rd,V9R 3H9,BC,2507542337,http://whitesailsbrewing.com,"['https://twitter.com/whitesailsbeer', 'https://www.facebook.com/whitesailsbrewing/', 'https://www.instagram.com/whitesailsbrewing/', 'https://untappd.com/WhiteSailsBrewing']",Canada
Whitetooth Brewing,Golden,"['Food Truck(s)', 'Growler Fills', 'Merchandise', 'Snacks']",https://bcaletrail.ca/breweries/whitetooth-brewing-company-ltd/,623 8th Avenue North,N/A,BC,2503442838,http://whitetoothbrewing.com,"['https://twitter.com/whitetoothbrew', 'https://www.facebook.com/WhitetoothBrewing/', 'https://www.instagram.com/whitetoothbrew/', 'https://untappd.com/WhitetoothBrewing']",Canada
Wild Ambition Brewing,Kelowna,[],https://bcaletrail.ca/breweries/wild-ambition-brewing/,1-3314 Appaloosa Rd,V1V 2W5,BC,N/A,https://wildambition.beer/,"['https://twitter.com/WildAmbitionBC', 'https://www.facebook.com/wildambitionbrewing/', 'https://www.instagram.com/wildambitionbrewing/', 'https://untappd.com/WildAmbitionBrewing']",Canada
Wild North Brewing Co,Creston,"['Cider', 'Food Truck(s)', 'Growler Fills', 'Patio', 'Snacks', 'Videogames', 'Wine']",https://bcaletrail.ca/breweries/wild-north-brewing/,125 16th Ave N,V0B 1G0,BC,2504318624,https://wildnorthbrewery.ca/,"['https://www.facebook.com/wildnorthbrewingco/', 'https://www.instagram.com/wildnorthbrewing/', 'https://untappd.com/WildNorthBrewingCo']",Canada
Wildeye Brewing,North Vancouver,"['Brewpub', 'Cider', 'Growler Fills', 'Non Alc Beer Available', 'Snacks', 'Wine']",https://bcaletrail.ca/breweries/wildeye-brewing/,1385 Main Street,N/A,BC,6049881900,http://www.wildeyebrewing.ca/,"['https://www.facebook.com/wildeyebrewing/', 'https://www.instagram.com/wildeyebrewing', 'https://untappd.com/WildeyeBrewing']",Canada
Wolf Brewing Company,Nanaimo,"['Bike Racks', 'Board Games', 'Cider', 'Cocktails', 'Gluten-Free Beer', 'Growler Fills', 'Live Music', 'Merchandise', 'Non Alc Beer Available', 'Patio', 'Videogames', 'Wheelchair Accessible', 'Wine']",https://bcaletrail.ca/breweries/wolf-brewing-company/,940 Old Victoria Rd,V9R 6Z8,BC,2507162739,http://wolfbrewingcompany.com,"['https://www.facebook.com/Wolf.Nanaimo/', 'https://www.instagram.com/wolfbrewingcompany/', 'https://untappd.com/w/wolf-brewing/11376']",Canada
Yaletown Brewing,Vancouver,"['Brewpub', 'Growler Fills']",https://bcaletrail.ca/breweries/yaletown-brewing-co/,1111 Mainland St,V6B 2T9,BC,6046812739,http://www.mjg.ca/yaletown/,"['https://www.facebook.com/YBC-Yaletown-Brewing-Company-Official-Page-61928961678/', 'https://www.instagram.com/yaletownbrewingco/', 'https://untappd.com/w/yaletown-brewing-company/1381']",Canada
Yellow Dog Brewing,Port Moody,"['Food Truck(s)', 'Growler Fills', 'Merchandise', 'Snacks']",https://bcaletrail.ca/breweries/yellow-dog-brewing/,2817 Murray St #1,V3H 1X3,BC,6044920191,http://yellowdogbeer.com,"['https://twitter.com/yellowdogbeer', 'https://www.facebook.com/YellowDogBeer/', 'https://www.instagram.com/yellowdogbeer/', 'https://untappd.com/YellowDogBrewingCo']",Canada
Yellow Dog Brewing Penticton,Penticton,"['Cocktails', 'Patio', 'Spirits']",https://bcaletrail.ca/breweries/yellow-dog-brewing-penticton/,169 Estabrook Ave,V2A 1G2,BC,N/A,https://yellowdogbeer.com/penticton-tasting-room/,"['https://www.facebook.com/YellowDogBeer', 'https://www.instagram.com/yellowdogbeer/', 'https://untappd.com/YellowDogBrew']",Canada
